"name","postal","city","address","www","email","phone","rector","sun","week","fest","latlng","url"
"Parafia p.w. Matki Bożej Częstochowskiej","16-300","Augustów","16-300 Augustów, ul. Kard. Wyszyńskiego 2a","par.mbcz-augustow.ns48.pl/","","(87) 643-36-65","","7:30, 9:00, 10:30, 12:00, 18:00","7.00; 18.00","","52.32758399999999,21.110528899999963","http://diecezjaelk.pl/parafie.html?sobi2Task=sobi2Details&catid=2&sobi2Id=1"
"Parafia p.w. Miłosierdzia Bożego","16-300","Augustów","16-300 Augustów, pl. Ks. Bolesława Szkiłądzia 1","","","(087) 643 49 79","","9:00, 11:00, 17:00","17:00","","53.84260753891666,22.995223485302745","http://diecezjaelk.pl/parafie.html?sobi2Task=sobi2Details&catid=2&sobi2Id=2"
"Parafia p.w. Najświętszego Serca Jezusowego","16-300","Augustów","16-300 Augustów, ul. Ks. Skorupki 4","www.augustow-nsj.diecezja.elk.pl/","","(87) 643-36-48","","6:00, 8:00, 9:15, 10:30, 12:00, 15:30, 18:00","6.00; 6.30; 8.00; 12.00; 18.00","","53.841943,22.981490000000008","http://diecezjaelk.pl/parafie.html?sobi2Task=sobi2Details&catid=2&sobi2Id=3"
"Parafia p.w. św. Jana Chrzciciela","16-300","Augustów","16-300 Augustów, Aleja Jana Pawła II 14","janchrzciciel.augustow.pl/","","(87) 643 06 19","","8:30, 10:00, 11:15, 12:30, 18:00","18:00; 19:00","","52.3280115,21.114954799999964","http://diecezjaelk.pl/parafie.html?sobi2Task=sobi2Details&catid=2&sobi2Id=4"
"Parafia p.w. Świętej Rodziny","16-300","Augustów","16-300 Augustów, ul. Storczykowa 45","www.swieta-rodzina.augustow.pl/","","(087) 643 44 44","","8:00, 10:00, 12:00, 18:00","","","53.8357064,22.98114899999996","http://diecezjaelk.pl/parafie.html?sobi2Task=sobi2Details&catid=2&sobi2Id=5"
"Parafia p.w. Matki Bożej Różańcowej","19-300","Ełk","19-300 Ełk, Bajtkowo 11","bajtkowo.pl","","","","9:00, 11:30","16:00 (latem 17:00)","","53.738800000000005,22.24750081481932","http://diecezjaelk.pl/parafie.html?sobi2Task=sobi2Details&catid=2&sobi2Id=6"
"Parafia p.w. św. Jakuba Apostoła","16-423","Bakałarzewo","16-423 Bakałarzewo, Rynek 17","","","87 569-40-13","","8:15, 10:00, 12:00","7:30; 17:00","","54.0935272,22.65192830000001","http://diecezjaelk.pl/parafie.html?sobi2Task=sobi2Details&catid=2&sobi2Id=8"
"Parafia p.w. św. Antoniego Padewskiego","19-520","Banie Mazurskie","19-520 Banie Mazurskie, ul. Konopnickiej 57","","","87 615 71 17","","7.30, 9:15, 10:45, 12:00","8:00; 17:00","","54.2459199,22.035922099999993","http://diecezjaelk.pl/parafie.html?sobi2Task=sobi2Details&catid=2&sobi2Id=9"
"Parafia p.w. Najświętszej Maryi Panny Matki Kościoła","11-733","Baranowo","11-733 Baranowo, Baranowo","","","874213005","","8:00, 10:00, 12:00","","","53.3141857,20.826889700000038","http://diecezjaelk.pl/parafie.html?sobi2Task=sobi2Details&catid=2&sobi2Id=10"
"Parafia pw. Podwyższenia Krzyża Świętego","16 - 320","Bargłów Kościelny","16 - 320 Bargłów Kościelny, Augustowska 23","barglow.diecezja.elk.pl/","","87 642 40 15","","7:45, 9:00, 10:30, 12:00","7:00; 17:00 (oprócz stycznia)","","53.83780489999999,22.848998800000004","http://diecezjaelk.pl/parafie.html?sobi2Task=sobi2Details&catid=2&sobi2Id=31"
"Parafia p.w. Matki Bożej Częstochowskiej","16-411","Becejły","16-411 Becejły, Becejły 32","","","(87) 568-11-27","","9:00, 12:00","","","54.21988520000001,23.05122110000002","http://diecezjaelk.pl/parafie.html?sobi2Task=sobi2Details&catid=2&sobi2Id=26"
"Parafia p.w. Wniebowzięcia Najświętszej Maryi Panny","16-505","Berżniki","16-505 Berżniki, Berżniki 47","","","875162808","","9:00, 12:00, 15:00","","","54.11063129999999,23.419135200000028","http://diecezjaelk.pl/parafie.html?sobi2Task=sobi2Details&catid=2&sobi2Id=12"
"Parafia pw. św. Andrzeja Boboli","12-203","Biała Piska","12-203 Biała Piska, ul. Konopnickiej 3a","www.parafiabialapiska.ubf.pl/news.php","","87 423-90-46, 423-95-46","","7:30, 11:00, 12:30, 18:00","7:00; 18:00","","53.608847,22.060749999999985","http://diecezjaelk.pl/parafie.html?sobi2Task=sobi2Details&catid=2&sobi2Id=13"
"Ośrodek duszpasterski p.w. św. Siostry Faustyny","16-311","Białobrzegi","16-311 Białobrzegi, Kolnica","","","(*87) 644-91-02","","11:00","","","53.80176640000001,22.970027500000015","http://diecezjaelk.pl/parafie.html?sobi2Task=sobi2Details&catid=2&sobi2Id=14"
"Parafia pw. Matki Bożej Nieustającej Pomocy","19-131","Borzymy","19-131 Borzymy, Borzymy","borzymy.diecezja.elk.pl/index.php","","87 629-81-66","","9:00, 11:00","17:00","","53.816183,22.69340550000004","http://diecezjaelk.pl/parafie.html?sobi2Task=sobi2Details&catid=2&sobi2Id=15"
"Parafia p.w. Trójcy Przenajświętszej","11-606","Budry","11-606 Budry, Konopnickiej 3","","","(087) 427-80-13","","9:00, 11:30","","","54.219618,21.738068","http://diecezjaelk.pl/parafie.html?sobi2Task=sobi2Details&catid=2&sobi2Id=16"
"Parafia p.w. św. Jadwigi Królowej","11-500","Giżycko","11-500 Giżycko, Bystry","","","(87) 428-59-01","","13:00","","","54.03640499999999,21.766734100000008","http://diecezjaelk.pl/parafie.html?sobi2Task=sobi2Details&catid=2&sobi2Id=17"
"Parafia p.w. św. Brata Alberta Chmielowskiego","19-300","Ełk","19-300 Ełk, Chełchy 4/12","","","(87) 621-11-50","","9:00, 13.00","17.00","","54.0349024707777,22.29766237730712","http://diecezjaelk.pl/parafie.html?sobi2Task=sobi2Details&catid=2&sobi2Id=18"
"Parafia pw. Matki Bożej Częstochowskiej","19-411","Cichy","19-411 Cichy, Cichy 2","","","(87) 523-70-83","","8.30, 10.00, 12.00, 15.00 (w okresie letnim 18.00)","17.00, 18.00 (w okresie letnim), niedziele: 8.30, 10.00, 12.00, 15.00 (w okresie letnim 18.00)","","54.0481202,22.29397419999998","http://diecezjaelk.pl/parafie.html?sobi2Task=sobi2Details&catid=2&sobi2Id=79"
"Parafia p.w. Matki Bożej Królowej Świata","19-405","Cimochy","19-405 Cimochy, Suwalska 10","","","(87) 521-34-26","","9:00, 11:00","","","53.9654961,22.687574499999982","http://diecezjaelk.pl/parafie.html?sobi2Task=sobi2Details&catid=2&sobi2Id=19"
"Parafia pw. Matki Bożej Częstochowskiej","12-240","Drygały","12-240 Drygały, Sienkiewicza 14","drygaly.pl/","","","","9:00, 11:00, 13:00","","","53.683935141531634,22.106328563507077","http://diecezjaelk.pl/parafie.html?sobi2Task=sobi2Details&catid=2&sobi2Id=22"
"Parafia p.w. św. Andrzeja Boboli","19 - 504","Dubeninki","19 - 504 Dubeninki, ul. Kajki 1","parafia.dubeninki.info/","","(87) 615-81-16","","9:15, 11:00, 12.30","17.00","","54.28866037031209,22.55886794078981","http://diecezjaelk.pl/parafie.html?sobi2Task=sobi2Details&catid=2&sobi2Id=23"
"Parafia p.w. błog. Karoliny Kózkówny","19-300","Ełk","19-300 Ełk, Księcia Witolda 2a","elk-karolina.diecezja.elk.pl/","","(87) 621 56 73","","9:00, 12:00","8:30 lub 18:00","","53.81573119999999,22.336617199999978","http://diecezjaelk.pl/parafie.html?sobi2Task=sobi2Details&catid=2&sobi2Id=24"
"Parafia p.w. Chrystusa Sługi","19-300","Ełk","19-300 Ełk, Grota Roweckiego 5a","milosierdzie.elk.pl/","","(087) 621-59-28","","7:00, 8:30, 10:00, 12:00, 18:00","6:30; 18:00","","53.8375326,22.364491300000054","http://diecezjaelk.pl/parafie.html?sobi2Task=sobi2Details&catid=2&sobi2Id=25"
"Parafia p.w. Ducha Świętego","19-300","Ełk","19-300 Ełk, Kilińskiego 7","","","()87) 610-13-60 , 610-57-49","","7.00, 8.30, 9.45, 11.00, 12.15, 13.30, 18.00; święta zniesione: 7.00, 16.30, 18.00","7.00, 18.00; niedziele: 7.00, 8.30, 9.45, 11.00, 12.15, 13.30, 18.00; święta zniesione: 7.00, 16.30, 18.00","","53.81368459999999,22.35923790000004","http://diecezjaelk.pl/parafie.html?sobi2Task=sobi2Details&catid=2&sobi2Id=27"
"Parafia p.w. Najświętszego Serca Jezusowego","19-300","Ełk","19-300 Ełk, Armii Krajowej 2","www.nsj.jupe.pl/","","(87) 621-60-10","","7:00, 8:30, 10:00, 11:30, 16:00, 18:00","6:30; 12:00; 18:00","","53.8215688,22.34831459999998","http://diecezjaelk.pl/parafie.html?sobi2Task=sobi2Details&catid=2&sobi2Id=28"
"Parafia p.w. Najświętszej Maryi Panny Królowej Apostołów","19-300","Ełk","19-300 Ełk, Grodzieńska 6","krolowa.elk.pl/index.html","","","","9:00","","","53.8331598,22.345195200000035","http://diecezjaelk.pl/parafie.html?sobi2Task=sobi2Details&catid=2&sobi2Id=29"
"Parafia p.w. Opatrzności Bożej","19-300","Ełk","19-300 Ełk, Suwalska 21","elk-opatrznosci-bozej.diecezja.elk.pl/","","(87) 621-43-44","","7:30, 9:30, 11:30, 18:00","","","53.8285929,22.36726269999997","http://diecezjaelk.pl/parafie.html?sobi2Task=sobi2Details&catid=2&sobi2Id=30"
"Parafia p.w. św. Wojciecha Biskupa i Męczennika","19-300","Ełk","19-300 Ełk, Kościuszki 16","katedra.elk.pl/","","(87) 610-20-49","","7.00, 8.30, 9.45, 11.00, 12.15, 18.00, 19.30 (msza św. akademicka)","","","53.819959165427186,22.354995158964584","http://diecezjaelk.pl/parafie.html?sobi2Task=sobi2Details&catid=2&sobi2Id=21"
"Parafia pw. Św. Jana Apostoła i Ewangelisty","19-300","Ełk","19-300 Ełk, Toruńska 1","elk-jan.diecezja.elk.pl/","","087 610 11 77","","7.30, 9.00, 11.00, 13.00, 18.00","8.00, 18.00; niedziele: 7.30, 9.00, 11.00, 13.00, 18.00","","53.8281615,22.349852000000055","http://diecezjaelk.pl/parafie.html?sobi2Task=sobi2Details&catid=2&sobi2Id=42"
"Parafia pw. św. Jana Pawła II","19-330","Ełk","19-330 Ełk, św. Maksymiliana Marii Kolbego 7","elk-jp2.diecezja.elk.pl/","","","","8.00, 11.00, 17.00","17.00","","53.7995744,22.35147119999999","http://diecezjaelk.pl/parafie.html?sobi2Task=sobi2Details&catid=2&sobi2Id=46"
"Parafia pw. Św. Rafała Kalinowskiego","19-300","Ełk","19-300 Ełk, Jana Pawła II 6","www.elk.salezjanie.pl/","","(87) 620-97-20","","7:30, 9:00, 10:30, 12:00, 18:00","7:00; 18:00","","53.8030219,22.359689900000035","http://diecezjaelk.pl/parafie.html?sobi2Task=sobi2Details&catid=2&sobi2Id=37"
"Parafia pw. Św. Tomasza Apostoła","19-300","Ełk","19-300 Ełk, 11 listopada 28","www.tomasz.elk.pl/","","(87) 621 65 78","","8.00,9.30, 11.00, 1300, 1800","800, 1800 (w okresie wakacyjnym msza o 800); niedziele: 8.00,9.30, 11.00, 1300, 1800","","53.8322883,22.334024399999976","http://diecezjaelk.pl/parafie.html?sobi2Task=sobi2Details&catid=2&sobi2Id=43"
"Parafia pw. Wniebowzięcia Najświętszej Maryi Panny","16-424","Filipów","16-424 Filipów, Konopnickiej 5","","","(87) 569-60-97","","8.00, 10.00, 12.00, 14.00 (kaplica w Garbasie II), 18.00","7.00, 18.00; niedziele: 8.00, 10.00, 12.00, 14.00 (kaplica w Garbasie II), 18.00","","54.1800765,22.616291100000012","http://diecezjaelk.pl/parafie.html?sobi2Task=sobi2Details&catid=2&sobi2Id=59"
"Parafia pw. Św. Antoniego Padewskiego","19-400","Gąski","19-400 Gąski, Gąski 27","","","516-137-959","","8:30, 10:30","18.00 (zimą 17.00)","","54.0103571,22.486800500000072","http://diecezjaelk.pl/parafie.html?sobi2Task=sobi2Details&catid=2&sobi2Id=74"
"Parafia pw. Św. Maksymiliana Marii Kolbego","16-402","Gawrych Ruda","16-402 Gawrych Ruda, Suwałki 4","","","(087) 563-92-91","","9.00, 19.00 (w okresie letnim: 9.00, 11.30)","16.00 (w okresie letnim: 18.00), niedziele: 9.00, 19.00 (w okresie letnim: 9.00, 11.30)","","54.01942640000001,22.984903199999962","http://diecezjaelk.pl/parafie.html?sobi2Task=sobi2Details&catid=2&sobi2Id=67"
"Parafia pw. św. Anny","16-506","Giby","16-506 Giby, Dziemianówka 26","","","87 516-50-74","","9:00, 11:00","16:00 (latem 19:00)","","54.038815,23.357889","http://diecezjaelk.pl/parafie.html?sobi2Task=sobi2Details&catid=2&sobi2Id=108"
"Parafia pw. św. Anny","11-500","Giżycko","11-500 Giżycko, Królowej Jadwigi 12","","","87 428-69-26","","8:00, 9:30, 11:00, 12:30, 17:30","7:00; 17:30","","54.044612,21.786219999999958","http://diecezjaelk.pl/parafie.html?sobi2Task=sobi2Details&catid=2&sobi2Id=112"
"Parafia pw. św. Brunona","11-500","Giżycko","11-500 Giżycko, Pionierska 14","brunongizycko.pl/","","87 428-35-57","","6:30, 8:00, 9:30, 10:30, 12:00, 13:00, 18:00","6:30; 7:00; 18:00","","54.040504,21.774231900000018","http://diecezjaelk.pl/parafie.html?sobi2Task=sobi2Details&catid=2&sobi2Id=117"
"Parafia pw. św. Kazimierza Królewicza","11-500","Giżycko","11-500 Giżycko, Pionierska 14a","","","87 428-58-21","","7:00, 9:00, 10:15, 11:30, 17:30","7:00; 12:00; 17:30","","54.0407261,21.77428120000002","http://diecezjaelk.pl/parafie.html?sobi2Task=sobi2Details&catid=2&sobi2Id=113"
"Parafia pw. Najświętszego Serca Pana Jezusa","16-404","Jeleniewo","16-404 Jeleniewo, Suwalska 38","","","(87) 568-30-94","","8.00, 10.00, 12.00, święta zniesione: 10.00, 17.00","8.00 (w środy 17.00), niedziele: 8.00, 10.00, 12.00, święta zniesione: 10.00, 17.00","","54.20242214273441,22.91380646210939","http://diecezjaelk.pl/parafie.html?sobi2Task=sobi2Details&catid=2&sobi2Id=63"
"Parafia pw. Św. Apostołów Piotra i Pawła","12-201","Pisz","12-201 Pisz, Jeże 5b","","","87 423-01-21","","8:30, 12:00","18:00","","","http://diecezjaelk.pl/parafie.html?sobi2Task=sobi2Details&catid=2&sobi2Id=127"
"Parafia pw. Św. Apostołów Piotra i Pawła","19-400","Judziki","19-400 Judziki, Judziki 4a","","","(87) 520-76-60","","9.00, 11.00","17.00, niedziele: 9.00, 11.00","","54.0103571,22.486800500000072","http://diecezjaelk.pl/parafie.html?sobi2Task=sobi2Details&catid=2&sobi2Id=80"
"Parafia pw. Ducha świętego","16-411","Kaletnik","16-411 Kaletnik, Kaletnik","","","(87) 564-79-28","","9.00, 10.00 (w budynku szkoły w Jeglińcu), 12.00","7.00, 17.00 (od października do maja 16.00), niedziele: 9.00, 10.00 (w budynku szkoły w Jeglińcu), 12.00","","54.17557014547616,23.08386589101565","http://diecezjaelk.pl/parafie.html?sobi2Task=sobi2Details&catid=2&sobi2Id=52"
"Parafia pw. Wniebowzięcia Najświetszej Maryi Panny","19-314","Kalinowo","19-314 Kalinowo, Mazurska 1","www.parafiakalinowo.pl/","","87 629-84-26","","8.00, 10.00, 12.15","7.00 (lub 1700); niedziele: 8.00, 10.00, 12.15","","53.86995811087385,22.672614676196304","http://diecezjaelk.pl/parafie.html?sobi2Task=sobi2Details&catid=2&sobi2Id=49"
"Parafia pw. św. Jana Kantego","11-500","Giżycko","11-500 Giżycko, Kamionki","","","87 428-15-20","","9:00","17:00","","54.0590617,21.64274009999997","http://diecezjaelk.pl/parafie.html?sobi2Task=sobi2Details&catid=2&sobi2Id=120"
"Parafia pw. Matki Bożej Wspomożenia Wiernych","12-250","Klusy","12-250 Klusy, Klusy 12","","","(87) 423 79 91","","9.00 (kaplica w Różyńsku), 10. 45, 12.30 (kaplica w Skomacku)","18 (okres zimowy 16 lub 17); niedziele: 9.00 (kaplica w Różyńsku), 10. 45, 12.30 (kaplica w Skomacku)","","53.7910534,22.116579399999978","http://diecezjaelk.pl/parafie.html?sobi2Task=sobi2Details&catid=2&sobi2Id=45"
"Parafia pw. MB Gietrzwałdzkiej","12-200","Pisz","12-200 Pisz, Kocieołek Szlachecki","","","87 423-33-91","","10:00","17:00","","","http://diecezjaelk.pl/parafie.html?sobi2Task=sobi2Details&catid=2&sobi2Id=128"
"Parafia pw. Św. Maksymiliana Marii Kolbe","16-300","Augustów","16-300 Augustów, Kolnica","","","(087) 644 91 02","","9:30","","","53.79439530422419,23.050326787304698","http://diecezjaelk.pl/parafie.html?sobi2Task=sobi2Details&catid=2&sobi2Id=33"
"Parafia pw. Św. Maksymiliana Marii Kolbego","11-700","Kosewo","11-700 Kosewo, Kosewo 9","","","(89) 742-45-98","","8:30, 11.30","18.00 (zimą 17.00)","","53.82866780000001,21.387661699999967","http://diecezjaelk.pl/parafie.html?sobi2Task=sobi2Details&catid=2&sobi2Id=92"
"Parafia pw. Św. Jana Chrzciciela","19-420","Kowale Oleckie","19-420 Kowale Oleckie, Kościuszki 29","","","(87) 523-82-33","","7.00, 830 (kaplica w Drozdowie), 10.00, 12.00, 17.00","17.00, niedziele: 7.00, 830 (kaplica w Drozdowie), 10.00, 12.00, 17.00","","54.1625759,22.417211700000053","http://diecezjaelk.pl/parafie.html?sobi2Task=sobi2Details&catid=2&sobi2Id=81"
"Parafia pw. Przemienienia Pańskiego","16-503","Krasnopol","16-503 Krasnopol, Wojska Polskiego 15","","","87 564-02-32","","9:00, 12:00, 17:00","7:30","","54.1150542,23.20616300000006","http://diecezjaelk.pl/parafie.html?sobi2Task=sobi2Details&catid=2&sobi2Id=109"
"Parafia pw. Zwiastowania Najświętszej Maryi Panny","16-310","Krasnybór","16-310 Krasnybór, Krasnybór 45","","","(87) 641-40-12","","7.30, 9.00 (kościół św. Rocha), 11.30 (kościół Zwiastowania NMP). W okresie zimowym: 9.00 (kościół św. Rocha), 11.30 (kościół Zwiastowania NMP)","7.00 (kościół Matki Bożej); niedziele: 7.30, 9.00 (kościół św. Rocha), 11.30 (kościół Zwiastowania NMP). W okresie zimowym: 9.00 (kościół św. Rocha), 11.30 (kościół Zwiastowania NMP)","","53.7279809,23.199093100000027","http://diecezjaelk.pl/parafie.html?sobi2Task=sobi2Details&catid=2&sobi2Id=87"
"Parafia pw. Wniebowzięcia NMP","11-612","Kruklanki","11-612 Kruklanki, 22 Lipca 28","","","87 421-70-21","","8:30, 11:30","18:00 (zimą 17:00)","","54.089661,21.92455700000005","http://diecezjaelk.pl/parafie.html?sobi2Task=sobi2Details&catid=2&sobi2Id=114"
"Parafia pw. Narodzenia NMP","12-230","Biała Piska","12-230 Biała Piska, Kumielsk 1","","","87 423-98-08","","9:00, 12:30","17:00","","","http://diecezjaelk.pl/parafie.html?sobi2Task=sobi2Details&catid=2&sobi2Id=139"
"Parafia pw. Św. Maksymiliana Marii Kolbe","11-610","Kuty","11-610 Kuty, Kuty 61","","","(87) 427-93-31","","9.00, 11.00, 12.30 (kaplica w Krzywińskich)","17.00, niedziele: 9.00, 11.00, 12.30 (kaplica w Krzywińskich)","","54.1666667,21.96666670000002","http://diecezjaelk.pl/parafie.html?sobi2Task=sobi2Details&catid=2&sobi2Id=98"
"Parafia pw. Matki Bożej Anielskiej","16-315","Lipsk","16-315 Lipsk, Kościelna 28","","","(87) 642-26-90","","8:00, 10:00, 12:00, 17:00; święta zniesione: 8:00, 10:00, 17:00","8:00, 17:00; niedziele: 8:00, 10:00, 12:00, 17:00; święta zniesione: 8:00, 10:00, 17:00","","53.7372408,23.39147920000005","http://diecezjaelk.pl/parafie.html?sobi2Task=sobi2Details&catid=2&sobi2Id=88"
"Parafia pw. Św. Marii Magdaleny","16-326","Mikaszówka","16-326 Mikaszówka, Mikaszówka 17","parafiawmikaszowce.pl/","","","","9.00, 10.15 (kaplica w Rudawce), 11.30 (kaplica w Strzelcowiźnie)","","","53.88869807416837,23.394205880664003","http://diecezjaelk.pl/parafie.html?sobi2Task=sobi2Details&catid=2&sobi2Id=89"
"Parafia pw. Matki Bożej Różańcowej","11-730","Mikołajki","11-730 Mikołajki, Kajki 27","mikolajki-mbr.diecezja.elk.pl/","","(87) 421-60-76","","8.30, 10.00, 12.00, 18.00 (w okresie letnim 20.00)","8.00, 18.00 (w okresie letnim 19.00), niedziela: 8.30, 10.00, 12.00, 18.00 (w okresie letnim 20.00)","","53.7989098,21.57601939999995","http://diecezjaelk.pl/parafie.html?sobi2Task=sobi2Details&catid=2&sobi2Id=93"
"Parafia pw. Św. Mikołaja","11-730","Mikołajki","11-730 Mikołajki, Ks. Jerzego Popiełuszki 1","www.parafiamikolajki.hekko.pl/","","87 777 00 09","","7.30, (kaplica w Tałtach 9.30), 11. 00, 13.00, 18.00 (w okresie letnim 19.00).","17.00, (kaplica w Tałtach 16.00, w okresie letnim 18.00), niedziele: 7.30, (kaplica w Tałtach 9.30), 11. 00, 13.00, 18.00 (w okresie letnim 19.00).","","53.8015848,21.576320699999997","http://diecezjaelk.pl/parafie.html?sobi2Task=sobi2Details&catid=2&sobi2Id=94"
"Parafia pw. Matki Bożej Królowej Polski","11-513","Miłki","11-513 Miłki, Giżycka 47","parafia-milki.pl","","","","8:30, 11:30","17:00","","","http://diecezjaelk.pl/parafie.html?sobi2Task=sobi2Details&catid=2&sobi2Id=115"
"Parafia pw. Matki Bożej Anielskiej","16-305","Monkinie","16-305 Monkinie, Monkinie","","","(087) 641 00 11","","9:00, 12:00","","","53.983096,23.08798909999996","http://diecezjaelk.pl/parafie.html?sobi2Task=sobi2Details&catid=2&sobi2Id=35"
"Parafia p.w. Św. Józefa Rzemieślnika","19-321","Nowa Wieś Ełcka","19-321 Nowa Wieś Ełcka, Małeckich 1","nwe.diecezja.elk.pl","","(87) 619-74-68","","9.00, 10.45 (kaplica w Bobrach), 12.30","","","53.770554743555586,22.328033207450062","http://diecezjaelk.pl/parafie.html?sobi2Task=sobi2Details&catid=2&sobi2Id=39"
"Parafia pw. Niepokalanego Serca NMP","12-250","Orzysz","12-250 Orzysz, Okartowo 9","","","87 425-30-66","","8:00, 12:00","18:00","","","http://diecezjaelk.pl/parafie.html?sobi2Task=sobi2Details&catid=2&sobi2Id=140"
"Parafia pw. Najświętszej Maryi Panny Królowej Polski","19-400","Olecko","19-400 Olecko, Pl. Wolności 18","nmp.olecko.pl/","","519-768-137","","07.00, 08.30, 10.00, 10.00 (kaplica w Gordejkach) 11.30, 13.00, 14.00 (hospicjum w Jaśkach), 14.00 (kaplica szpitalna w Olecku), 18.00, dni powszednie: 06.30, 07.00, 18.00","06.30, 07.00, 18.00","","54.03660459309139,22.505151608459528","http://diecezjaelk.pl/parafie.html?sobi2Task=sobi2Details&catid=2&sobi2Id=82"
"Parafia pw. Podwyższenia Krzyża Świętego","19-400","Olecko","19-400 Olecko, Zamkowa 6","www.krzyzolecko.pl/","","87 520-22-98","","8:00, 10:00, 12:00, 17:00","7:30; 18:00","","54.039179,22.510250000000042","http://diecezjaelk.pl/parafie.html?sobi2Task=sobi2Details&catid=2&sobi2Id=75"
"Parafia pw. Świętej Rodziny","19-401","Olecko","19-401 Olecko, Os. Siejnik I 15","swieta-rodzina.olecko.pl/","","(87) 523-92-20","","8.30, 11.00, 18.00","18.00, niedziele: 8.30, 11.00, 18.00","","54.024663,22.489746999999966","http://diecezjaelk.pl/parafie.html?sobi2Task=sobi2Details&catid=2&sobi2Id=83"
"Parafia pw. Wniebowzięcia Najświętszej Maryi Panny","19-400","Olecko","19-400 Olecko, Osiedle Lesk 22","","","(87) 523-40-96","","9.15, 11.00","17.00, niedziele: 9.15, 11.00","","54.0337279,22.506943099999944","http://diecezjaelk.pl/parafie.html?sobi2Task=sobi2Details&catid=2&sobi2Id=76"
"Parafia pw. Podwyższenia Krzyża Świetego","11-606","Budry","11-606 Budry, Olszewo Węgorzewskie 29","www.parafiaolszewo.na11.pl/","","(87) 437-70-11","","8:30, 10:00","17.00","","54.3045546,21.753771599999936","http://diecezjaelk.pl/parafie.html?sobi2Task=sobi2Details&catid=2&sobi2Id=99"
"Parafia pw. MB Szkaplerznej","12-250","Orzysz","12-250 Orzysz, Giżycka 1a","","","87 423-89-93","","7:00, 8:00, 10:00, 11:30, 18:00","7:00; 18:00","","","http://diecezjaelk.pl/parafie.html?sobi2Task=sobi2Details&catid=2&sobi2Id=141"
