"name","postal","city","address","www","email","phone","rector","sun","week","fest","latlng","url"
"Kościół rektoralny św. Marka Ewangelisty","","","ul. św. Marka 10, 31-012 Krakow","www.swietymarek.pl",""," 12 429 54 04","","9:00 , 10:15, 11:30, 15:30, 19:00 ","","","","http://www.diecezja.pl/parafie/lista-parafii/krakow-centrum/kosciolrektoralny-sw-marka-ewangelisty.html"
"Parafia Greckokatolicka Podwyższenia Krzyża Świętego","","","ul. Wiślna 11, 31‑007 Krakow","www.krakow.cerkowgr.pl","krakow@cerkowgr.pl","+ 48 12 429 28 61","ks. mgr lic. Piotr Pawliszcze,&nbsp;","10:00 ","","","","http://www.diecezja.pl/parafie/lista-parafii/krakow-centrum/parafia-greckokatolicka-podwyzszenia-krzyza-swietego.html"
"Parafia Nawiedzenia NMP","","","ul. Karmelicka 19, 31‑131 Krakow","www.parafia.karmelici.pl","parafia@karmelici.pl"," 12 632 67 52,  12 632 11 73, fax.  12 632 69 70","o. Roman Tupaj OC","6:00, 7:00, 8:00, 9:00, 10:00, 11:00, 12:00, 13:00, 16:30, 19:00 ","19:00  sobota","","","http://www.diecezja.pl/parafie/lista-parafii/krakow-centrum/parafia-nawiedzenia-nmp.html"
"Parafia św. Anny","","","ul. św. Anny 11, 31-008 Krakow","www.kolegiata-anna.pl","kontakt@kolegiata-anna.pl"," 12 422 53 18, fax. 12 423 23 98","ks. prof. dr hab. Tadeusz Panuś,&nbsp;","7:30, 9:00, 10:00, 11:00, 12:00, 13:00, 19:30, 20:30, 21:30 ","19:30  sobota","","","http://www.diecezja.pl/parafie/lista-parafii/krakow-centrum/parafia-sw-anny.html"
"Parafia św. Floriana","","","ul. Warszawska 1b, 31-155 Krakow","","kancelaria@swflorian.net"," 12 422 48 42","ks. mgr Grzegorz Szewczyk,&nbsp;","6:30, 8:00, 9:30, 11:00, 12:15, 15:15, 18:30, 20:00 ","","","","http://www.diecezja.pl/parafie/lista-parafii/krakow-centrum/parafia-sw-floriana.html"
"Parafia Świętego Krzyża","","","ul. Świętego Krzyża 23, 31-023 Krakow","www.krzyzkrakow.pl","krzyzkrak@diecezja.krakow.pl"," 12 429 20 56, fax. w. 22","ks. mgr Paweł Kubani,&nbsp;","7:30 , 9:00, 10:30 [j. łaciński] , 12:00, 13:15, 18:00, 19:15 [j. łaciński] , 21:00 ","18:00  sobota","","","http://www.diecezja.pl/parafie/lista-parafii/krakow-centrum/parafia-swietego-krzyza.html"
"Parafia Wniebowzięcia NMP","","","pl. Mariacki 5, 31-042 Krakow","www.mariacki.com","biuro@mariacki.com","","ks. dr Dariusz Raś","6:00, 7:00, 8:00, 9:00, 10:00, 11:15, 12:00, 13:00, 18:30 ","18:30  sobota","","","http://www.diecezja.pl/parafie/lista-parafii/krakow-centrum/parafia-wniebowziecia-nmp.html"
"Parafia Wszystkich Świętych","","","ul. Kanonicza 11, 31‑002 Krakow","www.apostolowie.pl","parafia@apostolowie.pl"," 12 350 63 65, kancelaria wew. 101","ks. Marek Głownia","8:00, 9:30, 11:00, 12:30, 18:00 ","18:00  sobota","","","http://www.diecezja.pl/parafie/lista-parafii/krakow-centrum/parafia-wszystkich-swietych.html"
"Kościół św. Wojciecha BM","","","31‑042 Krakow, Rynek Głowny","www.kosciolwojciecha.pl","kontakt@kosciolwojciecha.pl","","ks. mgr ","10:30, 12:15 ","","","","http://www.diecezja.pl/parafie/lista-parafii/krakow-centrum/kosciolsw-wojciecha-bm.html"
"Wojskowa Parafia Personalna św. Agnieszki","","","ul. Dietla 30, 31‑070 Krakow","www.swagnieszka.wp.mil.pl/pl/1.html","karow_ordynariat@ordynariat.pl",".  12 455 49 42","ks. płk dr hab. Stanisław Gulak,&nbsp;","","18:00  sobota","","","http://www.diecezja.pl/parafie/lista-parafii/krakow-centrum/wojskowa-parafia-personalna-sw-agnieszki.html"
"Rektorat kościoła Zmartwychwstania Pańskiego","","","ul. Rakowicka 26/18, 31-510 Krakow","","kapelaniarakowice@pro.onet.pl"," 12 413 30 73","","9:00, 10:00, 11:10, 12:00 [j. łaciński], 13:00 ","","","","http://www.diecezja.pl/parafie/lista-parafii/2-krakow---kazimierz/rektorat-kosciola-zmartwychwstania-panskiego.html"
"św. Stanisława BM","","","ul. Zwycięstwa 21, 31-563 Krakow","www.parafia.dabiekrakow.pl","parafia@dabiekrakow.pl"," 12 414 30 16",":","7:00, 8:30, 10:00, 11:30, 13:00, 19:00 ","18:00  sobota","","","http://www.diecezja.pl/parafie/lista-parafii/2-krakow---kazimierz/sw-stanislawa-bm.html"
"Parafia Miłosierdzia Bożego","","","ul. bpa Bandurskiego 12, 31-515 Krakow","www.oficerskie.info/",""," 12 411 51 17","ks. mgr Zygmunt Kosek","8:00, 9:30, 11:00, 12:00, 13:00, 18:00 ","18:00  sobota","","","http://www.diecezja.pl/parafie/lista-parafii/2-krakow---kazimierz/parafia-milosierdzia-bozego.html"
"Parafia Bożego Ciała","","","ul. Bożego Ciała 26, 31‑059 Krakow","www.bozecialo.net",""," 12 430 61 22","ks. mgr Piotr Walczak CRL","6:30, 8:00, 9:30, 11:00, 12:15, 16:00, 19:00 ","19:00  sobota","","","http://www.diecezja.pl/parafie/lista-parafii/2-krakow---kazimierz/parafia-bozego-ciala.html"
"Parafia św. Katarzyny Aleksandryjskiej","","","ul. Augustiańska 7, 31‑064 Krakow","www.parafia-kazimierz.augustianie.pl","parafia-kazimierz@augustianie.pl"," 12 430 62 42","o. mgr Marek Krzysztof Donaj OSA","7:00 , 9:00, 11:00, 12:15, 18:00 ","18:00  sobota","","","http://www.diecezja.pl/parafie/lista-parafii/2-krakow---kazimierz/parafia-sw-katarzyny-aleksandryjskiej.html"
"Parafia św. Kazimierza","","","ul. Bobrowskiego 6, 31-552 Krakow","www.grzegorzki.diecezja.pl","parafia@grzegorzki.vbiz.pl"," 12 411 12 62, kancelaria w. 23","ks. Jozef Jończyk","8:00, 9:30, 11:00, 12:30, 16:30, 18:00 ","","","","http://www.diecezja.pl/parafie/lista-parafii/2-krakow---kazimierz/parafia-sw-kazimierza.html"
"Parafia św. Mikołaja","","","ul. Kopernika 9, 31-034 Krakow","www.parafiamikolaj-krakow.pl","parafia@mikolaj.diecezja.pl"," 12 424 04 10","ks. mgr&nbsp;","6:30, 8:00, 9:30, 11:30, 13:00, 15:00, 19:00 ","18:00  sobota","","","http://www.diecezja.pl/parafie/lista-parafii/2-krakow---kazimierz/parafia-sw-mikolaja.html"
"Parafia Zesłania Ducha Świętego","","","ul. Rostworowskiego 13, 30‑358 Krakow","www.ruczaj.diecezja.pl",""," 12 266 47 06","ks. Kazimierz Wyrwa","7:15, 8:30, 10:00, 11:30, 13:00, 16:00 , 18:00, 19:30 ","18:00  sobota","","","http://www.diecezja.pl/parafie/lista-parafii/3-krakow---salwator/parafia-zeslania-ducha-swietego.html"
"Parafia MB Nieustającej Pomocy","","","ul. Księcia Jozefa 176, 30‑243 Krakow","","mbnieustajpomocy@gmail.com",".  12 429 71 45","ks. mgr Kazimierz Wodniak","8:00, 10:00, 11:30 , 18:00 ","18:00  sobota","","","http://www.diecezja.pl/parafie/lista-parafii/3-krakow---salwator/parafia-mb-nieustajacej-pomocy.html"
"Parafia św. Stanisława Kostki","","","ul. Konfederacka 6, 30‑306 Krakow","debniki.sdb.org.pl","debniki@sdb.krakow.pl"," 12 269 16 18","ks. Jan Dubas SDB","7:00, 8:30, 10:00, 11:30, 13:00 , 18:00, 20:00 ","","","","http://www.diecezja.pl/parafie/lista-parafii/3-krakow---salwator/parafia-sw-stanislawa-kostki.html"
"Parafia MB Częstochowskiej","","","ul. Korzeniaka 16, 30‑298 Krakow","www.olszanica.kapucyni.pl",""," 12 623 83 79","o. Cezary Pietras OFMCap","7:00, 9:00, 11:00, 18:00 ","","","","http://www.diecezja.pl/parafie/lista-parafii/3-krakow---salwator/parafia-mb-czestochowskiej.html"
"Parafia Chrystusa Króla","","","ul. Zaskale 1, 30‑250 Krakow,","www.przegorzaly.pl/guppy_/index.php?lng=pl",""," 12 429 73 77","ks. Andrzej Hajduk SI","7:00, 9:00, 11:30, 18:00 ","18:00  sobota","","","http://www.diecezja.pl/parafie/lista-parafii/3-krakow---salwator/parafia-chrystusa-krola.html"
"Parafia Najświętszego Serca Pana Jezusa","","","30-377 Krakow, ul. Wzgorze 33","www.pychowice.salezjanie.pl","pychowice@salezjanie.pl"," 12 266 22 12","ks. dr Jacek Ryłko SDB","7:30, 9:00, 9:00 , 10:00 , 10:30, 12:00, 16:00 , 18:00 ","godz. 16:30- 17:30 sobota","","","http://www.diecezja.pl/parafie/lista-parafii/3-krakow---salwator/parafia-najswietszego-serca-pana-jezusa.html"
"Parafia Najświętszego Salwatora","","","ul. Kościuszki 88, 30‑114 Krakow","www.parafiasalwator.pl","","centrala  12 424 43 60","ks. mgr Stanisław Sudoł","6:30 , 7:30 , 9:00 , 10:00 , 10:30 , 11:15 , 12:00 , 13:15 , 19:00 ","","","","http://www.diecezja.pl/parafie/lista-parafii/3-krakow---salwator/parafia-najswietszego-salwatora.html"
"Parafia MB Różańcowej","","","ul. Skotnicka 139a, 30‑394 Krakow","www.parafiaskotniki.pl","kancelaria@parafiaskotniki.pl","+ 48 12 262 16 57","ks. mgr lic. Jozef Czerwiński","8:00, 10:00, 11:30, 18:00 ","18:00  sobota","","","http://www.diecezja.pl/parafie/lista-parafii/3-krakow---salwator/parafia-mb-rozancowej.html"
"Parafia Świętych Apostołów Piotra i Pawła","","","ul. Benedyktyńska 37, 30‑398 Krakow","www.tyniec.benedyktyni.pl","parafia@benedyktyni.pl"," 12 688 52 79","o. Andrzej Haase OSB","6:30, 8:00 , 8:30, 10:00 , 10:30, 12:30, 18:00 ","","","","http://www.diecezja.pl/parafie/lista-parafii/3-krakow---salwator/parafia-swietych-apostolow-piotra-i-pawla.html"
"Parafia NMP Królowej Polski","","","al. Panieńskich Skał 18, 30‑225 Krakow","www.parafia.justowska.info",""," 12 426 45 75","ks. mgr Roman Łędzki","8:00, 9:30, 11:00, 12:30 , 18:00 ","18:00  sobota","","","http://www.diecezja.pl/parafie/lista-parafii/3-krakow---salwator/parafia-nmp-krolowej-polski.html"
"Rektorat pw. bł. Jana Pawła II","","","ul. Bobrzyńskiego 8, 30-348 Krakow","jp2ruczaj.pl",""," 12 269 46 63,  12 269 47 06","","9:00, 12:00, 19:00 ","19:00  sobota","","","http://www.diecezja.pl/parafie/lista-parafii/3-krakow---salwator/rektorat-pw-bljana-pawla-ii.html"
"Parafia św. Wojciecha","","","ul. św. Wojciecha 4, 30‑134 Krakow","www.swwojciech.com",""," 12 636 73 69","ks. Jozef Caputa","7:30, 9:00, 10:30, 12:00, 13:00 , 18:00 , 19:00 ","18:00  sobota","","","http://www.diecezja.pl/parafie/lista-parafii/4-krakow---bronowice/parafia-sw-wojciecha.html"
"Parafia św. Jana Kantego","","","ul. Jabłonkowska 18, 30‑139 Krakow","www.jankanty.pl","parafia@jankanty.pl"," 12 637 55 05","ks. mgr lic. Janusz Moskała","7:30, 9:00, 10:30, 12:00, 13:15 , 17:00 , 18:30, 20:00 ","18:30  sobota","","","http://www.diecezja.pl/parafie/lista-parafii/4-krakow---bronowice/parafia-sw-jana-kantego.html"
"bł. Anieli Salawy","","","al. Kijowska 29, 30‑079 Krakow","www.anielasalawa.org.pl","parafia@anielasalawa.org.pl"," 12 637 65 24, fax wew. 41","ks. Aleksander Bandura CM","7:30, 9:00, 10:30, 12:00, 18:00, 19:30 ","18:00  sobota","","","http://www.diecezja.pl/parafie/lista-parafii/4-krakow---bronowice/blanieli-salawy.html"
"Parafia NMP z Lourdes","","","ul. Misjonarska 37, 30‑058 Krakow","www.misjonarska.pl","lourdes_cm@interia.pl"," 12 637 13 94,  12 622 59 21","ks. mgr Jacek Kuziel CM","6:30, 8:00, 9:30, 11:00, 12:30, 15:00, 16:30, 18:30, 20:00 ","18:30  sobota","","","http://www.diecezja.pl/parafie/lista-parafii/4-krakow---bronowice/parafia-nmp-z-lourdes.html"
"Parafia św. Jacka","","","ul. E.W. Radzikowskiego 49, 31-315 Krakow","www.swjacek.info","","","ks. mgr Jacek Piszczek","8:00, 10:00, 12:00, 19:30 ","","","","http://www.diecezja.pl/parafie/lista-parafii/4-krakow---bronowice/parafia-sw-jacka.html"
"Parafia św. Szczepana","","","ul. Sienkiewicza 19, 30‑033 Krakow","www.sw.szczepan.diecezja.krakow.pl","",".  12 632 28 92","ks. mgr Leszek Garstka","6:30, 8:00, 9:30, 11:00, 12:30, 14:00, 18:00, 19:30 ","18:00  sobota","","","http://www.diecezja.pl/parafie/lista-parafii/4-krakow---bronowice/parafia-sw-szczepana.html"
"Parafia św. Antoniego z Padwy","","","ul. Pod Strzechą 16, 31‑352 Krakow","www.antonibronowice.org",""," 12 637 07 53","ks. Marian Bylica","7:00, 10:00, 12:00, 18:00 ","","","","http://www.diecezja.pl/parafie/lista-parafii/4-krakow---bronowice/parafia-sw-antoniego-z-padwy.html"
"Parafia Matki Bożej Nieustającej Pomocy","","","ul. Hemara 1, 30‑198 Krakow","www.mydlniki.diecezja.pl","mydlniki@diecezja.pl"," 12 626 04 53","ks. mgr Jan Rajda","7:30, 9:00, 10:30 , 12:00, 18:00 ","18:00  sobota","","","http://www.diecezja.pl/parafie/lista-parafii/4-krakow---bronowice/parafia-matki-bozej-nieustajacej-pomocy.html"
"Parafia św. Antoniego z Padwy","","","Rząska, ul. Słoneczna 24, 30-199 Krakow","www.rzaska.diecezja.pl","rzaska@diecezja.pl","","ks. Ignacy Moskwa","7:30, 9:30, 11:00, 16:00 ","","","","http://www.diecezja.pl/parafie/lista-parafii/4-krakow---bronowice/parafia-sw-antoniego-z-padwy-.html"
"Parafia Narodzenia św. Jana Chrzciciela","","","Korzkiew 3, 32‑088 Przybysławice","www.parafiakorzkiew.pl","parafia.korzkiew@neostrada.p"," 12 419 42 28","ks. mgr Zbigniew Płachta","8:00, 9:30, 11:00, 16:00 ","18:00  sobota","","","http://www.diecezja.pl/parafie/lista-parafii/5-krakow---krowordrza/parafia-narodzenia-sw-jana-chrzciciela.html"
"Parafia św. Karola Boromeusza","","","ul. Zdrowa, 31‑216 Krakow","www.karolboromeusz.diecezja.pl",""," 12 416 35 38","ks. mgr Stanisław Czajka","8:00, 9:30, 11:00, 12:15, 17:00 , 18:00 ","","","","http://www.diecezja.pl/parafie/lista-parafii/5-krakow---krowordrza/parafia-sw-karola-boromeusza.html"
"Parafia Chrystusa Odkupiciela Człowieka","","","ul. Stelmachow 137, 31-349 Krakow","www.parafiaredemptor.diecezja.pl","kkijas@diecezja.krakow.pl","kom.  602 633 292","ks. mgr Kazimierz Kijas","8:30, 10:00, 11:30, 19:00 ","18:30  sobota","","","http://www.diecezja.pl/parafie/lista-parafii/5-krakow---krowordrza/parafia-chrystusa-odkupiciela-czlowieka.html"
"Parafia Niepokalanego Poczęcia NMP","","","ul. Chełmońskiego 41, 31‑301 Krakow","www.parafia-azory.pl",""," 12 637 49 49","o. mgr Jacek Koman OFM","6:00, 7:30, 9:00, 10:30, 12:00, 13:15, 18:00, 20:00 ","18:30  sobota","","","http://www.diecezja.pl/parafie/lista-parafii/5-krakow---krowordrza/parafia-niepokalanego-poczecia-nmp.html"
"Parafia Stygmatów św. Franciszka z Asyżu","","","ul. Ojcowska 1, 31‑344 Krakow","www.franciszkanie-bronowice.pl","parafia.bronowice@gmail.com"," 12 637 55 96","o. Eligiusz Ryszard Dymowski OFM","7:00, 9:00, 10:30, 12:00, 18:00 ","","","","http://www.diecezja.pl/parafie/lista-parafii/5-krakow---krowordrza/parafia-stygmatow-sw-franciszka-z-asyzu.html"
"Parafia św. Jadwigi Królowej","","","ul. Łokietka 60, 31‑334 Krakow","www.swietajadwiga.diecezja.pl","swietajadwiga@diecezja.pl"," 12 637 14 15","ks. mgr Marek Hajdyła R.M.","6:30, 8:00, 9:30, 10:10 , 11:00, 12:30, 17:00, 18:30, 20:30 ","18:30  sobota","","","http://www.diecezja.pl/parafie/lista-parafii/5-krakow---krowordrza/parafia-sw-jadwigi-krolowej.html"
"Parafia NMP Matki Kościoła","","","ul. Pasteura 1, 31‑222 Krakow","www.matka.kosciola.pl","matka@kosciola.pl"," 12 415 53 04, kancelaria w. 20","ks. mgr Franciszek Motyka","7:00, 8:30, 10:00, 11:30, 13:00, 16:00 , 18:00 ","18:00  sobota","","","http://www.diecezja.pl/parafie/lista-parafii/5-krakow---krowordrza/parafia-nmp-matki-kosciola.html"
"Rektorat św. Stanisława BM","","","ul. Gaik 7, 31‑338 Krakow","","toniestanislaw@wp.pl","","ks. mgr Jan Urbański","8:00, 10:30, 15:00 ","","","","http://www.diecezja.pl/parafie/lista-parafii/5-krakow---krowordrza/rektorat-sw-stanislawa-bm.html"
"Parafia św. Marii Magdaleny","","","ul. Dożynkowa 35, 31‑234 Krakow","parafiawitkowice.krakow.pl/",""," 12 415 64 62","ks. mgr Mieczysław Działek","8:00, 10:00 , 11:30, 16:15 ","","","","http://www.diecezja.pl/parafie/lista-parafii/5-krakow---krowordrza/parafia-sw-marii-magdaleny.html"
"Parafia MB Częstochowskiej","","","Plac Jozefa Kusia 2, 32-087 Zielonki","www.wola-zachariaszowska.pl",""," 12 376 44 16","ks. Michał Kowalski","8:45, 10:30, 17:00 ","18:00  sobota","","","http://www.diecezja.pl/parafie/lista-parafii/5-krakow---krowordrza/parafia-mb-czestochowskiej.html"
"Parafia Narodzenia NMP","","","ul. ks. Jana Michalika 1, 32‑087 Zielonki","www.parafia-nnmp-zielonki.pl/","parafia@zielonki.krakow.pl"," 12 285 03 21, tel  12 &nbsp;285 00 82","ks. Andrzej Olszowski","7:45, 9:30, 11:45, 17:00 ","","","","http://www.diecezja.pl/parafie/lista-parafii/5-krakow---krowordrza/parafia-narodzenia-nmp.html"
"Parafia MB Nieustającej Pomocy","","","Bibice, Rynek 3, 32‑087 Zielonki","",""," 12 285 85 00","ks. mgr Jan Przybocki","7:00, 9:00, 11:00 ","","","","http://www.diecezja.pl/parafie/lista-parafii/6-krakow---pradnik/parafia-mb-nieustajacej-pomocy.html"
"Kapelania pw.Chrystusa Odkupiciela","","","ul. Powstańcow 48, 31‑422 Krakow","","","","","12:30 ","","","","http://www.diecezja.pl/parafie/lista-parafii/6-krakow---pradnik/kapelania-pw-chrystusa-odkupiciela.html"
"Parafia Chrystusa Króla","","","Al. 29 Listopada 195, 31‑241 Krakow","www.chrystuskrol.eu","parafia.gotyk@gmail.com"," 12 418 34 35","ks. mgr Stanisław Wątroba","8:00, 9:30, 11:00, 12:30, 18:00 ","18:00  sobota","","","http://www.diecezja.pl/parafie/lista-parafii/6-krakow---pradnik/parafia-chrystusa-krola.html"
"Parafia Pana Jezusa Dobrego Pasterza","","","ul. Dobrego Pasterza 4, 31‑416 Krakow","www.dobrypasterz.krakow.pl","",".  12 411 61 28","ks. mgr Dionizy Jedynak","6:30, 7:30 , 8:00, 9:00, 10:00, 11:15, 12:30, 16:00, 18:00, 19:15 ","18:00  sobota","","","http://www.diecezja.pl/parafie/lista-parafii/6-krakow---pradnik/parafia-pana-jezusa-dobrego-pasterza.html"
"Parafia św. Jana Chrzciciela","","","&nbsp;","janchrzciciel.eu","parafia@janchrzciciel.eu","","ks. mgr lic. Jerzy Serwin","7:30, 9:00, 10:30, 12:00, 13:30 , 18:00 , 19:30 ","18:30  sobota","","","http://www.diecezja.pl/parafie/lista-parafii/6-krakow---pradnik/parafia-sw-jana-chrzciciela.html"
"Parafia Najświętszego Imienia Maryi","","","ul. Dzielskiego 1, 31‑465 Krakow","www.rakowice.pijarzy.pl",""," 12 411 44 11, tel  12 413 10 66","o. Wojciech Kałafut","6:00, 7:00, 8:30, 10:00, 11:30, 13:00, 15:00 , 19:00 ","18:00  sobota","","","http://www.diecezja.pl/parafie/lista-parafii/6-krakow---pradnik/parafia-najswietszego-imienia-maryi.html"
"Parafia MB Ostrobramskiej","","","ul. Meissnera 20, 31‑457 Krakow","www.wieczysta.katolicki.eu","wieczysta@katolicki.eu"," 12 411 28 51, tel  12 413 19 21","o. mgr Andrzej Tupek","6:30, 8:00, 9:30, 11:00, 12:30, 18:00 , 19:15 ","18:00  sobota","","","http://www.diecezja.pl/parafie/lista-parafii/6-krakow---pradnik/parafia-mb-ostrobramskiej.html"
"Parafia NMP Królowej Polski","","","Ul. Jana Pawła II 2, 32-091 Michałowice","www.parafiamichalowice.pl",""," 12 388 50 08","ks. Władysław Dyrcz","7:30, 9:00, 11:00, 17:00 ","17:00 , 18:00  sobota","","","http://www.diecezja.pl/parafie/lista-parafii/6-krakow---pradnik/parafia-nmp-krolowej-polski.html"
"Parafia św. Małgorzaty","","","Raciborowice 2, 32‑091 Michałowice","www.parafia-raciborowice.pl",""," 12 387 70 06","ks. mgr Wiesław Cholewa","7:00, 9:00, 10:00 , 11:00, 17:00 ","","","","http://www.diecezja.pl/parafie/lista-parafii/6-krakow---pradnik/parafia-sw-malgorzaty.html"
"Parafia św. Andrzeja Boboli","","","ul. A6 nr 4, 32‑086 Węgrzce 33","www.parafia-wegrzce.pl/portal","",".  12 285 87 33","ks. mgr Wojciech Warzecha","7:00, 9:00, 11:00, 16:00 ","","","","http://www.diecezja.pl/parafie/lista-parafii/6-krakow---pradnik/parafia-sw-andrzeja-boboli.html"
"Parafia św. Jakuba Apostoła","","","Więcławice Stare 20, 32‑091 Michałowice","www.swjakub.pl","","","ks. Ryszard Honkisz E.c.","7:50, 9:00, 11:00, 12:15 , 17:00 ","17:00 , 18:30  sobota","","","http://www.diecezja.pl/parafie/lista-parafii/6-krakow---pradnik/parafia-sw-jakuba-apostola.html"
"Parafia Matki Boskiej Fatimskiej","","","ul. Komandosow 18, 30‑334 Krakow","www.podwawelskie.pl","parafia@podwawelskie.pl"," 12 266 62 82 w. 101","ks. mgr Marian Rapacz","7:00, 9:00, 10:00 , 10:30, 12:00, 17:00 , 18:30, 20:00 ","18:30  sobota","","","http://www.diecezja.pl/parafie/lista-parafii/7-krakow---podgorze/parafia-matki-boskiej-fatimskiej.html"
"Parafia św. Kingi","","","ul. Siemomysła 37, 30‑571 Krakow","www.kinga.diecezja.krakow.pl/","plaszow@kinga.diecezja.krakow.pl","","ks. dr Jerzy Czerwień","7:30, 9:30, 11:30, 12:45 , 18:00 ","18:00  sobota","","","http://www.diecezja.pl/parafie/lista-parafii/7-krakow---podgorze/parafia-sw-kingi.html"
"Parafia MB Saletyńskiej","","","ul. Cegielniana 43, 30‑404 Krakow","www.krakow.saletyni.pl","cegielniana@saletyni.opoka.org.pl"," 12 266 62 66,  12 266 80 93,","ks. mgr Kazimierz Wolan MS","7:00, 9:00, 10:30, 12:00, 18:00, 20:00 ","18:00  sobota","","","http://www.diecezja.pl/parafie/lista-parafii/7-krakow---podgorze/parafia-mb-saletynskiej.html"
"Parafia MB Nieustającej Pomocy","","","&nbsp;ul. Zamoyskiego 56, 30-523 Krakow","www.redemptor.pl/parafiakrakow","","","o. dr Andrzej Kukła CSsR","7:30, 9:00, 10:30, 12:00, 16:00 , 18:30, 20:00 ","m-ca) sobota","","","http://www.diecezja.pl/parafie/lista-parafii/7-krakow---podgorze/parafia-mb-nieustajacej-pomocy-.html"
"Parafia św. Józefa","","","ul. Zamoyskiego 2, 30‑523 Krakow","www.jozef.diecezja.pl","jozef@diecezja.pl",".  12 656 17 56","ks. mgr Antoni Bednarz","7:30, 9:00, 10:30, 12:00, 18:30, 20:00 ","18:30  sobota","","","http://www.diecezja.pl/parafie/lista-parafii/7-krakow---podgorze/parafia-sw-jozefa.html"
"Parafia Matki Bożej Fatimskiej","","","ul. Mały Płaszow 11","www.fatimska.profeto.pl","parafia@fatimska.profeto.pl"," 12 378 98 79","ks. Florian Gruca SCJ","7:30, 9:30, 11:00, 12:15, 18:00 ","18:00  sobota","","","http://www.diecezja.pl/parafie/lista-parafii/7-krakow---podgorze/parafia-matki-bozej-fatimskiej.html"
"Parafia Najświętszego Serca Pana Jezusa","","","ul. Saska 2, 30‑715 Krakow","www.krakow.sercanie.pl","krakow.par@scj.pl","","ks. Sławomir Knopik SCJ","7:00, 9:00, 9:30 , 10:30, 11:00 , 12:00, 18:00, 18:00 , 19:30 ","18:00  sobota","","","http://www.diecezja.pl/parafie/lista-parafii/7-krakow---podgorze/parafia-najswietszego-serca-pana-jezusa-.html"
"Parafia Zmartwychwstania Pańskiego","","","ul. Szkolna 4, 30‑648 Krakow","www.wola.zmartwychwstancy.pl/","wola@xcr.pl"," 12 655 02 14","ks. mgr Bartłomiej Gzella CR","7:00, 8:30, 10:00, 11:30, 11:30 , 13:00, 18:00, 19:30 ","18:00  sobota","","","http://www.diecezja.pl/parafie/lista-parafii/7-krakow---podgorze/parafia-zmartwychwstania-panskiego-.html"
"Parafia bł. Jerzego Popiełuszki","","","ul. Agatowa 39, 30-798 Krakow","www.zlocien.diecezja-krakow.pl","zlocien@diecezja-krakow.pl","","ks. dr Grzegorz Łopatka","8:00, 10:00 , 11:30, 16:30 ","19:00  sobota","","","http://www.diecezja.pl/parafie/lista-parafii/8-krakow---prokocim/parafia-bljerzego-popieluszki.html"
"Parafia MB Różańcowej","","","ul. Nowosądecka 41, 30‑683 Krakow","www.parafiapiaskinowe.pl",""," 12 658 09 48","ks. mgr Ireneusz Okarmus","7:00, 8:30, 10:00, 11:30, 13:00, 18:00 ","","","","http://www.diecezja.pl/parafie/lista-parafii/8-krakow---prokocim/parafia-mb-rozancowej.html"
"Parafia Narodzenia NMP","","","ul. ks. J. Popiełuszki 35, 30‑898 Krakow","www.biezanow.diecezja-krakow.pl","narodzenianmp@wp.pl",".  12 658 11 37","ks. mgr Bogdan Markiewicz","7:00, 9:00, 10:00 , 11:00, 12:30 , 18:00 ","18:00  sobota","","","http://www.diecezja.pl/parafie/lista-parafii/8-krakow---prokocim/parafia-narodzenia-nmp-.html"
"Parafia Miłosierdzia Bożego","","","ul. Kurczaba 5, 30-868 Krakow","www.parafianprokocim.parafia.info.pl","parafianprokocim@gmail.com","48 503 761 150","ks. Jozef Bizoń","6:30, 8:00, 9:30, 11:00, 12:30, 18:00 , 19:15 ","miesiąca kancelaria nieczynna sobota","","","http://www.diecezja.pl/parafie/lista-parafii/8-krakow---prokocim/parafia-milosierdzia-bozego.html"
"Parafia św. Marii Magdaleny","","","ul. Niebieska 53, 30‑685 Krakow","www.parafia-kosocice.pl","parafia-kosocice@parafia-kosocice.pl"," 12 451 74 68","ks. Michał Maciejczyk","8:00, 9:30 , 11:00, 15:00 ","","","","http://www.diecezja.pl/parafie/lista-parafii/8-krakow---prokocim/parafia-sw-marii-magdaleny.html"
"Parafia Najświętszej Rodziny","","","ul. Aleksandry 1, 30‑837 Krakow","www.najswietszarodzina.pl","sanktuarium@najswietszarodzina.pl"," 12 658 03 50","ks. mgr Mirosław Dziedzic","6:30, 8:00, 9:30, 11:00, 12:30, 17:00, 19:00 ","18:00  sobota","","","http://www.diecezja.pl/parafie/lista-parafii/8-krakow---prokocim/parafia-najswietszej-rodziny.html"
"Parafia Najświętszego Serca Pana Jezusa","","","ul. Cechowa 144, 30‑685 Krakow","www.piaskiwielkie.pl/","parafia.piaskiwielkie@gmail.com"," 12 658 43 70","ks. Wojciech Stokłosa","7:00, 9:00, 11:00, 16:00 ","18:00  sobota","","","http://www.diecezja.pl/parafie/lista-parafii/8-krakow---prokocim/parafia-najswietszego-serca-pana-jezusa.html"
"Parafia Matki Bożej Dobrej Rady","","","al. Dygasińskiego 44A, 30‑820 Krakow","www.parafiaprokocim.pl","",".  12 650 27 19","ks. mgr lic. Zbigniew Bielas","6:30, 8:00, 9:30, 10:00 , 11:00, 11:30 , 12:30, 18:00, 18:30 , 19:30 ","18:00  sobota","","","http://www.diecezja.pl/parafie/lista-parafii/8-krakow---prokocim/parafia-matki-bozej-dobrej-rady.html"
"Parafia Niepokalanego Serca NMP","","","ul. Połłanki 100, 30‑740 Krakow","www.niepokalanesercemaryi.pl","kancelaria@niepokalanesercemaryi.pl"," 12 653 15 28","ks. Adam Biłka","8:00, 10:00, 12:00 , 18:00 ","18:00  sobota","","","http://www.diecezja.pl/parafie/lista-parafii/8-krakow---prokocim/parafia-niepokalanego-serca-nmp.html"
"Parafia Nawiedzenia NMP","","","ul. Ks. Prymasa S. Wyszyńskiego 6, 30‑695 Krakow","www.parafia-nawiedzenia.info","parafiarzaka@interia.pl",".  12 657 93 30","ks. mgr Andrzej Pierog","8:00, 9:30, 11:00, 12:30 , 18:00 , 19:30 ","18:00  sobota","","","http://www.diecezja.pl/parafie/lista-parafii/8-krakow---prokocim/parafia-nawiedzenia-nmp.html"
"Parafia MB Zwycięskiej","","","ul. Zakopiańska 86, 30‑418 Krakow","www.katolicki.net","parafia@katolicki.net"," 12 268 11 10, fax. w. 205","ks. Marian Chyrc","7:00, 8:00 , 9:00, 10:30, 11:00 , 12:00, 18:00 ","18:00  sobota","","","http://www.diecezja.pl/parafie/lista-parafii/9-krakow---borek-falecki/parafia-mb-zwycieskiej.html"
"Parafia św. Jadwigi Królowej","","","ul. Zagaje 42, 30‑437 Krakow","www.kliny.katolicki.eu","parafia@kliny.katolicki.eu",".  12 262 27 47","ks. dr Wacław Gubała, ","8:00, 9:30, 10:00 , 11:00 , 12:00 , 12:15, 19:00 ","","","","http://www.diecezja.pl/parafie/lista-parafii/9-krakow---borek-falecki/parafia-sw-jadwigi-krolowej.html"
"Parafia św. Rafała Kalinowskiego","","","ul. bpa Albina Małysiaka 1","www.kalinowski.małopolska.pl","kalinowski8@op.pl","kancelaria  12 262 31 67","ks. mgr Jan Jarco","8:00, 10:00, 12:00, 18:30 ","","","","http://www.diecezja.pl/parafie/lista-parafii/9-krakow---borek-falecki/parafia-sw-rafala-kalinowskiego.html"
"Parafia Podwyższenia Krzyża Świętego","","","ul. Witosa 9, 30‑612 Krakow","www.krakow-kurdwanow.parafia.info.pl",""," 12 654 45 69","ks. Jan Mrowca","7:00, 8:30, 10:00, 11:30, 13:00, 14:15 , 17:00, 19:00 ","18:00  sobota","","","http://www.diecezja.pl/parafie/lista-parafii/9-krakow---borek-falecki/parafia-podwyzszenia-krzyza-swietego.html"
"Parafia MB Królowej Polski","","","ul. Zamiejska 6 (Kobierzyńska 199), 30‑382 Krakow","www.mbkp.eu","parafia@mbkp.eu","","ks. mgr Grzegorz Odrzywołek E.c.","7:00, 8:30, 10:00 , 11:00, 12:30, 14:00, 18:00, 20:00 ","18:00  sobota","","","http://www.diecezja.pl/parafie/lista-parafii/9-krakow---borek-falecki/parafia-mb-krolowej-polski.html"
"Parafia św. Maksymiliana Kolbego","","","ul. Dębskiego 6b, 30‑499 Krakow","","","  12 264 92 04","ks. Henryk Bąk","7:30, 10:00, 11:30 ","","","","http://www.diecezja.pl/parafie/lista-parafii/26-mogilany/parafia-sw-maksymiliana-kolbego.html"
"Parafia Opatrzności Bożej","","","ul. Piłkarska 9, 30‑698 Krakow-Swoszowice","",""," 12 654 73 53,  12 654 65 68","ks. mgr Jozef Palenica","8:00, 10:00, 12:00, 18:30 ","18:30  sobota","","","http://www.diecezja.pl/parafie/lista-parafii/9-krakow---borek-falecki/parafia-opatrznosci-bozej.html"
"Parafia Przemienienia Pańskiego","","","ul. Bogdanowskiego 14, 30‑698 Krakow 25","www.wroblowice.diecezja.krakow.pl","wroblowice@diecezja.krakow.pl","","ks. Adam Szostak","8:00, 10:00, 12:00, 16:00 ","17:00 , 18:00  sobota","","","http://www.diecezja.pl/parafie/lista-parafii/9-krakow---borek-falecki/parafia-przemienienia-panskiego-.html"
"Parafia Najświętszego Serca Pana Jezusa","","","ul. Millana 13, 30‑610 Krakow","www.sercejezusa.katolicki.eu","kancelaria@sercejezusa.katolicki.eu"," 12 266 20 23","ks. mgr Tadeusz Dziedzic","7:30, 9:00, 10:30, 12:00, 16:00 , 18:00, 20:00 ","","","","http://www.diecezja.pl/parafie/lista-parafii/9-krakow---borek-falecki/-parafia-najswietszego-serca-pana-jezusa.html"
"Rektorat pw. Matki Bożej Częstochowskiej","","","ul. Babińskiego 29, 30‑393 Krakow","","","&nbsp;12 652 44 11","","8:30, 16:00 ","","","","http://www.diecezja.pl/parafie/lista-parafii/9-krakow---borek-falecki/rektorat-pw-matki-bozej-czestochowskiej.html"
"Parafia św. Brata Alberta Chmielowskiego","","","os. Dywizjonu 303 nr 63, 31-875 Krakow","","","centrala  12 647 47 46,","ks. Wiesław Macuda, R.M., wyśw. 1973","6:30, 8:00, 9:30, 11:00, 13:00, 14:00 , 16:00, 18:00, 20:00 ","18:00  sobota","","","http://www.diecezja.pl/parafie/lista-parafii/10-krakow---mogila/parafia-sw-brata-alberta-chmielowskiego.html"
"Parafia św. Judy Tadeusza","","","ul. Wężyka 6, 31‑580 Krakow","www.parafiaczyzyny.pl","parafiaczyzyny@gmail.com"," 12 647 94 88","ks. dr Czesław Sandecki","7:00, 8:30, 10:00, 11:30, 13:00, 18:00 ","18:00  sobota","","","http://www.diecezja.pl/parafie/lista-parafii/10-krakow---mogila/parafia-sw-judy-tadeusza.html"
"Parafia św. Maksymiliana Marii Kolbego","","","os.Tysiąclecia 86, 31-610 Krakow","www.mistrzejowice.net","parafia.mistrzejowice@wp.pl"," 12 648 17 28, kancelaria w. 22","ks. mgr Andrzej Kopicz, ","6:30, 8:00, 9:30, 11:00, 13:00, 17:00, 19:00 ","18:00  sobota","","","http://www.diecezja.pl/parafie/lista-parafii/10-krakow---mogila/parafia-sw-maksymiliana-marii-kolbego.html"
"Parafia św. Bartłomieja Apostoła","","","ul. Klasztorna 11, 31-979 Krakow","www.mogila.cystersi.pl","kontakt@mogila.cystersi.pl",":  12 644 23 31,  12&nbsp;644 69 92; fax parafii:  12 686 60 08","o. mgr Wincenty Zakrzewski OCist","6:30 , 8:00 , 9:30 , 10:00 , 10:15 , 11:00 , 11:30 , 12:30 , 14:00 , 16:30 , 16:30 , 18:00 ","","","","http://www.diecezja.pl/parafie/lista-parafii/10-krakow---mogila/parafia-sw-bartlomieja-apostola.html"
"Parafia św. Wincentego","","","ul. Nadbrzezie 12, 31-983 Krakow","","krakow-pleszow@neostrada.pl"," 12 681 03 53","ks. mgr Stanisław Wajdziak","7:40, 9:30 , 11:10, 14:00 ","","","","http://www.diecezja.pl/parafie/lista-parafii/10-krakow---mogila/parafia-sw-wincentego.html"
"Parafia MB Częstochowskiej","","","os. Szklane Domy 7, 31-972 Krakow","www.szklanedomy.cystersi.pl/","","kancelaria parafialna&nbsp;","o. mgr ","6:30, 8:00, 9:30 , 11:00, 12:30 , 17:00, 19:00, 20:30 ","18:00  sobota","","","http://www.diecezja.pl/parafie/lista-parafii/10-krakow---mogila/parafia-mb-czestochowskiej-.html"
"Parafia św. Józefa","","","os. Kalinowe 5, 31‑816 Krakow","",""," 12 648 08 42","ks. mgr Adam Podbiera","7:00, 9:00, 11:00, 13:00, 18:00 ","18:30  sobota","","","http://www.diecezja.pl/parafie/lista-parafii/11-krakow---bienczyce/parafia-sw-jozefa.html"
"Parafia Najświętszego Serca Pana Jezusa","","","ul. Ludźmierska 2, 31‑953 Krakow","",""," 12 680 32 10","ks. mgr Stanisław Puzyniak","7:00, 8:30, 10:00, 11:30 , 13:00 , 18:00, 19:30 ","18:00  sobota","","","http://www.diecezja.pl/parafie/lista-parafii/11-krakow---bienczyce/parafia-najswietszego-serca-pana-jezusa-.html"
"Parafia MB Pocieszenia","","","ul. Bulwarowa 15 a, 31‑751 Krakow","","kraksak@kki.pl"," 12 680 38 00,  12 680 39 00","ks. ","7:00, 8:30, 10:00, 11:30, 13:00, 18:00, 20:00 ","18:00  sobota","","","http://www.diecezja.pl/parafie/lista-parafii/11-krakow---bienczyce/parafia-mb-pocieszenia.html"
"Parafia MB Królowej Polski","","","ul. Obrońcow Krzyża 1, 31‑831 Krakow","www.arkapana.pl",""," 12 644 06 24,  12 649 52 25","ks. Edward Baniak","6:30, 8:00, 9:30, 10:00 , 10:15 , 11:00, 11:00 , 12:30, 14:00, 15:30 , 16:00, 17:30, 19:00 ","18:00  sobota","","","http://www.diecezja.pl/parafie/lista-parafii/11-krakow---bienczyce/parafia-mb-krolowej-polski-.html"
"Parafia św. Stanisława BM","","","Kantorowice 122, 31‑763 Krakow","",""," 12 645 68 87","ks. mgr Jan Krzyżowski","9:00, 11:00, 17:00 , 18:00 ","","","","http://www.diecezja.pl/parafie/lista-parafii/11-krakow---bienczyce/parafia-sw-stanislawa-bm.html"
"Parafia Najświętszego Serca Pana Jezusa","","","ul. Niewielka 1a, 31‑766 Krakow,","",""," 12 645 38 23","ks. mgr Antoni Baron","8:00, 10:30, 17:00 ","","","","http://www.diecezja.pl/parafie/lista-parafii/11-krakow---bienczyce/parafia-najswietszego-serca-pana-jezusa.html"
"Parafia MB Nieustającej Pomocy","","","os. Bohaterow Września 33, 31‑621 Krakow","","","kancelaria  12 647 05 63","ks. dr Marek Wrężel","6:30, 7:30, 9:00, 10:30, 12:00, 13:30, 16:30, 18:00, 19:30 ","18:30  sobota","","","http://www.diecezja.pl/parafie/lista-parafii/11-krakow---bienczyce/parafia-mb-nieustajacej-pomocy.html"
"Parafia MB Wspomożenia Wiernych","","","Prusy 174, 32‑010 Kocmyrzow","",""," 12 387 13 54,  12 387 28 94","ks. mgr Bogusław Zając","7:30, 9:30, 11:30 ","","","","http://www.diecezja.pl/parafie/lista-parafii/11-krakow---bienczyce/parafia-mb-wspomozenia-wiernych.html"
"Parafia Miłosierdzia Bożego","","","os. Na Wzgorzach 1a, 31‑721 Krakow","www.wzgorza.diecezja.krakow.pl","parafia@wzgorza.diecezja.krakow.pl"," 12 645 23 42","ks. dr Jan Abrahamowicz, ","6:30, 8:00, 9:30, 11:00, 12:30 , 16:00, 19:00 ","18:00  sobota","","","http://www.diecezja.pl/parafie/lista-parafii/11-krakow---bienczyce/parafia-milosierdzia-bozego.html"
"Stygmatów św. Franciszka","","","ul. Klasztorna 1, 32‑566 Alwernia","www.bernardyni-alwernia.pl",""," 12 283 12 13","o. Bolesław Robert Opaliński OFMBern","6:45, 8:30, 10:00, 11:30, 15:00, 18:00 ","18:00  sobota","","","http://www.diecezja.pl/parafie/lista-parafii/12-babice/stygmatow-sw-franciszka.html"
"Parafia Wszystkich Świętych","","","ul. Kanonicza 6, 32‑551 Babice","www.babice.pl/index.php?id=104",""," 32 613 40 19","ks. mgr Jan Molanda","8:00, 9:30 , 11:00, 17:00 ","","","","http://www.diecezja.pl/parafie/lista-parafii/12-babice/parafia-wszystkich-swietych-.html"
"Parafia Ducha Świętego","","","Grojec 336, 32‑566 Alwernia","",""," 12 283 10 79","ks. Jozef Kutek","8:00, 10:30, 15:30 ","19:00  sobota","","","http://www.diecezja.pl/parafie/lista-parafii/12-babice/parafia-ducha-swietego-.html"
"Rektorat MB Fatimskiej","","","ul. Jana Pawła II, 32‑551 Babice","",""," 32 613 44 01","","8:30, 11:00, 16:00 ","","","","http://www.diecezja.pl/parafie/lista-parafii/12-babice/rektorat-mb-fatimskiej.html"
"Parafia św. Stanisława Kostki","","","Kwaczała, Pl. Kościelny 1, 32‑566 Alwernia","www.parafiakwaczala.pl","kontakt@parafiakwaczala.pl"," 12 282 80 03","ks. mgr Marian Pietraszko","7:00, 9:00, 11:00, 15:00 ","17:00 , 18:00  sobota","","","http://www.diecezja.pl/parafie/lista-parafii/12-babice/parafia-sw-stanislawa-kostki.html"
"Parafia Matki Boskiej Częstochowskiej","","","Mętkow, ul. św. Floriana 1, 32-551 Babice","www.parafia-metkow.com","parafiametkow@interia.pl"," 32 613 42 27","ks. mgr Marek Guśpiel E.c.","8:00, 10:30, 15:30 ","19:00  sobota","","","http://www.diecezja.pl/parafie/lista-parafii/12-babice/parafia-matki-boskiej-czestochowskiej.html"
"Parafia MB Częstochowskiej","","","Okleśna; ul. Nowowiejska 1","",""," 12 282 89 22","ks. mgr Mariusz Flanek","8:00, 10:00, 15:00 ","","","","http://www.diecezja.pl/parafie/lista-parafii/12-babice/parafia-mb-czestochowskiej-.html"
"Parafia św. Marcina","","","Poręba Żegoty 8, 32‑566 Alwernia","www.swmarcinporebazegoty.pl","swmarcinporebaz@poczta.fm"," 12 283 16 39","ks. mgr Wiesław Waliczek","7:00, 8:00 , 9:00 , 9:00 , 11:00, 18:00 ","","","","http://www.diecezja.pl/parafie/lista-parafii/12-babice/parafia-sw-marcina.html"
"Parafia św. Wawrzyńca","","","Regulice, al. Jana Pawła II 23, 32‑566 Alwernia","www.parafiaregulice.pl/",""," 12 283 16 03","ks. dr Jan Piwowarczyk","7:00, 9:00, 11:00, 16:00 ","18:00  sobota","","","http://www.diecezja.pl/parafie/lista-parafii/12-babice/parafia-sw-wawrzynca.html"
"Parafia Wniebowzięcia NMP","","","ul. Piłsudskiego 147, 32‑555 Zagorze","www.parafiazagorze.pl",""," 32 623 19 39","ks. dr Ryszard Świder","7:00, 9:00, 11:00, 17:00 ","17:00 , 18:00 , 19:00  sobota","","","http://www.diecezja.pl/parafie/lista-parafii/12-babice/parafia-wniebowziecia-nmp.html"
"Parafia Świętych Apostołów Szymona i Judy Tadeusza","","","ul. Środkowa 183, 34‑405 Białka Tatrzańska","www.parafia.bialka.net","BialkaT@diecezja.krakow.pl"," 18 265 41 77","ks. mgr Jan Byrski","8:00 , 9:30 , 11:00, 18:00 , 19:00 , 20:00 ","18:00 , 19:00  sobota","","","http://www.diecezja.pl/parafie/lista-parafii/13-bialka-tatrzanska/parafia-swietych-apostolow-szymona-i-judy-tadeusza.html"
"Parafia św. Antoniego","","","Brzegi, ul. Halna 67, 34‑532 Jurgow","www.parafiabrzegi.eu","parafiabrzegi@gmail.com"," 18 207 77 02","ks. Konrad Duk SVD","9:00, 11:30, 19:00 ","19:00  sobota","","","http://www.diecezja.pl/parafie/lista-parafii/13-bialka-tatrzanska/parafia-sw-antoniego.html"
"Parafia Najświętszego Serca Pana Jezusa","","","ul. Kościuszki 1, 34-530 Bukowina Tatrzańska","www.parafia-bukowinatatrzanska.pl",""," 18 207 72 61","ks. mgr Władysław Pasternak","8:00, 9:30, 11:00, 19:00 , 20:00 ","19:00  sobota","","","http://www.diecezja.pl/parafie/lista-parafii/13-bialka-tatrzanska/parafia-najswietszego-serca-pana-jezusa.html"
"Parafia Przemienienia Pańskiego","","","Czarna Gora-Zagora 64, 34‑532 Jurgow","",""," 18 207 78 90","o. Hubert Kasztelan OCist","8:00, 10:00 ","19:00  sobota","","","http://www.diecezja.pl/parafie/lista-parafii/13-bialka-tatrzanska/parafia-przemienienia-panskiego.html"
"Parafia Przemienienia Pańskiego","","","Gliczarow Gorny 111a, 34‑425 Biały Dunajec","www.gliczarowgorny.pl","par_glicz@krakow.opoka.org.pl"," 18 207 76 10","ks. mgr Szczepan Gacek","8:00, 9:30, 11:00, 20:30 ","20:30  sobota","","","http://www.diecezja.pl/parafie/lista-parafii/13-bialka-tatrzanska/-parafia-przemienienia-panskiego.html"
"Parafia św. Jacka","","","Groń, ul. Jana Pawła II 25, 34‑406 Leśnica","www.parafia.gronlesnica.pl","parafia@gronlesnica.pl"," 18 265 65 52","ks. Jan Żurowski","7:00, 9:00, 10:15, 11:30, 16:00 ","18:00  sobota","","","http://www.diecezja.pl/parafie/lista-parafii/13-bialka-tatrzanska/parafia-sw-jacka.html"
"Parafia Niepokalanego Serca NMP","","","Gronkow 222a, 34‑400 Nowy Targ","",""," 18 265 61 50","ks. Jozef Motyka","8:00, 10:30, 17:00 ","18:00  sobota","","","http://www.diecezja.pl/parafie/lista-parafii/13-bialka-tatrzanska/parafia-niepokalanego-serca-nmp.html"
"Parafia św. Sebastiana","","","Jurgow 1, 34‑532 Jurgow","www.parafia-jurgow.pl",""," 18 207 79 42","ks. mgr Stanisław Malarz","8:00, 9:30 , 11:00 [j. słowacki], 12:15 , 17:00 ","","","","http://www.diecezja.pl/parafie/lista-parafii/13-bialka-tatrzanska/parafia-sw-sebastiana.html"
"MB Nieustającej Pomocy","","","Grocholow Potok 1, 34‑532 Jurgow","www.rzepiska.mic.opoka.org.pl","","  18 207 79 13","","8:00, 11:00, 20:00 ","18:00, 19:00  sobota","","","http://www.diecezja.pl/parafie/lista-parafii/13-bialka-tatrzanska/mb-nieustajacej-pomocy.html"
"Parafia św. Elżbiety Węgierskiej","","","34‑442 Łapsze Niżne, Trybsz","","sw_elzbieta@wp.pl"," 18 265 61 49","o. Rajmund Andrzej Dziadkiewicz OCist","8:00, 11:00 ","17:00  sobota","","","http://www.diecezja.pl/parafie/lista-parafii/13-bialka-tatrzanska/parafia-sw-elzbiety-wegierskiej.html"
"Parafia Miłosierdzia Bożego","","","Bańska Niżna, ul. Topory 18, 34‑424 Szaflary","www.parafiabanskanizna.pl",""," 18 275 48 26","ks. mgr Grzegorz Kufel","8:00, 11:00 ","19:00  sobota","","","http://www.diecezja.pl/parafie/lista-parafii/14-bialy-dunajec/parafia-milosierdzia-bozego.html"
"Parafia MB Fatimskiej","","","Bańska Wyżna, ul. Szlak Papieski","www.parafiabanskawyzna.pl","parafiabanskawyzna@op.pl"," 18 542 61 03","ks. mgr Mirosław Mężyński","9:30, 12:30 ","","","","http://www.diecezja.pl/parafie/lista-parafii/14-bialy-dunajec/parafia-mb-fatimskiej.html"
"Parafia MB Królowej Aniołów","","","ul. Jana Pawła II 202, 34‑425 Biały Dunajec","",""," 18 207 31 94","ks. mgr lic. Jan Dolasiński","8:00, 10:00, 11:30 , 12:00, 18:00 ","18:00  sobota","","","http://www.diecezja.pl/parafie/lista-parafii/14-bialy-dunajec/parafia-mb-krolowej-aniolow.html"
"Parafia Przemienienia Pańskiego","","","ul. Jana Pawła II 4, Maruszyna, 34-424 Szaflary","www.maruszyna.parafia.info.pl","maruszyna@parafia.info.pl"," 18 275 62 26","ks. mgr Andrzej Kwak","8:00, 11:00, 15:00 ","","","","http://www.diecezja.pl/parafie/lista-parafii/14-bialy-dunajec/parafia-przemienienia-panskiego.html"
"Ośrodek duszpasterski św. Józefa","","","Małe Ciche 47, 34‑531 Murzasichle","www.maleciche.dominikanie.pl","maleciche@dominikanie.pl"," 18 208 41 38","","8:30, 9:00 , 11:00 , 11:00, 13:00 , 17:00 , 18:00 , 18:00 , 19:30 , 20:00 ","18:00  sobota","","","http://www.diecezja.pl/parafie/lista-parafii/14-bialy-dunajec/osrodek-duszpasterski-sw-jozefa.html"
"Parafia NMP Królowej","","","ul. Sądelska 60, 34‑531 Murzasichle","",""," 18 201 63 24","ks. mgr Jan Czepiel","8:00, 11:00, 17:00 ","18:00  sobota","","","http://www.diecezja.pl/parafie/lista-parafii/14-bialy-dunajec/parafia-nmp-krolowej.html"
"Parafia św. Marii Magdaleny","","","ul. Piłsudskiego 17, 34‑520 Poronin","www.parafiaporonin.o12.pl","zarek@wp.pl"," 18 207 41 83","ks. mgr Stanisław Parzygnat","7:00, 9:00, 9:00 , 9:00 , 16:00 , 17:00, 20:00 ","18:00  sobota","","","http://www.diecezja.pl/parafie/lista-parafii/14-bialy-dunajec/parafia-sw-marii-magdaleny.html"
"Rzymskokatolicki Rektorat pw. św. Józefa Rzemieślnika","","","Stasikowka 35B, 34-520 Poronin","www.stasikowka.com","kancelaria@stasikowka.com"," 18&nbsp;200 12 74","parafii Poronin, tel. +48 18&nbsp;200 12 74","9:00, 11:00, 16:00, 20:00 ","","","","http://www.diecezja.pl/parafie/lista-parafii/14-bialy-dunajec/rzymskokatolicki-rektorat-pw-sw-jozefa-rzemieslnika.html"
"Parafia MB Nieustającej Pomocy","","","Skrzypne, ul. św. Jadwigi Krolowej 167","",""," 18 275 58 66","ks. Edward Cygal","7:30, 9:00, 10:30 ","19:00  sobota","","","http://www.diecezja.pl/parafie/lista-parafii/14-bialy-dunajec/parafia-mb-nieustajacej-pomocy.html"
"Parafia św. Andrzeja Apostoła","","","ul. Kościelna 1, 34‑424 Szaflary","www.owczarnia.diecezja.pl","owczarnia@diecezja.pl"," 18 275 55 67","ks. mgr Andrzej Kamiński","7:00, 9:00, 10:15 , 11:30, 18:00 ","18:00, 18:00  sobota","","","http://www.diecezja.pl/parafie/lista-parafii/14-bialy-dunajec/parafia-sw-andrzeja-apostola.html"
"Parafia św. Anny","","","Ząb 18, 34‑521 Ząb","","parafiazab18@wp.pl"," 18 207 16 29","ks. Kazimierz Sołtysik","8:00, 10:00, 11:30 , 15:45 , 18:00 ","","","","http://www.diecezja.pl/parafie/lista-parafii/14-bialy-dunajec/parafia-sw-anny.html"
"Parafia św. Wojciecha","","","Zaskale, 34‑424 Szaflary","",""," 18 275 43 19","ks. mgr Ryszard Gaweł","8:00, 11:00 ","18:00  sobota","","","http://www.diecezja.pl/parafie/lista-parafii/14-bialy-dunajec/parafia-sw-wojciecha.html"
"Parafia Miłosierdzia Bożego","","","pl. ks. kard. Wojtyły 1; 32‑089 Wielka Wieś","www.parafiamilosierdzie.blog.onet.pl/",""," 12 419 31 86","ks. mgr Jerzy Bargiel","8:15, 11:00, 16:00 ","","","","http://www.diecezja.pl/parafie/lista-parafii/15-bolechowice/parafia-milosierdzia-bozego.html"
"Parafia NMP Królowej","","","Będkowice, ul. Okupniki 3","",""," 12 419 34 28","ks. mgr Zdzisław Targosz","9:00, 11:00 ","18:00  sobota","","","http://www.diecezja.pl/parafie/lista-parafii/15-bolechowice/parafia-nmp-krolowej.html"
"Parafia św. Mikołaja","","","Biały Kościoł 33, plac Świętego Mikołaja 2","www.bialy-kosciol.pl",""," 12 419 10 18","ks. mgr Marek Wcisło","7:30, 9:30, 10:00 , 11:30, 12:00 , 17:00 ","18:00  sobota","","","http://www.diecezja.pl/parafie/lista-parafii/15-bolechowice/parafia-sw-mikolaja.html"
"Parafia Świętych Apostołów Piotra i Pawła","","","ul. Winnica 3, 32‑082 Bolechowice","www.parafiabolechowice.pl",""," 12 285 11 87","ks. mgr Stanisław Kozieł","6:45, 8:00 , 10:00, 11:30, 17:00 ","18:30  sobota","","","http://www.diecezja.pl/parafie/lista-parafii/15-bolechowice/-parafia-swietych-apostolow-piotra-i-pawla.html"
"Parafia NMP Matki Kościoła","","","Brzezie, ul. Narodowa 114","","","  12 285 16 96","ks. mgr Grzegorz Kubik","8:00, 10:00, 16:00 ","18:00  sobota","","","http://www.diecezja.pl/parafie/lista-parafii/15-bolechowice/parafia-nmp-matki-kosciola.html"
"Parafia św. Idziego","","","Giebułtow, ul. św. Idziego 2","",""," 12 419 20 27","ks. Stanisław Gutt","8:00, 11:00, 15:00 ","19:00  sobota","","","http://www.diecezja.pl/parafie/lista-parafii/15-bolechowice/parafia-sw-idziego.html"
"Parafia Podwyższenia Krzyża Świętego","","","Kobylany, ul. Jana Pawła II nr 69","","","  12 285 16 04","ks. mgr Jozef Iwulski","7:00 , 8:00 , 9:00 , 11:00, 16:00 ","18:30  sobota","","","http://www.diecezja.pl/parafie/lista-parafii/15-bolechowice/-parafia-podwyzszenia-krzyza-swietego.html"
"Parafia św. Wojciecha i MB Bolesnej","","","ul. Świetego Wojciecha 83,&nbsp;32-085 Modlnica","www.modlnica.pl","parafiamodlnica@gmail.com"," 12 419 20 15","ks. mgr Jan Adamus","7:00, 9:00 , 11:00, 17:00 ","18:00  sobota","","","http://www.diecezja.pl/parafie/lista-parafii/15-bolechowice/parafia-sw-wojciecha-i-mb-bolesnej.html"
"Parafia Narodzenia NMP","","","Racławice 54, 32‑049 Przeginia","",""," 12 282 93 85","ks. mgr Jacek Miodek","8:00, 9:30 , 11:00, 17:00 ","","","","http://www.diecezja.pl/parafie/lista-parafii/15-bolechowice/parafia-narodzenia-nmp.html"
"Parafia św. Maksymiliana Kolbego","","","Szklary 46a, 32‑048 Jerzmanowice","","","&nbsp;12 389 52 07","ks. Teodor Kilian","8:00, 10:30 ","","","","http://www.diecezja.pl/parafie/lista-parafii/15-bolechowice/parafia-sw-maksymiliana-kolbego.html"
"Parafia św. Franciszka z Asyżu","","","ul. Kolejowa 7, 32-080 Zabierzow","www.parafia.zabierzow.pl","parafia@zabierzow.pl"," 12 285 20 25","ks. mgr Krzysztof Burdak","7:00, 9:00, 10:30 , 11:00 , 12:00 , 17:00 ","18:00  sobota","","","http://www.diecezja.pl/parafie/lista-parafii/15-bolechowice/parafia-sw-franciszka-z-asyzu.html"
"Parafia Chrystusa Króla","","","Balin, ul. Chrzanowska 11","",""," 32 613 17 97","ks. Krzysztof Kozioł","7:30, 9:30, 11:30, 17:00 ","","","","http://www.diecezja.pl/parafie/lista-parafii/16-chrzanow/parafia-chrystusa-krola.html"
"Parafia NMP Matki Kościoła","","","Bolęcin, ul. Kościelna 12","",""," 32 613 76 69","ks. Dariusz Puchała","7:30, 10:00, 15:00 ","18:00  sobota","","","http://www.diecezja.pl/parafie/lista-parafii/16-chrzanow/parafia-nmp-matki-kosciola.html"
"Parafia MB Różańcowej","","","ul. Kusocińskiego 4, 32‑503 Chrzanow","",""," 32 623 53 00","ks. mgr Grzegorz Pierog","6:30, 8:00, 10:00, 11:30, 13:00, 17:00, 20:00 ","18:30  sobota","","","http://www.diecezja.pl/parafie/lista-parafii/16-chrzanow/parafia-mb-rozancowej.html"
"Parafia św. Mikołaja","","","ul. Mickiewicza 5, 32‑500 Chrzanow","www.mikolajchrzanow.diecezja.pl","mikolajchrzanow@diecezja.pl"," 32 623 26 24","ks. mgr lic. Roman Sławeński","7:00, 8:30, 10:15, 11:30, 13:00, 16:00, 18:15, 20:00 ","18:00  sobota","","","http://www.diecezja.pl/parafie/lista-parafii/16-chrzanow/parafia-sw-mikolaja.html"
"Parafia Świętej Rodziny","","","ul. Pogorska 43f, 32-500 Chrzanow","www.swieta-rodzina.com.pl","chrzanowrodzina@diecezja.pl"," 32 623 32 65","ks. mgr Edward Kwarciak","7:30, 9:00, 10:30, 12:00, 13:15, 17:00 ","17:00  sobota","","","http://www.diecezja.pl/parafie/lista-parafii/16-chrzanow/parafia-swietej-rodziny.html"
"Parafia Miłosierdzia Bożego","","","ul. Śląska 68b, 32‑500 Chrzanow","www.milosierdzie.info","milosierdzie@milosierdzie.info"," 32 622 70 88","ks. mgr Paweł Zięba","8:30, 10:30, 15:00 ","","","","http://www.diecezja.pl/parafie/lista-parafii/16-chrzanow/parafia-milosierdzia-bozego.html"
"Parafia św. Jana Chrzciciela","","","ul. Kościelna 2a, 32‑500 Chrzanow","www.koscielec.org","kancelaria@koscielec.org"," 32 623 24 19","ks. mgr Zdzisław Balon","6:00 , 6:45, 8:00, 9:30, 9:30 , 11:00, 12:30, 17:30 ","18:00  sobota","","","http://www.diecezja.pl/parafie/lista-parafii/16-chrzanow/parafia-sw-jana-chrzciciela.html"
"Parafia MB Ostrobramskiej","","","ul. Borowcowa 76b, 32‑500 Chrzanow","parafiarospontowa.pl/","rospontowa@diecezja.pl","  32 623 34 62","ks. mgr Mieszko Pabiś","7:30, 9:30, 11:30, 17:00 ","18:30  sobota","","","http://www.diecezja.pl/parafie/lista-parafii/16-chrzanow/parafia-mb-ostrobramskiej.html"
"Parafia św. Anny","","","Luszowice, ul. Sierszańska","",""," 32 711 98 43","ks. Jozef Szlachta","8:00, 10:30, 17:00 ","18:00  sobota","","","http://www.diecezja.pl/parafie/lista-parafii/16-chrzanow/parafia-sw-anny-.html"
"Parafia MB Królowej Polski","","","Pogorzyce, ul. Bałuckiego","www.parafia-pogorzyce.pl","","&nbsp;","ks. mgr Robert Skwarczyński","8:00, 10:30, 16:00 ","17:00  sobota","","","http://www.diecezja.pl/parafie/lista-parafii/16-chrzanow/parafia-mb-krolowej-polski.html"
"Parafia Podwyższenia Krzyża Świętego","","","ul. Bolęcińska 1, 32‑552 Płaza","",""," 32 613 12 79","ks. Stanisław Makowski","7:00, 9:00, 11:00, 17:00 ","18:00  sobota","","","http://www.diecezja.pl/parafie/lista-parafii/16-chrzanow/parafia-podwyzszenia-krzyza-swietego.html"
"Parafia Świętej Rodziny","","","ul. Akacjowa 24, 32‑083 Balice","www.parafiabalice.pl",""," 12 285 69 06","ks. mgr Jerzy Zuber","8:30, 10:00 , 11:30 ","","","","http://www.diecezja.pl/parafie/lista-parafii/18-czernichow/parafia-swietej-rodziny.html"
"Parafia Przenajświętszej Trójcy","","","Czernichow 57, 32‑070 Czernichow","www.parafiaczernichow.pl","","  12 270 23 10","ks. mgr Wiesław Grzechynia","7:00, 9:00 , 10:00, 11:30, 16:00 ","18:00  sobota","","","http://www.diecezja.pl/parafie/lista-parafii/18-czernichow/parafia-przenajswietszej-trojcy.html"
"Ośrodek duszpasterski Matki Bożej Opatrzności","","","Czułow 101, 32‑060 Liszki","",""," 12 280 50 64","","8:00, 10:30 ","","","","http://www.diecezja.pl/parafie/lista-parafii/18-czernichow/osrodek-duszpasterski-matki-bozej-opatrznosci.html"
"Parafia NMP Królowej Polski","","","Dąbrowa Szlachecka 9, 32‑070 Czernichow","www.parafiadabrowaszlachecka.pl","parafia.nmp.d.sz.@wp.pl","","ks. Jozef Sowa","7:30, 9:30 , 11:00, 17:00 ","","","","http://www.diecezja.pl/parafie/lista-parafii/18-czernichow/parafia-nmp-krolowej-polski.html"
"Parafia Miłosierdzia Bożego","","","Jeziorzany 165, 32‑060 Liszki","parafiajeziorzany.pl/",""," 12 280 82 38","ks. Jozef Obyrtacz","8:00, 10:30 ","18:00  sobota","","","http://www.diecezja.pl/parafie/lista-parafii/18-czernichow/parafia-milosierdzia-bozego.html"
"Parafia Opieki Matki Bożej","","","Kamień 1, 32‑071 Kamień","",""," 12 280 30 43","ks. Piotr Adamus CRL","8:00, 11:00, 16:00 ","","","","http://www.diecezja.pl/parafie/lista-parafii/18-czernichow/parafia-opieki-matki-bozej.html"
"Parafia Matki Bożej Różańcowej","","","Kaszow 5, 32-060 Liszki","","parafia.kaszow@neostrada.pl"," 12 280 61 59","ks. dr Krzysztof Chromy","8:00, 11:00, 16:00 ","","","","http://www.diecezja.pl/parafie/lista-parafii/18-czernichow/parafia-matki-bozej-rozancowej.html"
"Parafia św. Mikołaja","","","Liszki 11, 32‑060 Liszki","",""," 12 280 60 11","ks. mgr Władysław Szymoniak","7:00, 8:30, 10:00, 11:30, 16:00 ","18:00  sobota","","","http://www.diecezja.pl/parafie/lista-parafii/18-czernichow/parafia-sw-mikolaja.html"
"Parafia św. Brata Alberta","","","Mnikow 1, 32‑084 Morawica","www.mnikow.diecezja.pl","mnikow@diecezja.krakow.pl"," 12 280 52 24","ks. mgr Stanisław Święciak","8:00, 10:30, 15:00 ","","","","http://www.diecezja.pl/parafie/lista-parafii/18-czernichow/parafia-sw-brata-alberta.html"
"Parafia św. Bartłomieja Apostoła","","","Morawica 5, 32-084 Morawica","www.parafia.morawica.net",""," 12 285 64 71","ks. Władysław Palmowski","7:00, 9:00, 9:15 , 10:30 , 11:00, 15:00, 17:00 , 19:00 ","16:00 , 17:00  sobota","","","http://www.diecezja.pl/parafie/lista-parafii/18-czernichow/parafia-sw-bartlomieja-apostola.html"
"Parafia MB Wspomożenia Wiernych","","","Nowa Wieś Szlachecka 260, 32‑060 Liszki","",""," 12 270 25 46","ks. Włodzimierz Szatanik E.c.","8:00, 10:30, 15:30 ","","","","http://www.diecezja.pl/parafie/lista-parafii/18-czernichow/parafia-mb-wspomozenia-wiernych.html"
"Parafia Najświętszego Serca Pana Jezusa","","","Rączna 400, 32-060 Liszki","","","  12 280 82 60","ks. Jacek Strzelecki","8:00, 10:00, 16:00 ","","","","http://www.diecezja.pl/parafie/lista-parafii/18-czernichow/parafia-najswietszego-serca-pana-jezusa.html"
"Parafia Narodzenia NMP","","","Rusocice 342, 32-070 Czernichow","","","","ks. dr Leszek Mateja","9:00, 11:30 ","18:00  sobota","","","http://www.diecezja.pl/parafie/lista-parafii/18-czernichow/parafia-narodzenia-nmp.html"
"Parafia św. Kazimierza","","","Rybna 164, 32‑061 Rybna","","","  12 280 46 06","ks. Andrzej Wąchała","7:15, 8:30 , 10:00, 10:00 , 11:30, 16:00, 16:00 ","17:00  sobota","","","http://www.diecezja.pl/parafie/lista-parafii/18-czernichow/parafia-sw-kazimierza.html"
"Parafia św. Jacka","","","Chochołow 195, 34‑513 Chochołow","",""," 18 275 74 23","ks. mgr Stanisław Syc","8:00, 11:00, 18:00 ","18:00  sobota","","","http://www.diecezja.pl/parafie/lista-parafii/17-czarny-dunajec/parafia-sw-jacka.html"
"Parafia św. Józefa Robotnika","","","Ciche 422, 34‑407 Ciche","",""," 18 265 84 19","ks. Mieczysław Janosik E.c.","8:00, 9:30 , 11:00 ","","","","http://www.diecezja.pl/parafie/lista-parafii/17-czarny-dunajec/parafia-sw-jozefa-robotnika.html"
"Parafia Przenajświętszej Trójcy","","","Rynek 34, 34‑470 Czarny Dunajec","www.czarnydunajec.parafia.info.pl/","parczardunajec@poczta.fm","  18 265 72 24","ks. mgr Krzysztof Kocot","7:00, 8:30, 9:00 , 10:00, 10:30 , 11:30, 17:00 ","17:00  sobota","","","http://www.diecezja.pl/parafie/lista-parafii/17-czarny-dunajec/parafia-przenajswietszej-trojcy-.html"
"Parafia MB Częstochowskiej","","","Czerwienne-Bachledowka 341, 34‑407 Ciche","","bachledowka@o2.pl","  18 265 81 18","o. Leon Chałupka OSPPE","8:00, 11:00, 16:00 ","","","","http://www.diecezja.pl/parafie/lista-parafii/17-czarny-dunajec/parafia-mb-czestochowskiej.html"
"Parafia MB Częstochowskiej","","","Dzianisz 174, 34‑514 Dzianisz","",""," 18 207 25 49","ks. mgr Stefan Urban","8:00, 11:00, 17:00 ","17:30  sobota","","","http://www.diecezja.pl/parafie/lista-parafii/17-czarny-dunajec/parafia-mb-czestochowskiej-.html"
"Parafia NMP Królowej Polski","","","Miętustwo 17, 34‑407 Ciche","www.mietustwo.pl","parafia@mietustwo.pl"," 18 2658640","ks. mgr Janusz Rzepa","7:30, 9:00, 10:00 , 11:00, 15:00 ","","","","http://www.diecezja.pl/parafie/lista-parafii/17-czarny-dunajec/parafia-nmp-krolowej-polski.html"
"Parafia św. Jana Chrzciciela","","","Nowe Bystre 37, 34-521 Ząb","",""," 18 207 12 96","ks. mgr Aleksander Salamon","8:00, 9:30 , 11:00 ","18:00  sobota","","","http://www.diecezja.pl/parafie/lista-parafii/17-czarny-dunajec/parafia-sw-jana-chrzciciela.html"
"Parafia św. Marii Magdaleny","","","Odrowąż Podhalański 33","",""," 18 275 85 74","ks. mgr Jan Luberda E.c.","8:00, 9:30 , 11:00 ","18:00 , 19:00  sobota","","","http://www.diecezja.pl/parafie/lista-parafii/17-czarny-dunajec/parafia-sw-marii-magdaleny.html"
"Parafia MB Bolesnej","","","Pieniążkowice 55a","",""," 18 275 85 60","ks. mgr Marian Dziubas","8:00, 9:30 , 11:00 ","17:00  sobota","","","http://www.diecezja.pl/parafie/lista-parafii/17-czarny-dunajec/parafia-mb-bolesnej.html"
"Parafia MB Bolesnej","","","Podczerwone 113, 34-470 Czarny Dunajec","www.podczerwone.pl","par.podczerwone@neostrada.pl"," 18 264 15 10","ks. Jan Kubiś","8:00, 10:30 ","18:00  sobota","","","http://www.diecezja.pl/parafie/lista-parafii/17-czarny-dunajec/parafia-mb-bolesnej-.html"
"Parafia MB Szkaplerznej","","","Witow 178b, 34-512 Witow","www.parafia2itow.pl","kancelaria@parafiawitow.pl"," 18 207 17 93","ks. mgr Jan Lis SDB","7:00, 8:00 , 9:00, 10:00 , 11:00, 13:00 , 18:00 ","18:00  sobota","","","http://www.diecezja.pl/parafie/lista-parafii/17-czarny-dunajec/parafia-mb-szkaplerznej.html"
"Parafia MB Wspomożenia Wiernych","","","ul. Kościelna 1, 32‑410 Dobczyce","www.parafiadobczyce.com.pl",""," 12 271 10 44","ks. mgr Kazimierz Turakiewicz","7:00, 8:30, 10:00, 11:30, 13:00, 13:00 , 18:00 ","","","","http://www.diecezja.pl/parafie/lista-parafii/19-dobczyce/parafia-mb-wspomozenia-wiernych.html"
"Parafia Macierzyństwa NMP","","","Sanktuarium Maryjne","www.dziekanowice.pl","sanktuarium@dziekanowice.pl","  12 271 13 14","ks. mgr Jan Cendrzak","8:00, 11:00, 16:00 ","","","","http://www.diecezja.pl/parafie/lista-parafii/19-dobczyce/parafia-macierzynstwa-nmp.html"
"Parafia Rozesłania Świętych Apostołów","","","Gruszow 136, 32‑414 Gruszow","",""," 12 271 62 03","ks. mgr Zbigniew Ochała","8:00, 11:00 ","","","","http://www.diecezja.pl/parafie/lista-parafii/19-dobczyce/parafia-rozeslania-swietych-apostolow.html"
"Parafia Miłosierdzia Bożego","","","Kornatka 220, 32-410 Dobczyce","www.parafiakornatka.pl/","kornatka@diecezja.krakow.pl","  12 271 27 72","ks. Wiesław Smaza","7:00, 9:00 , 11:00 ","18:00  sobota","","","http://www.diecezja.pl/parafie/lista-parafii/19-dobczyce/parafia-milosierdzia-bozego.html"
"Parafia św. Jadwigi Królowej","","","Lipnik 400, 32‑412 Wiśniowa","www.lipnik-jadwiga.diecezja.pl",""," 12 373 60 99","ks. mgr Janusz Widur","7:30, 9:30, 11:30 ","18:00  sobota","","","http://www.diecezja.pl/parafie/lista-parafii/19-dobczyce/parafia-sw-jadwigi-krolowej.html"
"Parafia św. Jakuba Apostoła","","","Raciechowice 23, 32‑415 Raciechowice","",""," 12 271 50 09","ks. Jozef Czarny","7:30, 9:00, 10:15 , 11:30, 16:00 ","18:00  sobota","","","http://www.diecezja.pl/parafie/lista-parafii/19-dobczyce/parafia-sw-jakuba-apostola.html"
"Parafia Najświętszego Serca Pana Jezusa","","","Stadniki 81, 32‑422 Stadniki","","stadniki.par@scj.pl"," 12 271 15 24 (44)","ks. mgr Mariusz Tomaka SCJ","7:00, 9:00, 11:00, 18:00 ","18:00  sobota","","","http://www.diecezja.pl/parafie/lista-parafii/19-dobczyce/parafia-najswietszego-serca-pana-jezusa.html"
"Parafia MB Nieustającej Pomocy","","","Węglowka 110, 32-412 Wiśniowa","",""," 12 271 42 82","ks. Krzysztof Ligocki SCJ","7:30, 9:00 , 11:00, 17:00 ","18:00  sobota","","","http://www.diecezja.pl/parafie/lista-parafii/19-dobczyce/parafia-mb-nieustajacej-pomocy.html"
"Parafia św. Marcina","","","Wiśniowa 1a, 32‑412 Wiśniowa","",""," 12 271 40 97","ks. Wacław Bednarz","7:00, 9:00, 11:00, 18:00 ","18:00  sobota","","","http://www.diecezja.pl/parafie/lista-parafii/19-dobczyce/parafia-sw-marcina.html"
"Parafia św. Anny","","","Chyżne 157, 34‑481 Chyżne","",""," 18 264 20 10 (11)","o. mgr Andrzej Mikołajczyk OC","8:00, 10:30, 15:00 ","","","","http://www.diecezja.pl/parafie/lista-parafii/20-jablonka/parafia-sw-anny.html"
"Parafia Przemienienia Pańskiego","","","ul. Jana Pawła II 20,&nbsp;34‑480 Jabłonka","",""," 18 265 23 27","ks. mgr Kazimierz Czepiel","6:30, 8:00 [j. słowacki], 9:30, 11:00, 18:00 ","18:00  sobota","","","http://www.diecezja.pl/parafie/lista-parafii/20-jablonka/parafia-przemienienia-panskiego.html"
"Rektorat św. Brata Alberta","","","Jabłonka-Bory","www.jablonka-bory.pl","patter69@post.pl","","","8:00, 10:00, 14:00 ","","","","http://www.diecezja.pl/parafie/lista-parafii/20-jablonka/rektorat-sw-brata-alberta.html"
"Parafia św. Stefana","","","Lipnica Mała 347","",""," 18 27 52 546 (190)","ks. Adam Leśniak","7:30, 8:45 , 10:00, 11:30, 17:00 ","18:00  sobota","","","http://www.diecezja.pl/parafie/lista-parafii/20-jablonka/parafia-sw-stefana.html"
"Parafia św. Jadwigi Królowej","","","Lipnica Wielka 207, 34-483 Lipnica Wielka","","","","ks. mgr Andrzej Pawlak, ","8:00, 10:00, 16:00 ","","","","http://www.diecezja.pl/parafie/lista-parafii/20-jablonka/parafia-sw-jadwigi-krolowej.html"
"Parafia św. Łukasza Ewangelisty","","","Lipnica Wielka 583, 34-483 Lipnica Wielka","www.parafia-lipnicawielka.pl",""," 18 263 45 23","ks. mgr Zbigniew Zięba","7:30, 8:45 , 10:00, 10:00 , 11:30, 15:00 ","18:00  sobota","","","http://www.diecezja.pl/parafie/lista-parafii/20-jablonka/parafia-sw-lukasza-ewangelisty.html"
"Parafia św. Jana Chrzciciela","","","Orawka 65, 34‑480 Jabłonka","www.parafiaorawka.pl",""," 18 265 23 40","ks. mgr Tadeusz Dąbrowski j.","8:00, 10:30 ","18:00  sobota","","","http://www.diecezja.pl/parafie/lista-parafii/20-jablonka/parafia-sw-jana-chrzciciela.html"
"Parafia św. Jakuba Apostoła","","","Piekielnik 331, 34‑472 Piekielnik","www.parafia-piekielnik.pl",""," 18 263 90 40","ks. mgr Zygmunt Hopciaś","7:30, 9:30, 11:30 ","","","","http://www.diecezja.pl/parafie/lista-parafii/20-jablonka/parafia-sw-jakuba-apostola.html"
"Parafia św. Jana Pawła II","","","Podsarnie 87 b, 34-721 Raba Wyżna","www.parafiapodsarnie.pl","kontakt@parafiapodsarnie.pl"," 18 285 37 67","ks. mgr Leszek Uroda","8:00, 10:00 , 11:15 ","","","","http://www.diecezja.pl/parafie/lista-parafii/20-jablonka/parafia-sw-jana-pawla-ii.html"
"Parafia św. Rozalii","","","Podszkle 50, 34‑472 Piekielnik","","swrozalia_podszkle@onet.pl","","ks. mgr Marek Kasperkiewicz E.c.","8:00, 9:30 , 11:30 ","18:00  sobota","","","http://www.diecezja.pl/parafie/lista-parafii/20-jablonka/parafia-sw-rozalii.html"
"Parafia św. Marcina","","","Podwilk 289, 34‑722 Podwilk","",""," 18 285 29 23,&nbsp; 18 269 84 30","ks. Kazimierz Gunia","8:00, 10:30, 15:00 ","","","","http://www.diecezja.pl/parafie/lista-parafii/20-jablonka/parafia-sw-marcina.html"
"Parafia MB Szkaplerznej","","","Zubrzyca Dolna 272a","",""," 18 285 27 95","ks. mgr Tomasz Worek","9:00, 12:00 ","","","","http://www.diecezja.pl/parafie/lista-parafii/20-jablonka/parafia-mb-szkaplerznej.html"
"Parafia św. Michała Archanioła","","","Zubrzyca Gorna 56","",""," 18 285 27 10","ks. mgr Jan Kołodziej","8:00, 9:30 , 11:00, 16:00 ","","","","http://www.diecezja.pl/parafie/lista-parafii/20-jablonka/parafia-sw-michala-archaniola.html"
"Parafia św. Marcina","","","Biskupice 5, 32‑020 Wieliczka","www.parafia.biskupice.info.pl","parafia@biskupice.inf.pl","  12 250 76 76","ks. mgr Andrzej Duda","6:30, 8:15 , 9:30, 10:15 , 11:00, 12:15 , 18:00 ","18:00  sobota","","","http://www.diecezja.pl/parafie/lista-parafii/30-niegowic/parafia-sw-marcina.html"
"Parafia Przemienienia Pańskiego","","","Brzezie 2, 32‑014 Brzezie","",""," 12 284 50 03","ks. Stanisław Maroszek","7:00, 8:30 , 9:45 , 11:00, 16:00 ","18:00  sobota","","","http://www.diecezja.pl/parafie/lista-parafii/30-niegowic/parafia-przemienienia-panskiego.html"
"Parafia Narodzenia NMP","","","Sanktuarium Matki Bożej Gdowskiej","",""," 12 251 52 62","ks. mgr Stanisław Bętkowski","6:30, 8:00, 9:00 , 9:30, 11:00, 12:30, 15:00 , 18:00 ","18:00  sobota","","","http://www.diecezja.pl/parafie/lista-parafii/30-niegowic/parafia-narodzenia-nmp.html"
"Parafia MB Fatimskiej","","","Jaroszowka 39, 32‑420 Gdow","www.jaroszowka.parafialnastrona.pl ","parafiambf.jaroszowka@poczta.fm"," 12 251 96 49","ks. mgr Krzysztof Koska","8:00, 11:00, 16:00 ","","","","http://www.diecezja.pl/parafie/lista-parafii/30-niegowic/parafia-mb-fatimskiej.html"
"Parafia Wniebowzięcia NMP","","","Niegowić 13, 32‑420 Niegowić","www.parafia.niegowic.pl","parafianiegowic@wp.pl","  12 250 03 96","ks. Paweł Sukiennik","7:00, 9:00, 11:00, 13:00, 18:00 ","18:00  sobota","","","http://www.diecezja.pl/parafie/lista-parafii/30-niegowic/parafia-wniebowziecia-nmp.html"
"Parafia Nawiedzenia NMP","","","Tarnawa k. Bochni 83","",""," 14 613 55 89","ks. mgr Jerzy Filek","8:00, 10:30, 15:00 ","18:00  sobota","","","http://www.diecezja.pl/parafie/lista-parafii/30-niegowic/parafia-nawiedzenia-nmp.html"
"Parafia św. Bartłomieja Apostoła","","","Łapanow 1, 32-740 Łapanow","",""," 12 685 35 14","ks. Tadeusz Jarzębak","7:30, 9:30, 11:00, 12:15, 18:00 ","18:00  sobota","","","http://www.diecezja.pl/parafie/lista-parafii/30-niegowic/parafia-sw-bartlomieja-apostola.html"
"Parafia Znalezienia Krzyża Świętego","","","Łazany 17, 32‑020 Wieliczka","www.parafialazany.pl","kancelaria@parafialazany.pl"," 12 250 66 99","ks. mgr Stanisław Wciślak","7:30, 10:30, 14:00 ","","","","http://www.diecezja.pl/parafie/lista-parafii/30-niegowic/parafia-znalezienia-krzyza-swietego.html"
"Parafia Wniebowzięcia NMP","","","Grabie 32, 32‑002 Węgrzce Wielkie","",""," 12 251 13 35","ks. mgr Andrzej Pietrusa","7:00, 9:00, 11:00 ","18:00  sobota","","","http://www.diecezja.pl/parafie/lista-parafii/31-niepolomice/parafia-wniebowziecia-nmp.html"
"Parafia św. Józefa Robotnika","","","ul. Kościelna 60, 32‑015 Kłaj","",""," 12 284 15 00","ks. mgr Kazimierz Budek","8:00, 10:00, 11:30, 17:00 ","","","","http://www.diecezja.pl/parafie/lista-parafii/31-niepolomice/parafia-sw-jozefa-robotnika.html"
"Parafia Dziesięciu Tysięcy Męczenników","","","ul. Piękna 2, 32-005 Niepołomice","www.niepolomiceskb.diecezja.krakow.pl","niepolomice@diecezja.krakow.pl"," 12 281 10 41","ks. mgr lic. Stanisław Mika","7:00, 8:30, 10:00, 11:30, 13:00, 16:30, 18:00 ","18:00  sobota","","","http://www.diecezja.pl/parafie/lista-parafii/31-niepolomice/parafia-dziesieciu-tysiecy-meczennikow.html"
"Parafia MB Różańcowej","","","os. Suszowka 1, 32-005 Niepołomice","www.parafiajazy.pl",""," 12 281 33 15","ks. Edward Bąbol","8:30, 11:30, 18:00 ","","","","http://www.diecezja.pl/parafie/lista-parafii/31-niepolomice/parafia-mb-rozancowej.html"
"Parafia NMP Królowej Polski","","","Podłęże 375, 32-003 Podłęże","",""," 12 281 86 18","ks. mgr Tomasz Boroń","7:00, 9:00, 11:00, 17:00 ","","","","http://www.diecezja.pl/parafie/lista-parafii/31-niepolomice/parafia-nmp-krolowej-polski.html"
"Ośrodek duszpasterski św. Wojciecha BM","","","Staniątki 299, 32-005 Niepołomice","www.staniatki.pl","staniatki@sdb.krakow.pl"," 12 281 80 44","","6:30, 9:00, 11:00, 13:00 , 18:00 ","18:00  sobota","","","http://www.diecezja.pl/parafie/lista-parafii/31-niepolomice/osrodek-duszpasterski-sw-wojciecha-bm.html"
"Parafia św. Stanisława BM","","","Szarow, ul. Kościelna 290","www.parafiasd.pl",""," 12 284 15 87","ks. Adam Kozłowski","7:30, 9:00, 11:00, 16:00 ","18:00  sobota","","","http://www.diecezja.pl/parafie/lista-parafii/31-niepolomice/parafia-sw-stanislawa-bm.html"
"Parafia MB Nieustającej Pomocy","","","Wola Batorska 3","",""," 12 281 60 02","ks. mgr Wojciech Guzik","8:00, 10:00, 11:30, 16:30 ","18:00  sobota","","","http://www.diecezja.pl/parafie/lista-parafii/31-niepolomice/parafia-mb-nieustajacej-pomocy.html"
"Parafia Opieki NMP","","","Zabierzow Bocheński 107","www.parafiazabierzow.pl",""," 12 281 67 40","ks. mgr Kazimierz Włoch","7:00, 9:00, 11:00, 15:00 ","19:00  sobota","","","http://www.diecezja.pl/parafie/lista-parafii/31-niepolomice/parafia-opieki-nmp.html"
"Parafia św. Marcina","","","Klikuszowa 221, 34‑404 Klikuszowa","www.parafia.pl","klikuszowa@parafia.pl","  18 265 14 16","ks. Jan Mikołajczyk","7:30, 8:30 , 9:30, 11:30, 17:00 ","18:00  sobota","","","http://www.diecezja.pl/parafie/lista-parafii/32-nowy-targ/parafia-sw-marcina.html"
"Parafia Wniebowzięcia NMP","","","ul. Jana Pawła II 124, 34-471 Ludźmierz","www.mbludzm.pl","kancelaria@mbludzm.pl"," w.25","ks. mgr Kazimierz Klimczak","7:00, 9:00, 9:30 , 11:00, 18:00 ","18:00 , 18:00  sobota","","","http://www.diecezja.pl/parafie/lista-parafii/32-nowy-targ/parafia-wniebowziecia-nmp.html"
"Parafia Najświętszego Serca Pana Jezusa","","","al. Tysiąclecia 39, 34-400 Nowy Targ","",""," 18 266 21 65","ks. mgr Stanisław Strojek","6:00, 7:30, 9:00, 10:30, 12:00, 13:30, 18:00, 20:00 ","18:00  sobota","","","http://www.diecezja.pl/parafie/lista-parafii/32-nowy-targ/parafia-najswietszego-serca-pana-jezusa.html"
"Parafia św. Jana Pawła II","","","ul. Szaflarska 160, 34-400 Nowy Targ","www.parafia.nowytarg.pl","kancleria_parafialna1@o2.pl"," 18 266 76 55","ks. mgr Jan Karlak","7:00, 10:00, 11:30, 18:00 ","18:00  sobota","","","http://www.diecezja.pl/parafie/lista-parafii/32-nowy-targ/parafia-sw-jana-pawla-ii.html"
"Parafia św. Katarzyny","","","ul. Kościelna 1, 34‑400 Nowy Targ","",""," 18 266 67 50","ks. mgr Marian Wanat","6:30, 7:15 , 8:00, 9:30, 10:00 , 11:00, 12:30, 16:00 , 18:00 ","18:00  sobota","","","http://www.diecezja.pl/parafie/lista-parafii/32-nowy-targ/parafia-sw-katarzyny.html"
"Parafia św. Jadwigi Królowej","","","ul. Ludźmierska 17, 34‑400 Nowy Targ","www.jadwiga.nowytarg.pl",""," 18 264 93 03","ks. mgr Henryk Paśko","7:30, 9:00, 11:00, 19:00 ","19:00  sobota","","","http://www.diecezja.pl/parafie/lista-parafii/32-nowy-targ/parafia-sw-jadwigi-krolowej.html"
"Parafia MB Anielskiej","","","ul. Kowaniec 182, 34‑401 Nowy Targ","","parafiamba@wp.pl"," 18 266 59 03","ks. mgr Stanisław Chlebek","7:00 , 8:00, 10:30, 18:00 ","18:00  sobota","","","http://www.diecezja.pl/parafie/lista-parafii/32-nowy-targ/parafia-mb-anielskiej.html"
"Parafia św. Brata Alberta","","","ul. Krakowska 73, 34‑400 Nowy Targ","",""," 18 266 96 30","ks. mgr Franciszek Rembiesa","7:30, 9:00, 11:00 ","","","","http://www.diecezja.pl/parafie/lista-parafii/32-nowy-targ/parafia-sw-brata-alberta.html"
"Parafia św. Michała Archanioła","","","Ostrowsko, ul. Jana Pawła II 21","","","  18 265 30 08","ks. mgr Jan Jakubiec E.c.","8:00, 11:00 ","19:00  sobota","","","http://www.diecezja.pl/parafie/lista-parafii/32-nowy-targ/parafia-sw-michala-archaniola.html"
"Parafia św. Jana Chrzciciela","","","Pyzowka, ul. Orkana 8","",""," 18 275 12 88","ks. Tomasz Gucwa","8:00, 11:00 ","18:00  sobota","","","http://www.diecezja.pl/parafie/lista-parafii/32-nowy-targ/parafia-sw-jana-chrzciciela.html"
"Parafia św. Andrzeja Boboli","","","Rogoźnik 132, 34-471 Ludźmierz","","parafia.rogoznik.sw.andrzeja.boboli@neostrada.pl"," 18 265 55 06","ks. mgr Andrzej Bukalski","8:00, 10:30 ","18:00  sobota","","","http://www.diecezja.pl/parafie/lista-parafii/32-nowy-targ/parafia-sw-andrzeja-boboli.html"
"Parafia św. Jadwigi Śląskiej","","","ul. Kościelna 7, 34‑431 Waksmund","",""," 18 265 39 74","ks. mgr Tadeusz Kozak","8:00, 11:00, 17:00 ","","","","http://www.diecezja.pl/parafie/lista-parafii/32-nowy-targ/parafia-sw-jadwigi-slaskiej.html"
"Parafia św. Marcina","","","Bystra 2, 34-235 Bystra","www.bystraparafia.katolicki.eu","bystraparafia@gmail.com"," 18 268 10 28","ks. mgr lic. Adam Byrski","7:30, 9:30, 11:00, 17:00 ","18:00  sobota","","","http://www.diecezja.pl/parafie/lista-parafii/21-jordanow/parafia-sw-marcina.html"
"Parafia Przenajświętszej Trójcy","","","ul. Kolejowa 8, 34-240 Jordanow","",""," 18 267 55 38,  18 267 51 35","a","7:00, 8:30, 10:00, 11:30, 17:00 ","18:00  sobota","","","http://www.diecezja.pl/parafie/lista-parafii/21-jordanow/parafia-przenajswietszej-trojcy.html"
"Parafia św. Siostry Faustyny Kowalskiej","","","Naprawa 545, 34-240 Jordanow","",""," 18 267 21 66","ks. mgr Jan Fryźlewicz","7:30, 9:30, 15:00 ","18:00  sobota","","","http://www.diecezja.pl/parafie/lista-parafii/21-jordanow/parafia-sw-siostry-faustyny-kowalskiej.html"
"Parafia św. Mikołaja","","","Sidzina 369, 34‑236 Sidzina","www.sidzina.parafia.info.pl",""," 18 267 31 93","ks. Jozef Bafia","7:30, 8:30 , 9:30, 11:00, 14:00 , 15:00 , 17:00 ","","","","http://www.diecezja.pl/parafie/lista-parafii/21-jordanow/parafia-sw-mikolaja.html"
"Parafia św. Sebastiana","","","Skomielna Biała 2, 32‑434 Skomielna Biała","",""," 18 268 72 67","ks. mgr Ryszard Pawluś","7:30, 9:30, 11:00, 16:00 ","","","","http://www.diecezja.pl/parafie/lista-parafii/21-jordanow/parafia-sw-sebastiana.html"
"Parafia Nawiedzenia NMP","","","Skomielna Czarna 240, 32‑437 Skomielna Czarna","www.skomielnaczarna.kapucyni.pl","skomielnaczarna@kapucyni.pl"," 12 373 21 61","o. mgr lic. Krzysztof Juzba OFM Cap.","7:00, 8:30, 9:45 , 11:00, 18:00 ","","","","http://www.diecezja.pl/parafie/lista-parafii/21-jordanow/parafia-nawiedzenia-nmp.html"
"Parafia NMP Matki Kościoła","","","Toporzysko 505, 34‑240 Jordanow","www.parafiatoporzysko.pl",""," 18 287 33 03","ks. Marian Juras","8:00, 11:00 ","18:00  sobota","","","http://www.diecezja.pl/parafie/lista-parafii/21-jordanow/parafia-nmp-matki-kosciola.html"
"Parafia Nawiedzenia NMP","","","ul. Wysoka 237, 34‑240 Jordanow","",""," 18 267 29 61","ks. Jan Mędrzak","8:30, 10:15 ","","","","http://www.diecezja.pl/parafie/lista-parafii/21-jordanow/parafia-nawiedzenia-nmp-.html"
"Parafia Świętych Apostołów Szymona i Judy Tadeusza","","","Łętownia 99, 34-242 Łętownia","","urzd.parafialny1@neostrada.pl"," 18 277 30 14","ks. mgr Stefan Stypuła","6:30, 8:00, 10:00, 11:00 , 16:00 ","","","","http://www.diecezja.pl/parafie/lista-parafii/21-jordanow/parafia-swietych-apostolow-szymona-i-judy-tadeusza.html"
"Parafia św. Stanisława BM","","","Krzczonow 215, 32-435 Krzczonow","www.krzczonow.diecezja.pl","krzczonow@diecezja.pl"," 12 274 71 56","ks. Zbigniew Książkiewicz","7:30, 9:30 , 9:30 , 11:00 ","","","","http://www.diecezja.pl/parafie/lista-parafii/33-pcim/parafia-sw-stanislawa-bm.html"
"Parafia św. Wojciecha BM","","","Krzeczow 120, 32‑433 Lubień","",""," 18 268 21 17","ks. Antoni Płaczek","8:00, 10:30, 18:00 ","","","","http://www.diecezja.pl/parafie/lista-parafii/33-pcim/parafia-sw-wojciecha-bm.html"
"Parafia św. Jana Chrzciciela","","","Lubień 1, 32-433 Lubień","","parafia_lubien@wp.pl"," 18 268 20 18","ks. mgr Piotr Sulek","7:00, 9:00 , 10:00, 11:30, 17:30 ","18:30  sobota","","","http://www.diecezja.pl/parafie/lista-parafii/33-pcim/parafia-sw-jana-chrzciciela.html"
"Parafia św. Mikołaja","","","Pcim 2, 32‑432 Pcim","www.parafiapcim.republika.pl",""," 12 274 80 30","ks. dr ","7:30, 9:00, 9:00 , 10:00 , 10:00 , 10:15 , 11:30, 15:30, 17:00 ","","","","http://www.diecezja.pl/parafie/lista-parafii/33-pcim/parafia-sw-mikolaja.html"
"Parafia NMP Królowej Polski","","","Stroża 342, 32-431 Stroża","",""," 12 373 36 42","ks. Wiesław Hajto","8:00, 9:30, 11:00, 17:00 ","18:00  sobota","","","http://www.diecezja.pl/parafie/lista-parafii/33-pcim/parafia-nmp-krolowej-polski.html"
"Parafia MB Królowej Polski","","","Tenczyn 312, 32‑433 Lubień","",""," 18 268 26 33","o. Stanisław Krol OFMCap","7:30, 9:00, 11:00, 17:00 ","","","","http://www.diecezja.pl/parafie/lista-parafii/33-pcim/parafia-mb-krolowej-polski.html"
"Parafia MB Śnieżnej","","","Tokarnia 371, 32‑436 Tokarnia","",""," 12 274 70 40","ks. mgr lic. Robert Pietrzyk ","7:00, 9:00, 11:00, 15:30 ","18:00  sobota","","","http://www.diecezja.pl/parafie/lista-parafii/33-pcim/parafia-mb-snieznej.html"
"Parafia św. Marii Magdaleny","","","Trzebunia k. Myślenic 165","",""," 12 273 45 26","ks. mgr Kazimierz Czubat","7:30, 10:30, 16:00 ","","","","http://www.diecezja.pl/parafie/lista-parafii/33-pcim/parafia-sw-marii-magdaleny.html"
"Ośrodek duszpasterski MB Ostrobramskiej","","","Więciorka 88, 32‑436 Tokarnia","",""," 12 274 70 23","","8:00, 10:00 , 12:00, 18:00 ","","","","http://www.diecezja.pl/parafie/lista-parafii/33-pcim/osrodek-duszpasterski-mb-ostrobramskiej.html"
"Parafia Miłosierdzia Bożego","","","Barwałd Gorny 333","",""," 33 876 58 88","ks. mgr Krzysztof Rudzik","8:10, 10:30, 16:00 ","18:00  sobota","","","http://www.diecezja.pl/parafie/lista-parafii/22-kalwaria/parafia-milosierdzia-bozego.html"
"Parafia Wniebowzięcia NMP","","","Brody 366,&nbsp;34-130 Kalwaria Zebrzydowska","www.grobek.eu","grobek@kalwaria.eu"," 33 876 65 88","o. Mieczysław Żelazny OFMBern","8:00, 10:00, 12:00, 18:00 ","18:00  sobota","","","http://www.diecezja.pl/parafie/lista-parafii/22-kalwaria/parafia-wniebowziecia-nmp.html"
"Parafia św. Józefa","","","Rynek 26, 34‑130 Kalwaria Zebrzydowska","www.kalwaria.diecezja.krakow.pl",""," 33 876 64 64","ks. Wiesław Cygan","6:00 , 6:30, 7:00 , 8:00, 8:30 , 9:30, 10:00 , 11:00, 11:30 , 12:30, 13:00 , 15:00 , 16:30, 17:00 , 19:00 ","18:00, 19:00  sobota","","","http://www.diecezja.pl/parafie/lista-parafii/22-kalwaria/parafia-sw-jozefa.html"
"Parafia Narodzenia św. Jana Chrzciciela","","","ul. św. Jana 12, 34-143 Lanckorona","parafia.lanckorona.pl","parafia@lanckorona.pl"," 33 876 35 77","ks. mgr Jan Bobrek","7:00, 9:00, 11:00, 17:00 ","18:00  sobota","","","http://www.diecezja.pl/parafie/lista-parafii/22-kalwaria/parafia-narodzenia-sw-jana-chrzciciela.html"
"Parafia Świętych Apostołów Piotra i Pawła","","","Leńcze 132, 34‑142 Leńcze","",""," 33 876 88 08","ks. mgr Bohdan Ciołczyk","8:00, 11:00, 16:00 ","18:00  sobota","","","http://www.diecezja.pl/parafie/lista-parafii/22-kalwaria/parafia-swietych-apostolow-piotra-i-pawla.html"
"Parafia Przenajświętszej Trójcy","","","Przytkowice 417, 34‑141 Przytkowice","www.parafiaprzytkowice.pl","poczta@parafiaprzytkowice pl"," 33 876 84 76","ks. mgr Leszek Filipek","7:00, 9:00, 11:00, 17:00 ","","","","http://www.diecezja.pl/parafie/lista-parafii/22-kalwaria/parafia-przenajswietszej-trojcy.html"
"Parafia św. Joachima","","","Skawinki 214, 34‑143 Lanckorona","",""," 33 876 35 96","ks. mgr Adam Szczygieł E.c.","8:00, 9:30, 11:00 ","","","","http://www.diecezja.pl/parafie/lista-parafii/22-kalwaria/parafia-sw-joachima.html"
"Parafia św. Stanisława BM","","","Stanisław Dolny 150","",""," 33 876 76 10","ks. Jozef Piasecki","7:00, 9:00, 11:00 ","","","","http://www.diecezja.pl/parafie/lista-parafii/22-kalwaria/parafia-sw-stanislawa-bm.html"
"Parafia Niepokalanego Serca NMP","","","Stanisław Gorny 80a","",""," 33 873 75 02","ks. mgr Roman Świerkosz","7:30, 9:00, 10:30, 15:00 ","18:00  sobota","","","http://www.diecezja.pl/parafie/lista-parafii/22-kalwaria/parafia-niepokalanego-serca-nmp.html"
"Parafia św. Anny","","","Zakrzow 98, 34‑145 Stronie","",""," 33 879 74 96","ks. mgr Krzysztof Kopeć","6:30 , 8:00 , 9:30, 11:00, 16:00 ","18:00  sobota","","","http://www.diecezja.pl/parafie/lista-parafii/22-kalwaria/parafia-sw-anny.html"
"Parafia św. Michała Archanioła","","","Zebrzydowice 12;&nbsp;34‑130 Kalwaria Zebrzydowska","",""," 33 876 48 50","ks. mgr lic. Stanisław Dolasiński","7:00, 9:00, 11:00, 17:00 ","18:00  sobota","","","http://www.diecezja.pl/parafie/lista-parafii/22-kalwaria/parafia-sw-michala-archaniola.html"
"Parafia Wniebowzięcia NMP","","","Filipowice 341, 32‑065 Krzeszowice","www.parafiafilipowice.wordpress.com",""," 12 283 72 30","ks. dr hab. ","7:30, 10:30 , 16:00 ","","","","http://www.diecezja.pl/parafie/lista-parafii/23-krzeszowice/parafia-wniebowziecia-nmp.html"
"Parafia św. Mikołaja","","","ul. Leśna 1, 32‑327 Gorenice","",""," 32 642 71 52","ks. Wiesław Gibas","7:30, 9:15 , 11:00, 17:00 ","18:00  sobota","","","http://www.diecezja.pl/parafie/lista-parafii/23-krzeszowice/parafia-sw-mikolaja.html"
"Parafia św. Jana Pawła II","","","ul. Żbicka, 32&nbsp;065 Krzeszowice","www.jp2krzeszowice.pl/","kancelaria@jp2krzeszowice.pl","&nbsp;12&nbsp;282&nbsp;64&nbsp;32","ks. mgr Karol Szałas","9:00, 11:00, 17:00 ","","","","http://www.diecezja.pl/parafie/lista-parafii/23-krzeszowice/parafia-sw-jana-pawla-ii.html"
"Parafia św. Marcina","","","ul. Grunwaldzka 1, 32‑065 Krzeszowice","",""," 12 282 08 72","ks. dr Andrzej Szczotka","6:30, 8:00, 9:00, 10:00, 11:00, 12:00, 13:00 , 18:00 ","18:00  sobota","","","http://www.diecezja.pl/parafie/lista-parafii/23-krzeszowice/parafia-sw-marcina.html"
"Parafia Podwyższenia Krzyża Świętego","","","Nawojowa Gora, ul. Nawoja 58","",""," 12 258 18 55","ks. Janusz Kosowski","8:00, 11:00, 16:00 ","18:00  sobota","","","http://www.diecezja.pl/parafie/lista-parafii/23-krzeszowice/parafia-podwyzszenia-krzyza-swietego.html"
"Parafia Zesłania Ducha Świętego","","","Nowa Gora 483, 32‑062 Nowa Gora","www.parafianowagora.pl","kontakt@parafianowagora.pl"," 12 283 50 79","ks. Jozef Grzesiuła","7:00, 9:00, 11:00, 16:30 ","18:00  sobota","","","http://www.diecezja.pl/parafie/lista-parafii/23-krzeszowice/parafia-zeslania-ducha-swietego.html"
"Parafia św. Siostry Faustyny","","","Ostrężnica 303, 32‑065 Krzeszowice","parafia-ostreznica-lany.pl",""," 12 283 54 62","ks. mgr Krzysztof Kołata","8:00, 9:30, 11:00 ","18:00  sobota","","","http://www.diecezja.pl/parafie/lista-parafii/23-krzeszowice/parafia-sw-siostry-faustyny.html"
"Parafia Nawiedzenia NMP","","","Paczołtowice 14, 32‑065 Krzeszowice","",""," 12 282 90 91","ks. mgr Ryszard Pałka, E.c.","7:00, 9:00 , 11:00, 16:00 ","18:00  sobota","","","http://www.diecezja.pl/parafie/lista-parafii/23-krzeszowice/parafia-nawiedzenia-nmp.html"
"Rektorat św. Brata Alberta","","","Radwanowice 6, 32‑064 Rudawa","",""," 12 283 93 07","em parafii południowej dla Ormian z siedzibą w kościele pw. Świętej Trojcy w Gliwicach, * Radwanowice 1, 32-064 Rudawa","","","","","http://www.diecezja.pl/parafie/lista-parafii/23-krzeszowice/rektorat-sw-brata-alberta.html"
"Parafia Wszystkich Świętych","","","Rudawa 65, 32‑064 Rudawa","",""," 12 283 80 24","ks. mgr Andrzej Badura","6:45, 7:30 , 8:00, 9:00 , 9:30, 11:00, 12:15, 16:00 ","18:30  sobota","","","http://www.diecezja.pl/parafie/lista-parafii/23-krzeszowice/parafia-wszystkich-swietych.html"
"Parafia św. Jakuba Apostoła","","","Sanka 58, 32-067 Tenczynek","www.parafiasanka.pl","parafia.sanka@neostrada.pl"," 12 283 63 73","ks. mgr Jarosław Żmija","8:00, 10:00, 11:30 ","","","","http://www.diecezja.pl/parafie/lista-parafii/23-krzeszowice/parafia-sw-jakuba-apostola.html"
"Parafia św. Katarzyny","","","ul. ks. Mieczysława Mądrzyka 21A","www.parafiatenczynek.pl","biuro@parafiatenczynek.pl"," 12 282 17 85","ks. mgr lic. Stanisław Salawa","7:00, 9:00, 10:15 , 11:30, 16:00 ","18:00  sobota","","","http://www.diecezja.pl/parafie/lista-parafii/23-krzeszowice/parafia-sw-katarzyny.html"
"Parafia św. Maksymiliana M. Kolbego","","","Wola Filipowska, ks. M. Mądrzyka 30","",""," 12 283 75 03","ks. Jan Raczek","7:00, 9:00, 11:00, 18:00 ","17:00  sobota","","","http://www.diecezja.pl/parafie/lista-parafii/23-krzeszowice/parafia-sw-maksymiliana-m-kolbego.html"
"Parafia św. Marii Magdaleny","","","Zalas 84, 32‑067 Tenczynek","",""," 12 283 62 32","ks. Jozef Gal","8:00, 10:00, 16:30 ","18:00  sobota","","","http://www.diecezja.pl/parafie/lista-parafii/23-krzeszowice/parafia-sw-marii-magdaleny.html"
"Parafia Przenajświętszej Trójcy","","","ul. Księżnej Ogińskiej 6, 32‑661 Bobrek","www.parafiabobrek.pl","parafia@parafiabobrek.pl"," 33 846 30 30","ks. mgr Stanisław Szklany","8:30, 9:45 , 11:00, 16:30 ","17:30  sobota","","","http://www.diecezja.pl/parafie/lista-parafii/24-libiaz/parafia-przenajswietszej-trojcy.html"
"Parafia Miłosierdzia Bożego","","","ul. Wojska Polskiego 1, 32‑660 Chełmek","www.misericordias.pl/","parafia@misericordias.pl"," 33 846 18 80","ks. mgr Andrzej Leśny","7:00, 8:30, 10:00, 11:30, 18:00 ","","","","http://www.diecezja.pl/parafie/lista-parafii/24-libiaz/parafia-milosierdzia-bozego.html"
"Parafia NMP Królowej Polski","","","ul. Słowackiego 13a, 32‑660 Chełmek","www.parafianmpchelmek.pl",""," 33 846 11 23","ks. Bogdan Leśniak","7:00, 9:00, 11:00, 18:00 ","18:00  sobota","","","http://www.diecezja.pl/parafie/lista-parafii/24-libiaz/parafia-nmp-krolowej-polski.html"
"Parafia św. Jadwigi Królowej","","","Gorzow, ul. Szkolna 9","www.parafiawgorzowie.pl",""," 33 846 37 15","ks. mgr Stanisław Rapacz E.c.","7:30, 10:00, 15:00 ","","","","http://www.diecezja.pl/parafie/lista-parafii/24-libiaz/parafia-sw-jadwigi-krolowej.html"
"Parafia MB Różańcowej","","","Gromiec, 32‑590 Libiąż","",""," 33 846 39 07","ks. mgr Zdzisław Bury","8:00, 10:30 ","","","","http://www.diecezja.pl/parafie/lista-parafii/24-libiaz/parafia-mb-rozancowej.html"
"Parafia Przemienienia Pańskiego","","","ul. Oświęcimska 83, 32-590 Libiąż","www.przemienienie.libiaz.pl",""," 32 627 14 03","ks. Michał Kliś","7:00, 9:00, 10:00 , 11:00, 12:30, 18:00 ","","","","http://www.diecezja.pl/parafie/lista-parafii/24-libiaz/parafia-przemienienia-panskiego.html"
"Parafia św. Barbary","","","ul. ks. Pieli 11, 32‑590 Libiąż","www.swbarbara.pl",""," 32 627 77 68","ks. Stanisław Pasternak","7:00, 8:30, 10:00, 11:30, 18:00 ","18:00  sobota","","","http://www.diecezja.pl/parafie/lista-parafii/24-libiaz/parafia-sw-barbary.html"
"Parafia św. Stanisława BM","","","ul. ks. P. Ściegiennego 7","swstanislawzarki.lh.pl/",""," 32 627 21 31","ks. mgr Zygmunt Cholewa","8:00, 11:00, 16:00 ","18:00  sobota","","","http://www.diecezja.pl/parafie/lista-parafii/24-libiaz/parafia-sw-stanislawa-bm.html"
"Parafia MB Królowej Rodzin","","","Białka Gorna 504","",""," 33 877 22 95","ks. mgr Jerzy Klauzner","8:00, 10:00 , 15:00 ","18:00  sobota","","","http://www.diecezja.pl/parafie/lista-parafii/25-makow-podhalanski/parafia-mb-krolowej-rodzin.html"
"Parafia MB Pocieszenia","","","Juszczyn 539, 34‑231 Juszczyn","",""," 33 877 17 67","ks. Tadeusz Bogdanik","7:00, 9:00, 10:15 , 11:30, 16:00 ","","","","http://www.diecezja.pl/parafie/lista-parafii/25-makow-podhalanski/parafia-mb-pocieszenia.html"
"Parafia MB Częstochowskiej","","","Kojszowka 217, 34-231 Juszczyn","","parafia_kojszowka@o2.pl"," 33 877 35 11","ks. mgr Paweł Łukaszka","8:00, 9:30 , 11:00 ","18:00  sobota","","","http://www.diecezja.pl/parafie/lista-parafii/25-makow-podhalanski/parafia-mb-czestochowskiej.html"
"Parafia Przemienienia Pańskiego","","","Sanktuarium Matki Bożej Opiekunki","","kancleria@parafiamakowska.pl"," 33 877 11 20","ks. mgr Tadeusz Rożałowski","6:30, 8:00, 8:15 , 9:30, 9:30 , 11:00, 13:00, 17:00 ","18:00  sobota","","","http://www.diecezja.pl/parafie/lista-parafii/25-makow-podhalanski/parafia-przemienienia-panskiego.html"
"Świętych Apostołów Filipa i Jakuba","","","Osielec 1, 34-234 Osielec","","","  33 277 39 16","ks. mgr Stanisław Skowronek","7:00, 9:00, 10:00 , 11:00, 16:30 ","18:00 , 19:00  sobota","","","http://www.diecezja.pl/parafie/lista-parafii/25-makow-podhalanski/swietych-apostolow-filipa-i-jakuba.html"
"Parafia MB Częstochowskiej","","","Skawica 122, 34‑221 Skawica","www.parafiaskawica.pl","parafia@parafiaskawica.pl"," 33 877 53 18","ks. mgr Krzysztof Strzelczyk","7:00, 9:00, 11:00, 16:00 ","","","","http://www.diecezja.pl/parafie/lista-parafii/25-makow-podhalanski/parafia-mb-czestochowskiej-.html"
"Parafia Najświętszego Serca Pana Jezusa","","","Żarnowka 22, 34-220 Makow Podhalański","","par.zarnowka22@op.pl"," 33 877 11 08","ks. mgr Wacław Siejka","8:00, 11:00 ","18:00  sobota","","","http://www.diecezja.pl/parafie/lista-parafii/25-makow-podhalanski/parafia-najswietszego-serca-pana-jezusa.html"
"Parafia MB Nieustającej Pomocy","","","Zawoja Gorna 1812, 34‑223 Zawoja","",""," 33 877 54 50","ks. mgr Bogusław Targosz","7:30, 10:00, 17:00 ","18:00  sobota","","","http://www.diecezja.pl/parafie/lista-parafii/25-makow-podhalanski/parafia-mb-nieustajacej-pomocy.html"
"Parafia św. Klemensa","","","Zawoja 123, 34‑222 Zawoja","www.zawoja.pl/parafia",""," 33 877 50 14","ks. Ryszard Więcek","7:30, 9:00, 10:00 , 11:00, 18:00 ","18:00  sobota","","","http://www.diecezja.pl/parafie/lista-parafii/25-makow-podhalanski/parafia-sw-klemensa.html"
"Ośrodek duszpasterski św. Józefa Robotnika","","","Zawoja-Zakamień 1546","",""," 33 877 52 11","","8:30, 11:00, 18:00 ","18:00  sobota","","","http://www.diecezja.pl/parafie/lista-parafii/25-makow-podhalanski/osrodek-duszpasterski-sw-jozefa-robotnika.html"
"Parafia Narodzenia NMP","","","ul. Maryjna 6, Gaj, 32‑031 Mogilany","www.parafiagaj.pl/","gajparafia@gmail.com"," 12 270 15 47","ks. Stanisław Kasela","7:30, 9:30, 11:30, 17:00 ","18:00  sobota","","","http://www.diecezja.pl/parafie/lista-parafii/26-mogilany/parafia-narodzenia-nmp.html"
"Parafia św. Marii Magdaleny","","","Głogoczow 74, 32‑444 Głogoczow","",""," 12 273 77 22","ks. Jozef Pochopień","7:30, 10:30, 16:00 ","19:00  sobota","","","http://www.diecezja.pl/parafie/lista-parafii/26-mogilany/parafia-sw-marii-magdaleny.html"
"Parafia św. Anny","","","Krzyszkowice 14, 32‑445 Krzyszkowice","www.krzyszkowice.eu","swanny.krzyszkowice@op.pl"," 12 372 63 70","ks. mgr Jan Antoł, E.c.","7:30, 9:30, 11:00, 15:30 ","18:00  sobota","","","http://www.diecezja.pl/parafie/lista-parafii/26-mogilany/parafia-sw-anny.html"
"Parafia św. Brata Alberta","","","Libertow, ul. Jana Pawła II 47","www.parafia-libertow.pl",""," 12 270 33 30","ks. mgr Paweł Jurek","7:30, 10:00, 11:30, 18:00 ","18:00  sobota","","","http://www.diecezja.pl/parafie/lista-parafii/26-mogilany/parafia-sw-brata-alberta.html"
"Parafia św. Bartłomieja Apostoła","","","ul. Krakowska 2, 32-031 Mogilany","www.parafia.mogilany.pl","parafia.mogilany@op.pl"," 12 270 10 15","ks. mgr Tadeusz Targosz","7:30, 8:30 , 9:30, 11:00, 12:30 , 17:00 ","18:00  sobota","","","http://www.diecezja.pl/parafie/lista-parafii/26-mogilany/parafia-sw-bartlomieja-apostola.html"
"Parafia św. Jana Chrzciciela","","","Rzeszotary, ul. Pod Dębiną 29, 32-040 Świątniki Gorne","",""," 12 270 44 44","ks. mgr Wiesław Nowak","7:00, 9:00, 11:00, 16:00 ","","","","http://www.diecezja.pl/parafie/lista-parafii/26-mogilany/parafia-sw-jana-chrzciciela.html"
"Parafia św. Michała Archanioła","","","Siepraw 1017, 32-447 Siepraw","www.sanktuarium-siepraw.katolicki.eu","kancelaria@sanktuarium-siepraw.katolicki.eu"," 12 274 60 97","ks. mgr Piotr Kluska","6:30, 8:00, 9:30, 9:30 , 11:00, 16:00 ","","","","http://www.diecezja.pl/parafie/lista-parafii/26-mogilany/parafia-sw-michala-archaniola.html"
"Parafia św. Stanisława BM","","","ul. ks. Stanisława Koniecznego 1a","www.parafia-swiatniki.pl",""," 12 270 41 04, kancelaria w. 23","ks. mgr Grzegorz Mrowiec","8:00, 10:30, 15:30 ","","","","http://www.diecezja.pl/parafie/lista-parafii/26-mogilany/parafia-sw-stanislawa-bm.html"
"Parafia MB Królowej Polski","","","ul. św. Jozefa 6, Włosań","www.parafia-wlosan.pl",""," 12 277 22 02","ks. mgr Eugeniusz Wątorski","8:00, 11:00 ","18:00  sobota","","","http://www.diecezja.pl/parafie/lista-parafii/26-mogilany/parafia-mb-krolowej-polski.html"
"Rektorat Najświętszego Serca Pana Jezusa","","","Glisne 51, 34‑730 Mszana Dolna","",""," 18 331 60 68","","8:30, 11:00 ","","","","http://www.diecezja.pl/parafie/lista-parafii/27-mszana-dolna/rektorat-najswietszego-serca-pana-jezusa.html"
"Parafia św. Marii Magdaleny","","","Kasina Wielka 534, 34‑741 Kasina Wielka","",""," 18 331 40 95","ks. mgr Wiesław Maciaszek","7:00, 9:00, 10:30, 14:00 , 15:30 ","19:00  sobota","","","http://www.diecezja.pl/parafie/lista-parafii/27-mszana-dolna/parafia-sw-marii-magdaleny.html"
"Parafia Nawiedzenia NMP","","","Kasinka Mała 430, 34‑734 Kasinka Mała","",""," 18 331 30 12","ks. Jozef Maciążka","7:00, 9:00, 10:00 , 11:00, 16:00 , 18:00 ","","","","http://www.diecezja.pl/parafie/lista-parafii/27-mszana-dolna/parafia-nawiedzenia-nmp.html"
"Parafia św. Stanisława BM","","","Konina 430, 34-735 Niedźwiedź","",""," 18 331 73 05","ks. mgr Jan Wrobel","8:00, 11:00, 17:00 ","","","","http://www.diecezja.pl/parafie/lista-parafii/27-mszana-dolna/parafia-sw-stanislawa-bm.html"
"Parafia św. Józefa Oblubieńca NMP","","","Lubomierz 275, 34‑736 Lubomierz","www.lubomierz.franciszkanie.pl","lubomierz@franciszkanie.pl"," 18 331 52 63","o. Zygmunt Mikołajczyk OFMConv","7:30, 9:00 , 9:30, 10:00 , 11:00, 18:00 ","18:00  sobota","","","http://www.diecezja.pl/parafie/lista-parafii/27-mszana-dolna/parafia-sw-jozefa-oblubienca-nmp.html"
"Parafia Miłosierdzia Bożego","","","pl. św. Siostry Faustyny 1,&nbsp;34‑730 Mszana Dolna","",""," 18 331 91 93","ks. dr","7:00, 9:00, 10:30, 17:00 ","18:00  sobota","","","http://www.diecezja.pl/parafie/lista-parafii/27-mszana-dolna/parafia-milosierdzia-bozego.html"
"Parafia św. Michała Archanioła","","","ul. Jana Pawła II 3, 34‑730 Mszana Dolna","","kustosz@onet.pl"," 18 331 00 87","ks. mgr Jerzy Raźny","6:30, 8:00, 9:30, 9:30 , 11:00, 15:00, 18:00 ","18:00  sobota","","","http://www.diecezja.pl/parafie/lista-parafii/27-mszana-dolna/parafia-sw-michala-archaniola.html"
"Parafia MB Nieustającej Pomocy","","","Mszana Gorna 468, 34‑733 Mszana Gorna","",""," 18 331 52 13","ks. Marian Bański CR","8:00, 11:00, 17:00 ","19:00  sobota","","","http://www.diecezja.pl/parafie/lista-parafii/27-mszana-dolna/parafia-mb-nieustajacej-pomocy.html"
"Parafia św. Sebastiana","","","Niedźwiedź 129, 34‑735 Niedźwiedź","",""," 18 331 70 26","ks. mgr Marek Wojcik","7:00, 9:00, 11:00, 18:00 ","","","","http://www.diecezja.pl/parafie/lista-parafii/27-mszana-dolna/parafia-sw-sebastiana.html"
"Parafia św. Jana Chrzciciela","","","Olszowka 50, 34‑730 Mszana Dolna","",""," 18 331 60 12","ks. Stanisław Kasprzak","8:00, 11:00, 15:00 ","","","","http://www.diecezja.pl/parafie/lista-parafii/27-mszana-dolna/nowy_element.html"
"Parafia MB Fatimskiej","","","Poręba Wielka 499, 34‑735 Niedźwiedź","",""," 18 331 72 10","ks. Zdzisław Bogdanik","8:00, 10:00, 17:00 ","18:00  sobota","","","http://www.diecezja.pl/parafie/lista-parafii/27-mszana-dolna/parafia-mb-fatimskiej.html"
"Parafia św. Józefa Rzemieślnika","","","Raba Niżna 203, 34‑730 Mszana Dolna","www.parafiarabanizna.pl/",""," 18 331 60 48","ks. Marian Krzystek","8:00, 11:00, 16:00 ","","","","http://www.diecezja.pl/parafie/lista-parafii/27-mszana-dolna/parafia-sw-jozefa-rzemieslnika.html"
"Parafia MB Królowej Polski","","","Łętowe 174, 34‑733 Mszana Gorna","","letowesalet@rubikon.net.pl"," 18 331 52 03","ks. mgr Zdzisław Sawka MS","7:00, 9:00, 10:45, 17:00 ","","","","http://www.diecezja.pl/parafie/lista-parafii/27-mszana-dolna/parafia-mb-krolowej-polski.html"
"Niepokalanego Serca NMP","","","Borzęta 119, 32‑400 Myślenice","",""," 12 272 31 01","ks. Stanisław Bielarz","8:00, 10:30, 15:00 ","18:00  sobota","","","http://www.diecezja.pl/parafie/lista-parafii/28-myslenice/niepokalanego-serca-nmp.html"
"Parafia MB Królowej Polski","","","Brzączowice 255, 32‑410 Dobczyce","",""," 12 271 16 27","ks. mgr Leszek Babicki","7:30, 10:30, 15:00 ","18:00  sobota","","","http://www.diecezja.pl/parafie/lista-parafii/28-myslenice/parafia-mb-krolowej-polski.html"
"Parafia Najświętszego Serca Pana Jezusa","","","Bysina 229, 32‑400 Myślenice","www.parafia-bysina.pl",""," 12 272 03 84","ks. Jan Borzęcki","8:00, 10:30, 16:00 ","","","","http://www.diecezja.pl/parafie/lista-parafii/28-myslenice/-parafia-najswietszego-serca-pana-jezusa.html"
"Parafia Podwyższenia Krzyża Świętego","","","Jawornik 1, 32-400 Myślenice","","parafiawjaworniku@onet.pl"," 12 272 01 95","ks. mgr Władysław Salawa","7:00, 9:00, 11:00, 15:30 ","","","","http://www.diecezja.pl/parafie/lista-parafii/28-myslenice/parafia-podwyzszenia-krzyza-swietego.html"
"Parafia Narodzenia NMP","","","ul. Krolowej Jadwigi 5, 32‑400 Myślenice","",""," 12 272 12 37","ks. Andrzej Burek","6:30, 7:30 , 8:00, 9:30, 10:00 , 11:00, 12:30, 14:00, 14:15 , 18:00 ","18:00  sobota","","","http://www.diecezja.pl/parafie/lista-parafii/28-myslenice/parafia-narodzenia-nmp.html"
"Parafia św. Brata Alberta","","","os. Tysiąclecia 34, 32‑400 Myślenice","","b_albert@kr.onet.pl","  12 272 31 63","ks. mgr Adam Pawicki","7:30, 9:00, 10:30, 12:00, 16:30 ","18:00  sobota","","","http://www.diecezja.pl/parafie/lista-parafii/28-myslenice/parafia-sw-brata-alberta.html"
"Parafia św. Franciszka z Asyżu","","","ul. Zdrojowa 1c, 32‑400 Myślenice","",""," 12 272 03 62","ks. mgr Jozef Orawczak","8:00, 9:30 , 11:00 ","","","","http://www.diecezja.pl/parafie/lista-parafii/28-myslenice/parafia-sw-franciszka-z-asyzu.html"
"Parafia św. Wojciecha BM","","","Osieczany 197, 32-400 Myślenice","www.parafiaosieczany.pl","parafia@parafiaosieczany.pl","  12 274 17 50","ks. Bogusław Seweryn","7:00, 8:30, 10:00 , 11:30, 18:00, 19:00 ","","","","http://www.diecezja.pl/parafie/lista-parafii/28-myslenice/parafia-sw-wojciecha-bm.html"
"Parafia św. Jana Chrzciciela","","","Polanka 270, 32‑400 Myślenice","",""," 12 274 30 99","ks. mgr Zbigniew Biskup","7:30, 10:30, 18:00 ","","","","http://www.diecezja.pl/parafie/lista-parafii/28-myslenice/parafia-sw-jana-chrzciciela.html"
"Parafia św. Klemensa","","","Trzemeśnia 324, 32‑425 Trzemeśnia","",""," 12 273 55 91","ks. dr Andrzej Caputa","7:00, 9:00, 10:30 , 12:00, 15:30 , 17:00 ","","","","http://www.diecezja.pl/parafie/lista-parafii/28-myslenice/parafia-sw-klemensa.html"
"Parafia Wszystkich Świętych","","","Zakliczyn k. Myślenic 24","www.parafiazakliczyn.pl",""," 12 373 02 70","ks. mgr Jozef Stopka","7:00, 9:00, 10:15 , 11:30, 13:00, 17:00 ","","","","http://www.diecezja.pl/parafie/lista-parafii/28-myslenice/parafia-wszystkich-swietych.html"
"Parafia Podwyższenia Krzyża Świętego","","","Zawada 114, 32‑445 Krzyszkowice","",""," 12 274 15 88","ks. Marek Oczkowski","7:30, 10:00, 15:00 ","","","","http://www.diecezja.pl/parafie/lista-parafii/28-myslenice/parafia-podwyzszenia-krzyza-swietego-.html"
"Rektorat MB Fatimskiej","","","Czorsztyn, ul. Jana Pawła II","","","","","7:00 , 9:30 ","17:00  sobota","","","http://www.diecezja.pl/parafie/lista-parafii/29-niedzica/rektorat-mb-fatimskiej-.html"
"Parafia św. Michała Archanioła","","","ul. Kościelna 42, 34‑434 Dębno","","parafia.rzymskokatolicka.debno@neostrada.pl"," 18 275 17 97","ks. mgr Jozef Milan","8:00, 11:00 ","18:00  sobota","","","http://www.diecezja.pl/parafie/lista-parafii/29-niedzica/parafia-sw-michala-archaniola.html"
"Parafia św. Jana Chrzciciela","","","ul. Długa 43, 34-433 Dursztyn","www.dursztyn.pl","zacheusz@gmail.com"," 18 265 92 80","o. mgr Zacheusz Rafał Baran OFM","8:00, 11:00, 17:00 ","","","","http://www.diecezja.pl/parafie/lista-parafii/29-niedzica/parafia-sw-jana-chrzciciela.html"
"Parafia św. Stanisława BM","","","ul. Kościelna 1, 34‑435 Frydman","",""," 18 285 18 25","ks. Ludwik Węgrzyn","7:30, 9:00 , 11:00 ","","","","http://www.diecezja.pl/parafie/lista-parafii/29-niedzica/parafia-sw-stanislawa-bm.html"
"Parafia Narodzenia NMP","","","Harklowa 84, 34‑434 Dębno","",""," 18 275 17 25","ks. mgr Eugeniusz Dziubek","8:00, 9:30 , 11:00 ","","","","http://www.diecezja.pl/parafie/lista-parafii/29-niedzica/parafia-narodzenia-nmp.html"
"Parafia Wszystkich Świętych","","","ul. św. Anny 145, Kacwin","",""," 18 262 71 54","ks. mgr Marian Błaszczyk","8:00, 9:15 [j. słowacki], 10:45 ","","","","http://www.diecezja.pl/parafie/lista-parafii/29-niedzica/parafia-wszystkich-swietych.html"
"Parafia MB Częstochowskiej","","","ul. Słoneczna 30, 34‑440 Kluszkowce","www.karmel.czorsztyn.pl","karklusz@interia.pl"," 18 265 03 05","o. mgr lic. Jacek Pawlikowski OCD","7:30 , 8:30 , 9:30, 11:00 , 11:30, 19:00 ","19:00  sobota","","","http://www.diecezja.pl/parafie/lista-parafii/29-niedzica/parafia-mb-czestochowskiej.html"
"Parafia św. Marcina","","","Krempachy, ul. Kamieniec 25","",""," 18 285 16 55","ks. mgr lic. Dariusz Ostrowski","7:30 [j. słowacki] , 9:00, 10:30 [j. słowacki] ","19:00  sobota","","","http://www.diecezja.pl/parafie/lista-parafii/29-niedzica/parafia-sw-marcina.html"
"Parafia św. Mikołaja","","","ul. Jana Pawła II 1, 34‑436 Maniowy","www.parafia.maniowy.net",""," 18 275 09 13","ks. mgr Tadeusz Dybeł","8:00, 9:30 , 11:00, 16:00 ","18:30  sobota","","","http://www.diecezja.pl/parafie/lista-parafii/29-niedzica/parafia-sw-mikolaja.html"
"Parafia św. Bartłomieja Apostoła","","","ul. 3 Maja 91, 34‑441 Niedzica","",""," 18 262 94 28","ks. mgr Jozef Bednarczyk","7:45 [j. słowacki], 9:00, 10:15 , 11:30, 18:00 ","18:30 , 20:00  sobota","","","http://www.diecezja.pl/parafie/lista-parafii/29-niedzica/parafia-sw-bartlomieja-apostola.html"
"Parafia św. Katarzyny Aleksandryjskiej","","","ul. Obłazowa 11, 34‑433 Nowa Biała","",""," 18 285 13 29","ks. mgr Tadeusz Korczak","9:00, 11:00 [j. słowacki], 15:00 ","19:00  sobota","","","http://www.diecezja.pl/parafie/lista-parafii/29-niedzica/parafia-sw-katarzyny-aleksandryjskiej.html"
"Parafia św. Stanisława BM","","","ul. ks. Kosibowicza 2","www.parafiasromowce.iaw.pl",""," 18 262 97 98","ks. mgr Mieczysław Szlaga","7:00 , 8:00 , 10:00 , 10:30 , 19:00 ","18:00  sobota","","","http://www.diecezja.pl/parafie/lista-parafii/29-niedzica/parafia-sw-stanislawa-bm-.html"
"Parafia św. Kwiryna","","","ul. Jana Pawła II 84","",""," 18 265 93 69","o. mgr Mariusz Skotnicki SchP","7:30, 9:30, 11:30, 18:00 ","","","","http://www.diecezja.pl/parafie/lista-parafii/29-niedzica/parafia-sw-kwiryna.html"
"Parafia Świętych Apostołów Piotra i Pawła","","","Łapsze Wyżne, ul. Kościelna 2","www.lapsze.saletyni.pl","lapsze@saletyni.pl"," 18 265 97 77","ks. mgr Czesław Hałgas MS","7:30, 8:30, 10:00 , 11:30 ","","","","http://www.diecezja.pl/parafie/lista-parafii/29-niedzica/parafia-swietych-apostolow-piotra-i-pawla.html"
"Parafia Przenajświętszej Trójcy","","","ul. Gorczańska 1, 34‑432 Łopuszna","www.lopuszna.diecezja.krakow.pl","trojca@poczta.fm"," 18 265 35 20","ks. mgr Kazimierz Foltyn","8:00, 11:00, 16:00 ","18:30  sobota","","","http://www.diecezja.pl/parafie/lista-parafii/29-niedzica/parafia-przenajswietszej-trojcy.html"
"Parafia św. Brata Alberta","","","34-720 Chabowka","parafia.chabowka.info/","pschabowka@gmail.com"," 18 267 69 34","ks. mgr Paweł Skowron","8:00, 10:30, 16:00 ","18:00  sobota","","","http://www.diecezja.pl/parafie/lista-parafii/34-rabka/parafia-sw-brata-alberta.html"
"Parafia MB Królowej Polski","","","Ponice 145a, 34-700 Rabka-Zdroj","","parafiaponice@o2.pl"," 18 268 51 73","ks. Mieczysław Pajdo SDS","8:30, 11:00, 17:30 ","","","","http://www.diecezja.pl/parafie/lista-parafii/34-rabka/parafia-mb-krolowej-polski.html"
"Parafia św. Stanisława BM","","","Raba Wyżna 36, 34‑721 Raba Wyżna","","rabawyzna@diecezja.krakow.pl","  18 267 11 40","ks. Antoni Zuziak","7:00, 8:30, 8:30 , 10:00, 11:30, 18:00 ","18:00  sobota","","","http://www.diecezja.pl/parafie/lista-parafii/34-rabka/parafia-sw-stanislawa-bm.html"
"Parafia św. Teresy od Dzieciątka Jezus","","","ul. Parkowa 9, 34-700 Rabka-Zdroj","",""," 18 267 99 19","ks. mgr lic. Dariusz Pacula","7:00 , 7:00, 9:00, 10:30, 12:00, 15:00 , 16:00 , 17:00 , 19:00 ","17:00 , 19:00  sobota","","","http://www.diecezja.pl/parafie/lista-parafii/34-rabka/parafia-sw-teresy-od-dzieciatka-jezus.html"
"Parafia MB Częstochowskiej","","","ul. Zaryte 148a, 34-700 Rabka-Zdroj","","parafiazaryte@gmail.com"," 18 268 41 41","ks. mgr Tadeusz Bogucki","8:00, 10:30, 18:00 ","","","","http://www.diecezja.pl/parafie/lista-parafii/34-rabka/parafia-mb-czestochowskiej.html"
"Parafia św. Marii Magdaleny","","","ul. Orkana 8, 34‑700 Rabka Zdroj","www.parafia.rabka.swmm.eu","","  18 267 67 20","ks. dr Paweł Duźniak","6:00, 8:00, 9:30, 10:00 , 11:00, 12:30, 16:00, 18:30 ","18:30  sobota","","","http://www.diecezja.pl/parafie/lista-parafii/34-rabka/parafia-sw-marii-magdaleny.html"
"Parafia NMP Matki Kościoła","","","Rdzawka 205, 34-700 Rabka","",""," 18 267 81 50","ks. mgr Piotr Wojtyła MIC","8:00 , 8:00 , 9:00 , 10:00, 10:00 , 17:00 ","","","","http://www.diecezja.pl/parafie/lista-parafii/34-rabka/parafia-nmp-matki-kosciola.html"
"Parafia Miłosierdzia Bożego","","","Rokiciny Podhalańskie 159a","","","  18 267 87 20","ks. Antoni Syc","8:00, 11:00, 16:30 ","","","","http://www.diecezja.pl/parafie/lista-parafii/34-rabka/parafia-milosierdzia-bozego.html"
"Parafia św. Antoniego","","","Sieniawa 304, 34-723 Sieniawa","www.sieniawa.diecezja.krakow.pl",""," 18 277 54 03","ks. mgr Bogusław Wrobel","8:00, 9:30 , 11:00, 16:00 ","18:00  sobota","","","http://www.diecezja.pl/parafie/lista-parafii/34-rabka/parafia-sw-antoniego.html"
"Parafia MB Wspomożenia Wiernych","","","Skawa 8, 34-713 Skawa","","skawa@sdb.krakow.pl"," 18 268 60 20,  18 268 91 20","ks. mgr Piotr Kadela SDB","7:30, 9:00, 10:30, 12:00 , 17:00 ","18:00  sobota","","","http://www.diecezja.pl/parafie/lista-parafii/34-rabka/parafia-mb-wspomozenia-wiernych.html"
"Parafia Niepokalanego Poczęcia NMP","","","Spytkowice k. Chabowki 21","",""," 18 268 80 09","ks. mgr Stanisław Wąsik","7:00, 8:00 , 9:00, 10:30, 12:00, 17:00 ","","","","http://www.diecezja.pl/parafie/lista-parafii/34-rabka/parafia-niepokalanego-poczecia-nmp.html"
"Parafia Zwiastowania Pańskiego","","","Borek Szlachecki 301","",""," 12 276 41 70","ks. Stanisław Bajer","8:00, 10:30, 17:00 ","","","","http://www.diecezja.pl/parafie/lista-parafii/35-skawina/parafia-zwiastowania-panskiego.html"
"Parafia Najświętszego Serca Pana Jezusa","","","ul. Kościelna 11, 34-114 Brzeźnica","www.parafiabrzeznica.com/","nspjbrzeznica@gmail.com"," 33 879 28 20","ks. mgr Adam Lenart","7:30, 9:00, 11:00 ","18:00  sobota","","","http://www.diecezja.pl/parafie/lista-parafii/35-skawina/parafia-najswietszego-serca-pana-jezusa.html"
"Parafia Wniebowstąpienia Pańskiego","","","Facimiech 38, 32-051 Wielkie Drogi","",""," 600 793 808","ks. mgr Jozef Szydłowski","7:30 , 9:15 , 11:00 ","18:00  sobota","","","http://www.diecezja.pl/parafie/lista-parafii/35-skawina/parafia-wniebowstapienia-panskiego.html"
"Parafia NMP Matki Kościoła","","","Jaśkowice 13a, 32-051 Wielkie Drogi","www.parafia.jaskowice.pl","trap13a@gmail.com"," 12 446 61 75","ks. mgr Teofil Rapacz E.c.","7:30, 10:30 ","","","","http://www.diecezja.pl/parafie/lista-parafii/35-skawina/parafia-nmp-matki-kosciola.html"
"Parafia Matki Bożej Nieustającej Pomocy","","","Kopanka 211, 32-050 Skawina","www.kopanka.pl","parkopanka@wp.pl"," 12 276 80 34","ks. mgr Grzegorz Masny","8:00, 10:00, 18:00 ","","","","http://www.diecezja.pl/parafie/lista-parafii/35-skawina/parafia-matki-bozej-nieustajacej-pomocy.html"
"Parafia Podwyższenia Krzyża Świętego","","","ul. M. Wrony 104, 30-399 Krakow","www.krakow-sidzina.pl/",""," 12 262 14 23","ks. Stanisław Raczek","8:00, 10:00, 11:30, 17:00 ","18:00  sobota","","","http://www.diecezja.pl/parafie/lista-parafii/35-skawina/parafia-podwyzszenia-krzyza-swietego.html"
"Parafia Narodzenia NMP","","","Krzęcin 47, 32-051 Wielkie Drogi","","krzecin@wp.pl"," 12 27 06 004 (917)","ks. Zdzisław Budek","7:00, 9:00, 11:00, 16:20 ","","","","http://www.diecezja.pl/parafie/lista-parafii/35-skawina/parafia-narodzenia-nmp.html"
"Parafia Przemienienia Pańskiego","","","Paszkowka 68, 34-113 Paszkowka","",""," 33 879 30 67","ks. mgr Marek Holota","6:45, 8:15 , 9:30, 11:15 ","18:00  sobota","","","http://www.diecezja.pl/parafie/lista-parafii/35-skawina/parafia-przemienienia-panskiego.html"
"Parafia św. Wawrzyńca","","","ul. Jana Pawła II 18","",""," 12 275 11 14","ks. ","7:30, 8:45, 10:00, 11:00 , 11:20 , 17:00 ","17:00  sobota","","","http://www.diecezja.pl/parafie/lista-parafii/35-skawina/parafia-sw-wawrzynca.html"
"Parafia MB Królowej Polski","","","Rzozow 64, 32‑052 Radziszow","parafiarzozow.pl/","parafiarzozow@gmail.com","  12 275 70 12","ks. mgr Robert Morawski","8:00, 11:00, 17:00 ","18:00  sobota","","","http://www.diecezja.pl/parafie/lista-parafii/35-skawina/parafia-mb-krolowej-polski.html"
"Parafia Świętych Apostołów Szymona i Judy Tadeusza","","","ul. Kościelna 3, 32-050 Skawina","www.szymonijuda.pl","szymonijuda@gmail.com"," 12 276 32 30, kancelaria w. 10","ks. mgr lic. Edward Ćmiel","6:30, 8:00, 9:30, 11:00, 12:30, 18:30 ","18:00  sobota","","","http://www.diecezja.pl/parafie/lista-parafii/35-skawina/-parafia-swietych-apostolow-szymona-i-judy-tadeusza.html"
"Parafia Miłosierdzia Bożego","","","ul. Skłodowskiej-Curie 12","www.milosierdzie.skawina.pl","parafia@milosierdzie.skawina.pl"," 12 276 24 05","ks. Włodzimierz Łukowicz","7:00, 8:30, 10:00, 11:30, 13:00 , 18:00 ","18:00  sobota","","","http://www.diecezja.pl/parafie/lista-parafii/35-skawina/parafia-milosierdzia-bozego.html"
"Parafia Wniebowzięcia NMP","","","Wola Radziszowska 1","",""," 12 275 42 81","ks. mgr Antoni Sporna","8:00, 11:00, 16:00 ","19:00  sobota","","","http://www.diecezja.pl/parafie/lista-parafii/35-skawina/parafia-wniebowziecia-nmp.html"
"Parafia Niepokalanego Serca NMP","","","Hucisko 83, 34‑233 Hucisko","",""," 33 874 89 10","ks. Zbigniew Oczkowski","7:00, 9:00 , 11:00, 17:00 ","17:00  sobota","","","http://www.diecezja.pl/parafie/lista-parafii/36-sucha-beskidzka/parafia-niepokalanego-serca-nmp.html"
"Parafia MB Nieustającej Pomocy","","","Krzeszow 212, 34-206 Krzeszow","www.parafiakrzeszow.pl","parafiakrzeszow@onet.pl"," 33 874 81 74","ks. mgr Antoni Kania","7:30, 9:00, 10:30, 14:30 ","17:00  sobota","","","http://www.diecezja.pl/parafie/lista-parafii/36-sucha-beskidzka/parafia-mb-nieustajacej-pomocy.html"
"Parafia św. Józefa Robotnika","","","Kurow 184, 34‑233 Hucisko","",""," 33 877 46 48","ks. mgr Jozef Zadora","7:30, 9:30, 11:00 ","","","","http://www.diecezja.pl/parafie/lista-parafii/36-sucha-beskidzka/parafia-sw-jozefa-robotnika.html"
"Parafia Świętych Apostołów Piotra i Pawła","","","Lachowice 178, 34-232 Lachowice","www.parafia-lachowice.pl","parafia.lachowice@gmail.com"," 33 874 80 44","ks. mgr ","7:00, 9:00 , 10:15, 11:45, 17:00 ","18:00  sobota","","","http://www.diecezja.pl/parafie/lista-parafii/36-sucha-beskidzka/parafia-swietych-apostolow-piotra-i-pawla.html"
"Parafia Matki Bożej Ostrobramskiej","","","Las, 34‑323 Ślemień","","","","ks. mgr Adam Banasik","8:00, 10:00 ","17:00  sobota","","","http://www.diecezja.pl/parafie/lista-parafii/36-sucha-beskidzka/parafia-matki-bozej-ostrobramskiej.html"
"Parafia Narodzenia św. Jana Chrzciciela","","","ul. Krakowska 113, 34-323 Ślemień","",""," 33 865 40 69","ks. mgr Tadeusz Augustynek","7:00, 9:00, 10:00 , 11:00, 12:00 , 16:00 ","18:00  sobota","","","http://www.diecezja.pl/parafie/lista-parafii/36-sucha-beskidzka/parafia-narodzenia-sw-jana-chrzciciela.html"
"Parafia św. Stanisława BM","","","Stryszawa 264a, 34-205 Stryszawa","www.parafiastryszawa.pl","kdudziak12@gmail.com"," 33 874 71 24","ks. mgr Krzysztof Dudziak","7:30, 9:30, 11:00, 16:00 ","","","","http://www.diecezja.pl/parafie/lista-parafii/36-sucha-beskidzka/parafia-sw-stanislawa-bm.html"
"Parafia św. Anny","","","Stryszawa 394, 34-205 Stryszawa","","stryszawa@ceti.com.pl"," 33 874 70 11","ks. mgr Stanisław Maślanka j.","7:30, 9:15, 11:00, 15:30 ","18:00  sobota","","","http://www.diecezja.pl/parafie/lista-parafii/36-sucha-beskidzka/parafia-sw-anny.html"
"Parafia Nawiedzenia NMP","","","ul. Kościelna 3, 34-200 Sucha Beskidzka","www.parafiasucha.pl",""," w. 33","ks. mgr Andrzej Klimara","6:30, 8:00, 9:30, 9:30 , 11:00, 12:30, 15:00, 18:00 ","18:00  sobota","","","http://www.diecezja.pl/parafie/lista-parafii/36-sucha-beskidzka/parafia-nawiedzenia-nmp.html"
"Parafia św. Jana Kantego","","","Tarnawa Dolna 269, 34‑210 Zembrzyce","","parafia_tarnawa@wp.pl"," 33 874 62 06","ks. mgr Zbigniew Piwowar E.c.","7:30, 9:30, 11:30 ","18:00  sobota","","","http://www.diecezja.pl/parafie/lista-parafii/36-sucha-beskidzka/parafia-sw-jana-kantego.html"
"Parafia św. Jana Chrzciciela","","","ul. Kościelna 124, 34‑210 Zembrzyce","","","  33 874 60 27","ks. mgr Jan Kapusta","7:00, 9:00, 10:15 , 11:30, 18:00 ","18:00  sobota","","","http://www.diecezja.pl/parafie/lista-parafii/36-sucha-beskidzka/parafia-sw-jana-chrzciciela.html"
"Parafia MB Częstochowskiej","","","Bęczarka 317, 32-444 Głogoczow","","","","ks. mgr Stanisław Rams","7:30, 10:30, 17:00 ","17:00  sobota","","","http://www.diecezja.pl/parafie/lista-parafii/37-sulkowice/parafia-mb-czestochowskiej.html"
"Parafia Przenajświętszej Trójcy","","","Bieńkowka 258, 34‑212 Bieńkowka","www.parafia.bienkowka.com",""," 33 874 01 53","ks. mgr Roland Hopciaś","7:30, 10:30, 15:00 ","","","","http://www.diecezja.pl/parafie/lista-parafii/37-sulkowice/parafia-przenajswietszej-trojcy.html"
"Parafia MB Różańcowej","","","Biertowice 243, 32‑440 Sułkowice","",""," 12 273 28 39","ks. mgr Jacek Budzoń","8:00, 10:00, 16:00 ","","","","http://www.diecezja.pl/parafie/lista-parafii/37-sulkowice/parafia-mb-rozancowej.html"
"Parafia MB Pocieszenia","","","Budzow 9, 34-211 Budzow","www.parafiabudzow.pl",""," 33 874 00 11","ks. mgr Antoni Pitek","7:00, 9:00, 11:00, 15:30 ","","","","http://www.diecezja.pl/parafie/lista-parafii/37-sulkowice/parafia-mb-pocieszenia.html"
"Parafia Najświętszego Imienia Maryi","","","Harbutowice 181, 32‑440 Sułkowice","",""," 12 273 28 05","ks. mgr lic. Zbigniew Nowak","8:00, 11:00, 15:30 ","18:00  sobota","","","http://www.diecezja.pl/parafie/lista-parafii/37-sulkowice/parafia-najswietszego-imienia-maryi.html"
"Parafia św. Małgorzaty Dz. M.","","","Izdebnik 218, 34‑144 Izdebnik","","izdebnik@diecezja.pl","  33 876 32 25","ks. mgr Andrzej Gawenda","8:00, 11:00, 16:00 ","","","","http://www.diecezja.pl/parafie/lista-parafii/37-sulkowice/parafia-sw-malgorzaty-dz-m-.html"
"Parafia Najświętszego Serca Pana Jezusa","","","Jachowka 212, 34‑211 Budzow","",""," 33 874 00 18","ks. mgr Stanisław Pezda","8:00, 10:30, 15:00 ","","","","http://www.diecezja.pl/parafie/lista-parafii/37-sulkowice/parafia-najswietszego-serca-pana-jezusa.html"
"Parafia św. Anny","","","Jasienica 286, 32‑400 Myślenice","",""," 12 273 17 55","ks. ","8:00, 10:30, 17:00 ","","","","http://www.diecezja.pl/parafie/lista-parafii/37-sulkowice/parafia-sw-anny.html"
"Parafia Trójcy Przenajświętszej","","","Krzywaczka 107, 32‑442 Krzywaczka","",""," 12 273 12 45","ks. Zbigniew Drobny","7:30, 11:00, 16:00 ","18:00  sobota","","","http://www.diecezja.pl/parafie/lista-parafii/37-sulkowice/parafia-trojcy-przenajswietszej.html"
"Parafia MB Wspomożenia Wiernych","","","Palcza 170, 34‑211 Budzow","",""," 33 874 00 06","ks. mgr Jan Gibała","7:30, 10:30, 16:00 ","","","","http://www.diecezja.pl/parafie/lista-parafii/37-sulkowice/parafia-mb-wspomozenia-wiernych.html"
"Parafia św. Maksymiliana M. Kolbego","","","Rudnik, ul. Centralna 159","",""," 12 273 21 20","ks. mgr Dariusz Zoń","7:00, 9:00, 11:00, 16:00 ","","","","http://www.diecezja.pl/parafie/lista-parafii/37-sulkowice/parafia-sw-maksymiliana-m-kolbego.html"
"Parafia Najświętszego Serca Pana Jezusa","","","ul. Tysiąclecia 1a, 32-440 Sułkowice","www.sulkowice.katolicki.eu","parafia@sulkowice.katolicki.eu"," 12 273 25 46","ks. mgr Edward Antolak","7:00, 8:30, 10:00, 11:30, 18:00 ","","","","http://www.diecezja.pl/parafie/lista-parafii/37-sulkowice/parafia-najswietszego-serca-pana-jezusa-.html"
"Parafia MB Szkaplerznej","","","ul. Łokietka 13a, 32‑545 Karniowice","",""," 32 613 84 56","ks. mgr Krzysztof Matuszyk","8:00, 10:30, 16:00 ","17:00  sobota","","","http://www.diecezja.pl/parafie/lista-parafii/38-trzebinia/parafia-mb-szkaplerznej.html"
"Parafia Chrystusa Króla","","","Lgota, ul. Kościelna 14","",""," 32 613 71 99","ks. mgr Kazimierz Iciek","8:00, 10:30, 16:00 ","","","","http://www.diecezja.pl/parafie/lista-parafii/38-trzebinia/parafia-chrystusa-krola.html"
"Parafia NMP Królowej Polski","","","ul. Wąska 5, 32-543 Myślachowice","","","","ks. mgr Artur Chrostek","8:00, 10:00, 15:00 ","18:00  sobota","","","http://www.diecezja.pl/parafie/lista-parafii/38-trzebinia/parafia-nmp-krolowej-polski.html"
"Parafia św. Józefa Robotnika","","","ul. św. Jozefa Robotnika 5","",""," 32 612 20 15","ks. Stanisław Olejak","7:30, 9:00, 11:00, 16:00 ","18:00  sobota","","","http://www.diecezja.pl/parafie/lista-parafii/38-trzebinia/parafia-sw-jozefa-robotnika.html"
"Parafia Podwyższenia Krzyża Świętego","","","Psary, ul. ks. M. Rapacza 1","",""," 32 613 82 53","ks. mgr Janusz Rączka","8:00, 11:00, 16:00 ","17:00  sobota","","","http://www.diecezja.pl/parafie/lista-parafii/38-trzebinia/parafia-podwyzszenia-krzyza-swietego.html"
"Parafia Narodzenia NMP","","","Płoki, ul. Głowna 2, 32-543 Myślachowice","www.sanktuariumploki.pl","kontakt@sanktuariumploki.pl"," 32 613 71 63","ks. mgr Piotr Miszczyk","7:30, 9:15 , 11:00, 18:00 ","18:00  sobota","","","http://www.diecezja.pl/parafie/lista-parafii/38-trzebinia/parafia-narodzenia-nmp.html"
"Parafia Najświętszego Serca Pana Jezusa","","","Bazylika Mniejsza","www.trzebinia.sds.pl","parafia.nspj.trzebinia@o2.pl","kapelański do szpitala 793 333 831","i kustosz sanktuarium","7:00, 8:30, 10:00, 11:30, 18:00 ","18:00  sobota","","","http://www.diecezja.pl/parafie/lista-parafii/38-trzebinia/parafia-najswietszego-serca-pana-jezusa.html"
"Parafia Świętych Apostołów Piotra i Pawła","","","ul. ks. Mariana Luzara 1, 32-540 Trzebinia","www.parafia.trzebinia.pl","poczta@parafia.trzebinia.pl"," w. 22 ","ks. mgr Stanisław Bercal","6:30, 8:00, 9:30, 11:00, 12:15, 18:00 ","18:00  sobota","","","http://www.diecezja.pl/parafie/lista-parafii/38-trzebinia/parafia-swietych-apostolow-piotra-i-pawla.html"
"Parafia Niepokalanego Serca NMP","","","ul. Gornicza 8, 32-541 Trzebinia","www.trzebinia-siersza.diecezja.krakow.pl","siersza@diecezja.krakow.pl"," 32 612 21 96","ks. mgr Stanisław Krzysik","7:00, 8:30, 10:00, 11:30, 17:00 ","17:00  sobota","","","http://www.diecezja.pl/parafie/lista-parafii/38-trzebinia/parafia-niepokalanego-serca-nmp.html"
"Parafia św. Barbary","","","ul. Tysiąclecia 49, 32-540 Trzebinia","www.parafia-krystynow.trzebinia.pl",""," 32 612 13 82","ks. mgr Bogdan Dudek","7:00, 9:00, 10:30, 12:00 , 16:00 ","18:00  sobota","","","http://www.diecezja.pl/parafie/lista-parafii/38-trzebinia/parafia-sw-barbary.html"
"Parafia Narodzenia św. Jana Chrzciciela","","","ul. Kościelna 2, 34-123 Chocznia","www.chocznia.pl",""," 33 873 03 70","ks. mgr Zbigniew Bizoń","7:00, 8:15 , 8:15 , 10:00, 11:30, 11:30 , 17:00 ","18:00  sobota","","","http://www.diecezja.pl/parafie/lista-parafii/39-wadowice-polnoc/parafia-narodzenia-sw-jana-chrzciciela.html"
"Parafia Świętych Archaniołów Michała, Gabriela i Rafała","","","Frydrychowice 88, 34-108 Frydrychowice","","frydrychowice@diecezja.krakow.pl","&nbsp; 33 879 57 77","ks. Jozef Gwiazdoń","7:30, 8:50 , 10:00 , 11:00, 16:00 ","18:00  sobota","","","http://www.diecezja.pl/parafie/lista-parafii/39-wadowice-polnoc/parafia-swietych-archaniolow-michala-gabriela-i-rafala.html"
"Parafia św. Marcina","","","Marcyporęba 88, 34-114 Brzeźnica","",""," 33 879 21 16","ks. Jan Giądła","7:30, 9:00, 11:00 ","","","","http://www.diecezja.pl/parafie/lista-parafii/39-wadowice-polnoc/parafia-sw-marcina.html"
"Parafia Przemienienia Pańskiego","","","Radocza, ul. Jagiellońska 2","",""," 33 873 96 93","ks. Janusz Sołtys","7:30, 10:00, 18:00 ","18:00  sobota","","","http://www.diecezja.pl/parafie/lista-parafii/39-wadowice-polnoc/parafia-przemienienia-panskiego.html"
"Parafia Świętych Joachima i Anny","","","Tomice, ul. Floriańska 50","",""," 33 873 71 88","ks. Edward Daleki","8:00, 9:30, 11:00 ","18:00  sobota","","","http://www.diecezja.pl/parafie/lista-parafii/39-wadowice-polnoc/parafia-swietych-joachima-i-anny.html"
"Parafia Nawiedzenia NMP","","","Tłuczań 158, 34-114 Brzeźnica","","","  33 879 01 27","ks. mgr Stanisław Pitek","7:30, 9:30 , 11:00 ","","","","http://www.diecezja.pl/parafie/lista-parafii/39-wadowice-polnoc/parafia-nawiedzenia-nmp.html"
"Parafia Ofiarowania NMP","","","pl. Jana Pawła II 1,&nbsp;34-100 Wadowice","www.wadowicejp2.pl","kancelaria@wadowicejp2.pl"," 33 873 20 96","ks. mgr Stanisław Jaśkowiec","6:00, 7:30, 8:15 , 9:00 , 9:00 , 10:30, 10:30 , 12:00 , 13:30, 18:00 ","18:00  sobota","","","http://www.diecezja.pl/parafie/lista-parafii/39-wadowice-polnoc/parafia-ofiarowania-nmp.html"
"Parafia św. Mikołaja","","","ul. Jana Pawła II 202, 34-103 Witanowice","",""," 33 879 49 23","ks. mgr Jozef Wrobel","7:00, 9:00, 11:00, 16:00 ","18:00  sobota","","","http://www.diecezja.pl/parafie/lista-parafii/39-wadowice-polnoc/parafia-sw-mikolaja.html"
"Parafia Wniebowzięcia NMP","","","Woźniki 67, 34-103 Witanowice","",""," 33 879 45 24","ks. mgr Tomasz Kalisz","7:30, 9:30 , 9:30 , 11:00 ","18:00  sobota","","","http://www.diecezja.pl/parafie/lista-parafii/39-wadowice-polnoc/parafia-wniebowziecia-nmp.html"
"Parafia św. Marii Magdaleny","","","Wysoka 190, 34-105 Wysoka","",""," 33 873 75 26","ks. mgr lic. Adam Stawarz","7:30, 9:30, 11:30 ","","","","http://www.diecezja.pl/parafie/lista-parafii/39-wadowice-polnoc/parafia-sw-marii-magdaleny.html"
"Parafia św. Erazma BM","","","Barwałd Dolny 50","www.barwald.swerazm.strefa.pl","barwald.swerazm@interia.pl"," 33 872 20 28","ks. mgr Wiesław Widuch","7:30, 9:30, 11:00 ","","","","http://www.diecezja.pl/parafie/lista-parafii/40-wadowice-poludnie/parafia-sw-erazma-bm.html"
"Parafia św. Izydora","","","Jaroszowice 90","",""," 33 823 25 52","ks. Jozef Gwozdowski SAC","7:00, 9:00, 11:00 ","","","","http://www.diecezja.pl/parafie/lista-parafii/40-wadowice-poludnie/parafia-sw-izydora.html"
"Parafia św. Wawrzyńca","","","Klecza Dolna 175","",""," 33 872 21 24","ks. Andrzej Kołodziej","7:00, 9:00, 10:15 , 11:30, 16:00 ","","","","http://www.diecezja.pl/parafie/lista-parafii/40-wadowice-poludnie/parafia-sw-wawrzynca.html"
"Parafia św. Wojciecha BM","","","Mucharz 111, 34-106 Mucharz","www.parafiamucharz.pl","parafiamucharz@onet.pl"," 33 876 14 67","ks. Krzysztof Strzelichowski","7:00, 8:30 , 9:30, 11:00, 17:00 ","18:00  sobota","","","http://www.diecezja.pl/parafie/lista-parafii/40-wadowice-poludnie/parafia-sw-wojciecha-bm.html"
"Parafia św. Aleksego","","","Ponikiew 115, 34‑100 Wadowice","",""," 33 872 16 27","ks. mgr Henryk Pyka","8:00, 10:30, 16:00 ","","","","http://www.diecezja.pl/parafie/lista-parafii/40-wadowice-poludnie/parafia-sw-aleksego.html"
"Parafia MB Częstochowskiej","","","Śleszowice 214, 34-210 Zembrzyce","www.sleszowice.republika.pl","sleszowice@neostrada.pl"," 33 874 63 75","ks. mgr Jacek Kaznowski","8:00, 10:15 ","","","","http://www.diecezja.pl/parafie/lista-parafii/40-wadowice-poludnie/parafia-mb-czestochowskiej.html"
"Parafia św. Jana Kantego","","","Stryszow 288, 34-146 Stryszow","","parafia.stryszow@neostrada.pl"," 33 879 74 77","ks. mgr Zbigniew Kaleciak","8:00, 9:45 , 9:45 , 11:30, 15:30 ","18:00  sobota","","","http://www.diecezja.pl/parafie/lista-parafii/40-wadowice-poludnie/parafia-sw-jana-kantego.html"
"Parafia Matki Bożej Pocieszenia","","","Koziniec 80, 34‑106 Mucharz","","","","ks. Janusz Żmuda","7:30 , 9:30, 11:00 ","18:00  sobota","","","http://www.diecezja.pl/parafie/lista-parafii/40-wadowice-poludnie/parafia-matki-bozej-pocieszenia.html"
"Parafia św. Piotra Apostoła","","","al. MB Fatimskiej 90","www.swpiotr.wadowice.pl",""," 33 823 28 88","ks. mgr Tadeusz Kasperek","6:45, 8:00 , 8:30, 9:30 , 10:00, 11:30, 13:00, 16:00 , 18:00 ","18:00  sobota","","","http://www.diecezja.pl/parafie/lista-parafii/40-wadowice-poludnie/parafia-sw-piotra-apostola.html"
"Parafia św. Józefa Robotnika","","","Łękawica 163","",""," 33 879 70 51","ks. Jozef Bała","7:00, 9:00, 11:00 ","18:00  sobota","","","http://www.diecezja.pl/parafie/lista-parafii/40-wadowice-poludnie/parafia-sw-jozefa-robotnika.html"
"Parafia Wniebowzięcia NMP","","","Biorkow Wielki 48, 32‑104 Koniusza","",""," 12 386 92 39","ks. Wawrzyniec Gut","7:30, 9:00 , 10:00 , 11:30, 16:00 ","18:00  sobota","","","http://www.diecezja.pl/parafie/lista-parafii/41-wawrzenczyce/parafia-wniebowziecia-nmp.html"
"Parafia św. Mikołaja","","","Czulice 31, 32‑010 Kocmyrzow","",""," 12 387 19 66","ks. Andrzej Wiktor","7:30, 9:00, 11:15, 16:00 ","","","","http://www.diecezja.pl/parafie/lista-parafii/41-wawrzenczyce/parafia-sw-mikolaja.html"
"Parafia Wszystkich Świętych","","","ul. Dybowskiego 2, 31‑988 Krakow","",""," 12 645 05 85","ks. Stanisław Palichleb E.c","7:00, 9:00 , 10:30 , 12:00, 18:00 , 19:00 ","","","","http://www.diecezja.pl/parafie/lista-parafii/41-wawrzenczyce/parafia-wszystkich-swietych.html"
"Parafia Narodzenia NMP","","","Igołomia 124, 32‑126 Igołomia","",""," 12 287 30 50","ks. Władysław Dańkowski","8:00, 9:30, 10:30 , 11:30, 16:00 ","18:00  sobota","","","http://www.diecezja.pl/parafie/lista-parafii/41-wawrzenczyce/parafia-narodzenia-nmp.html"
"Parafia św. Grzegorza","","","Jeziorko 40, 31‑988 Krakow","",""," 12 645 09 17","ks. mgr Andrzej Kott","7:00, 8:00 , 9:00, 9:30 , 11:00, 11:00 , 16:00 ","","","","http://www.diecezja.pl/parafie/lista-parafii/41-wawrzenczyce/parafia-sw-grzegorza.html"
"Parafia Podwyższenia Krzyża Świętego","","","Wysiołek Luborzycki 81, 32‑010 Kocmyrzow","","parafialuborzyca@wp.pl"," 12 387 10 22","ks. mgr Tadeusz Majcher","7:00, 8:00 , 8:00 , 9:00, 10:00 , 10:00 , 11:00, 16:00 ","18:00  sobota","","","http://www.diecezja.pl/parafie/lista-parafii/41-wawrzenczyce/parafia-podwyzszenia-krzyza-swietego.html"
"Parafia św. Wojciecha BM","","","Pobiednik Mały 22, 32‑126 Igołomia","",""," 12 287 31 46","ks. Jacek Hałat","8:00, 11:00, 15:00 ","","","","http://www.diecezja.pl/parafie/lista-parafii/41-wawrzenczyce/parafia-sw-wojciecha-bm.html"
"Parafia św. Marii Magdaleny","","","Wawrzeńczyce 388, 32‑125 Wawrzeńczyce","","","  12 287 40 31","ks. mgr Andrzej Gawroński, E.c.","7:30, 9:00, 11:00, 15:00 ","19:00  sobota","","","http://www.diecezja.pl/parafie/lista-parafii/41-wawrzenczyce/parafia-sw-marii-magdaleny.html"
"Parafia Świętych Apostołów Piotra i Pawła","","","Bodzanow 1, 32-020 Wieliczka","www.parafia-bodzanow.pl/",""," 12 250 72 57","ks. Antoni Wroblewski","7:00, 9:00, 10:30 , 10:30 , 12:00 ","18:00  sobota","","","http://www.diecezja.pl/parafie/lista-parafii/42-wieliczka-wschod/parafia-swietych-apostolow-piotra-i-pawla.html"
"Parafia MB Pocieszenia","","","Czarnochowice 247, 32‑020 Wieliczka","","par.czarnochowice@gmail.com"," 12 281 00 89","ks. mgr Władysław Rusnak","7:30, 10:30, 15:30 ","18:00  sobota","","","http://www.diecezja.pl/parafie/lista-parafii/42-wieliczka-wschod/parafia-mb-pocieszenia.html"
"Rektorat Niepokalanego Poczęcia NMP","","","Dobranowice 109","",""," 12 289 95 00 (01)","","7:30, 10:30, 16:00 ","","","","http://www.diecezja.pl/parafie/lista-parafii/42-wieliczka-wschod/rektorat-niepokalanego-poczecia-nmp.html"
"Parafia św. Michała Archanioła","","","Pawlikowice 1, 32‑020 Wieliczka","","pawlikowice@onet.pl"," 12 278 26 88","ks. mgr Roman Tupaj CSMA","7:00, 8:00 , 9:00, 11:00, 11:00 , 14:00, 17:00 ","19:00  sobota","","","http://www.diecezja.pl/parafie/lista-parafii/42-wieliczka-wschod/parafia-sw-michala-archaniola.html"
"Parafia NMP Królowej Polski","","","Raciborsko 1, 32‑020 Wieliczka","",""," 12 278 17 15","ks. dr Kazimierz Kubik","7:30, 10:30, 16:00 , 17:00 ","","","","http://www.diecezja.pl/parafie/lista-parafii/42-wieliczka-wschod/parafia-nmp-krolowej-polski.html"
"Parafia Niepokalanego Serca NMP","","","Kokotow 136","",""," 12 251 16 98","ks. Jozef Marek","7:00, 9:00, 11:00, 17:00 ","18:00  sobota","","","http://www.diecezja.pl/parafie/lista-parafii/42-wieliczka-wschod/parafia-niepokalanego-serca-nmp.html"
"Parafia Wniebowzięcia NMP","","","Sułkow 235, 32‑020 Wieliczka","",""," 12 288 13 94","ks. mgr Marian Gronowicz E.c.","8:00, 9:30 , 11:00, 16:00 ","18:00  sobota","","","http://www.diecezja.pl/parafie/lista-parafii/42-wieliczka-wschod/parafia-wniebowziecia-nmp.html"
"Parafia św. Franciszka z Asyżu","","","ul. Brata Alojzego Kosiby 31","",""," 12 278 18 66","o. Jacek Biegajło OFM","6:15, 7:30, 8:00 , 9:00, 10:30, 12:00, 13:30, 16:00 , 18:00, 20:00 ","18:00  sobota","","","http://www.diecezja.pl/parafie/lista-parafii/42-wieliczka-wschod/parafia-sw-franciszka-z-asyzu.html"
"Parafia św. Klemensa","","","ul. Zamkowa 7, 32-020 Wieliczka","","parafia@klemens.pl"," 12 278 37 66","ks. Zbigniew Gerle","6:00, 7:00, 8:30, 10:00, 11:30, 13:00, 14:15, 18:00 ","","","","http://www.diecezja.pl/parafie/lista-parafii/42-wieliczka-wschod/parafia-sw-klemensa.html"
"Rektorat św. Sebastiana","","","ul. św. Sebastiana 23","",""," 12 278 27 23","ks. mgr ","10:00, 16:00 ","","","","http://www.diecezja.pl/parafie/lista-parafii/42-wieliczka-wschod/rektorat-sw-sebastiana.html"
"Parafia Najświętszej Rodziny","","","ul. Krupowki 1a, 34‑500 Zakopane","www.swrodzina.net","parafianajswrodziny@o2.pl"," 18 201 24 41","ks. mgr Bogusław Filipiak","6:30, 8:00, 8:30 , 9:30, 10:00 , 11:00, 11:30 , 12:30, 15:00 , 17:00, 18:00 , 19:00 ","19:00  sobota","","","http://www.diecezja.pl/parafie/lista-parafii/44-zakopane/parafia-najswietszej-rodziny.html"
"Parafia Świętego Krzyża","","","ul. Chałubińskiego 30","",""," 18 206 39 71","ks. mgr Mariusz Dziuba","6:30, 8:00 , 8:00, 9:00, 9:00 , 10:30, 11:00 , 12:00, 17:00 , 19:00 ","17:00, 18:00  sobota","","","http://www.diecezja.pl/parafie/lista-parafii/44-zakopane/parafia-swietego-krzyza.html"
"Parafia NMP Matki Zbawiciela","","","Antałowka 40, 34‑500 Zakopane","",""," 18 201 11 71","ks. Janusz Bola SDS","7:30 , 8:00, 9:30 , 10:00, 11:00 , 11:30, 12:30 , 18:00 , 19:00, 20:00 ","18:00 , 18:00  sobota","","","http://www.diecezja.pl/parafie/lista-parafii/44-zakopane/parafia-nmp-matki-zbawiciela.html"
"Parafia św. Antoniego Padewskiego","","","Bulwary Słowackiego 33","","zakopane@ofm.pl"," 18 201 26 92","o. Tyberiusz Marek Mąka OFMBern","7:00, 8:30, 10:00, 11:30, 17:00, 19:00 ","","","","http://www.diecezja.pl/parafie/lista-parafii/44-zakopane/parafia-sw-antoniego-padewskiego.html"
"Parafia Miłosierdzia Bożego","","","ul. Chramcowki 19, 34‑500 Zakopane","",""," 18 206 88 14","ks. Piotr Pławecki","7:00 , 8:00, 9:00 , 9:30, 10:30 , 11:00, 12:30, 16:00, 18:00 ","18:00  sobota","","","http://www.diecezja.pl/parafie/lista-parafii/44-zakopane/parafia-milosierdzia-bozego.html"
"Parafia Miłosierdzia Bożego","","","Cyrhla 37, 34‑504 Zakopane","www.cyrhla.wiara.org.pl","parafia@cyrhla.wiara.org.pl"," 18 206 10 19","ks. mgr Mirosław Goliński MIC","8:30, 10:00 , 11:30, 17:00 , 19:00 ","","","","http://www.diecezja.pl/parafie/lista-parafii/44-zakopane/parafia-milosierdzia-bozego-.html"
"Parafia św. Jana Apostoła i Ewangelisty","","","Harenda 14a, 34‑500 Zakopane","",""," 18 206 84 25","ks. mgr Antoni Staszeczka E.c.","8:00, 11:00, 18:00 ","","","","http://www.diecezja.pl/parafie/lista-parafii/44-zakopane/parafia-sw-jana-apostola-i-ewangelisty.html"
"Parafia św. Kazimierza","","","ul. Nędzy-Kubińca 150","",""," 18 207 07 26","ks. Jacek Mola","8:00, 9:30, 11:00, 18:00 ","18:00  sobota","","","http://www.diecezja.pl/parafie/lista-parafii/44-zakopane/parafia-sw-kazimierza.html"
"Parafia Niepokalanego Serca NMP","","","Sanktuarium Matki Bożej Fatimskiej","www.smbf.pl",""," 18 206 64 20,  18 201 39 85","ks. dr Marian Mucha SAC","7:00, 8:00 , 8:30, 10:00, 11:30, 17:00, 19:00 ","19:00  sobota","","","http://www.diecezja.pl/parafie/lista-parafii/44-zakopane/parafia-niepokalanego-serca-nmp.html"
"Parafia NMP Niepokalanej Objawiającej Cudowny Medalik","","","Sanktuarium Matki Bożej","www.misjonarze-zakopane.pl/","parafia@misjonarze-zakopane.pl","  18 20 11 905 (830, 771)","ks. mgr Jerzy Grzyb CM","7:00, 9:00, 11:00, 16:00 , 18:30 ","18:30  sobota","","","http://www.diecezja.pl/parafie/lista-parafii/44-zakopane/parafia-nmp-niepokalanej-objawiajacej-cudowny-medalik.html"
"Parafia Najświętszego Serca Pana Jezusa","","","Bachowice, ul. ks. Gołby 18","",""," 33 879 11 86","ks. Franciszek Jeleśniański","8:00, 10:30, 17:30 ","18:00  sobota","","","http://www.diecezja.pl/parafie/lista-parafii/45-zator/parafia-najswietszego-serca-pana-jezusa.html"
"Parafia św. Andrzeja Apostoła","","","Graboszyce 15, 32‑640 Zator","",""," 33 841 25 93","ks. mgr Janusz Cebulski","8:00, 10:30 ","","","","http://www.diecezja.pl/parafie/lista-parafii/45-zator/parafia-sw-andrzeja-apostola.html"
"Parafia św. Jakuba Apostoła","","","Palczowice 26, 32‑640 Zator","",""," 33 841 21 76","ks. Antoni Kuśnierz","7:30, 9:00 , 10:30 ","","","","http://www.diecezja.pl/parafie/lista-parafii/45-zator/parafia-sw-jakuba-apostola.html"
"Parafia Nawiedzenia NMP","","","Piotrowice, ul. Kościelna 1","",""," 33 841&nbsp;45 69","ks. Jan Kordaczka","8:00, 9:30 , 11:00, 17:00 ","18:00  sobota","","","http://www.diecezja.pl/parafie/lista-parafii/45-zator/parafia-nawiedzenia-nmp.html"
"Parafia Narodzenia św. Jana Chrzciciela","","","ul. Szkolna 24, 32‑641 Przeciszow","",""," 33 84 14 777","ks. Marek Spolnik","7:00, 8:30, 9:00 , 10:00, 11:00 , 11:30, 17:00 ","","","","http://www.diecezja.pl/parafie/lista-parafii/45-zator/parafia-narodzenia-sw-jana-chrzciciela.html"
"Parafia MB Królowej Polski","","","ul. ks. Kani 1, 34‑115 Ryczow","www.parafiaryczow.pl/",""," 33 879 00 07","ks. Adam Ogiegło","7:00, 9:00, 11:00, 17:30 ","","","","http://www.diecezja.pl/parafie/lista-parafii/45-zator/parafia-mb-krolowej-polski.html"
"Parafia św. Katarzyny","","","Spytkowice k. Zatora","",""," 33 879 11 95","ks. mgr Jozef Piwowarski","7:30, 8:30 , 9:30, 11:00, 12:15 , 18:00 ","18:00  sobota","","","http://www.diecezja.pl/parafie/lista-parafii/45-zator/parafia-sw-katarzyny.html"
"Parafia Świętych Wojciecha i Jerzego","","","pl. Kościuszki 3, 32‑640 Zator","www.zator.diecezja.pl","zator@diecezja.pl"," 33 841 22 21","ks. mgr Jacek Wieczorek","7:00, 8:00 , 9:00, 10:30, 12:00, 18:00 ","","","","http://www.diecezja.pl/parafie/lista-parafii/45-zator/parafia-swietych-wojciecha-i-jerzego.html"
"Parafia MB Anielskiej","","","Łączany 79, 34‑115 Ryczow","",""," 33 879 00 34","ks. mgr Bogusław Szewczyk","8:00, 10:00, 17:00 ","","","","http://www.diecezja.pl/parafie/lista-parafii/45-zator/parafia-mb-anielskiej.html"
"Parafia archikatedralna św. Stanisława BM i św. Wacława","","","Wawel 3, 31-001 Krakow","www.katedra-wawelska.pl","parafia@katedra-wawelska.pl"," 12 429 33 27,  12 628 82 28","ks. mgr Zdzisław Sochacki","7:00 [j. łaciński], 8:00, 9:00 [j. łaciński], 10:00, 11:30, 16:30 , 17:30 ","","","","http://www.diecezja.pl/parafie/lista-parafii/krakow---wawel/parafia-archikatedralna-sw-stanislawa-bm-i-sw-waclawa.html"
"Sanktuarium Bożego Miłosierdzia","","","ul. Siostry Faustyny 3","www.milosierdzie.pl","sanktuarium@milosierdzie.pl"," 12 252 33 00","","8:30 , 9:00, 10:30, 12:00, 13:30, 15:20, 18:00, 19:00 ","","","","http://www.diecezja.pl/parafie/lista-parafii/krakow---sanktuaria/sanktuarium-bozego-milosierdzia.html"
"Sanktuarium Świętego Jana Pawła II","","","ul. Totus Tuus 32","www.janpawel2.pl","centrum@janpawel2.pl"," 12 429 64 71","","8:00 , 9:30 , 11:00 , 12:30 , 17:00 ","","","","http://www.diecezja.pl/parafie/lista-parafii/krakow---sanktuaria/sanktuarium-swietego-jana-pawla-ii.html"
"Rektorat MB Różańcowej","","","Byszyce 110, 32‑020 Wieliczka","",""," 12 451 15 08","","8:00, 10:00 ","","","","http://www.diecezja.pl/parafie/lista-parafii/42-wieliczka-wschod/rektorat-mb-rozancowej.html"
"Parafia Matki Bożej Fatimskiej","","","Golkowice 457, 30‑698 Krakow","",""," 12 654 99 71, tel  12 654 99 72","o. Stanisław Łomnicki SVD","8:30, 10:00, 11:30, 18:00 ","","","","http://www.diecezja.pl/parafie/lista-parafii/9-krakow---borek-falecki/parafia-matki-bozej-fatimskiej.html"
"Parafia MB Częstochowskiej","","","Gorzkow 64, 32‑020 Wieliczka","www.gorzkow.michalici.pl","gorzkow@wp.pl"," 12 250 21 39","ks. mgr lic. Adam Żurad CSMA","7:00, 9:00, 11:00, 16:30 ","18:00  sobota","","","http://www.diecezja.pl/parafie/lista-parafii/42-wieliczka-wschod/parafia-mb-czestochowskiej.html"
"Parafia Podwyższenia Krzyża Świętego","","","Janowice 200, 32‑020 Wieliczka","",""," 12 250 14 02","ks. mgr Jan Mrozek","8:00, 10:30 ","","","","http://www.diecezja.pl/parafie/lista-parafii/42-wieliczka-wschod/parafia-podwyzszenia-krzyza-swietego.html"
"Parafia Trójcy Świętej","","","Koźmice Wielkie 440","",""," 12 250 14 13","ks. mgr Milan Michalak","8:00, 10:30 ","","","","http://www.diecezja.pl/parafie/lista-parafii/42-wieliczka-wschod/parafia-trojcy-swietej.html"
"Parafia Ducha Świętego","","","Podstolice 25, 32‑020 Wieliczka 1","www.podstolice.diecezja.krakow.pl","podstolice@diecezja.krakow.pl","","ks. mgr Piotr Modelski","7:30, 9:00, 11:00, 16:00 ","18:15  sobota","","","http://www.diecezja.pl/parafie/lista-parafii/9-krakow---borek-falecki/parafia-ducha-swietego.html"
"Parafia MB Częstochowskiej","","","Siercza 1, 32‑020 Wieliczka","","parafiambc@neostrada.pl"," 12 651 53 64","ks. mgr Krzysztof Winiarski","9:00, 11:00, 15:00 ","","","","http://www.diecezja.pl/parafie/lista-parafii/42-wieliczka-wschod/parafia-mb-czestochowskiej-.html"
"Parafia Pana Jezusa Dobrego Pasterza","","","Sygneczow 204, 32‑020 Wieliczka","","parafiasygneczow@wp.pl"," 12 288 10 77","ks. mgr Jacek Makota","8:00, 10:30, 16:00 ","18:00  sobota","","","http://www.diecezja.pl/parafie/lista-parafii/42-wieliczka-wschod/parafia-pana-jezusa-dobrego-pasterza.html"
"Parafia św. Pawła Apostoła","","","ul. Jaśminowa 2,&nbsp;32-020 Wieliczka","www.mbnp.org.pl","parafia@mbnp.org.pl"," 12 278 37 00","ks. dr Wiesław Popielarczyk","7:00, 9:00, 11:00, 15:00, 18:00 ","18:00  sobota","","","http://www.diecezja.pl/parafie/lista-parafii/42-wieliczka-wschod/parafia-sw-pawla-apostola.html"
