"name","postal","city","address","www","email","phone","rector","sun","week","fest","latlng","url"
"Parafia Świętego Marcina","83-225 Skórcz","Barłożno","83-225 Skórcz Barłożno","","","58 582 16 96","ks. Jarosław Skwierawski","","","","","http://www.diecezja-pelplin.pl/dekanaty-i-parafie?pid=104&sid=362:Parafia-Swietego-Marcina"
"Parafia Świętego Jana Chrzciciela","84-352 Wicko","Białogarda","84-352 Wicko Białogarda","","","59 861 11 42","ks. Krzysztof Kozakiewicz, mgr teol.","","","","","http://www.diecezja-pelplin.pl/dekanaty-i-parafie?pid=104&sid=292:Parafia-Swietego-Jana-Chrzciciela"
"Parafia Wniebowzięcia Najświętszej Maryi Panny","84-113","Białogóra","84-113 Białogóra","","","58 673 51 51","ks. Tomasz Juchniewicz, mgr teol.","godz. 10.00, 17.00 ","godz. 17.00","godz. 17.00 ","","http://www.diecezja-pelplin.pl/dekanaty-i-parafie?pid=104&sid=205:Parafia-Wniebowziecia-Najswietszej-Maryi-Panny"
"Parafia Świętego Wojciecha","83-212","Bobowo","83-212 Bobowo, Gdańska 90,","","","58 562 17 33","ks. Mariusz Szyca, mgr teol.","godz. 8.00, 9.30 (Wysoka), 11.00 ","godz. 17.00 (zimą), 18.00 (latem)","godz. 9.00, 17.00, 18.30 (Wysoka) ","","http://www.diecezja-pelplin.pl/dekanaty-i-parafie?pid=104&sid=324:Parafia-Swietego-Wojciecha"
"Parafia Chrystusa Króla Wszechświata","83-332 Dzierżążno","Borowo","83-332 Dzierżążno Borowo, Gdańska 8","","","58 681 24 21","-","godz. 7.30, 9.00 (szpital), 11.00 ","godz. 17.00 (zimą), 18.00 (latem) godz. 15.00 (szpital, I piątek miesiąca)","godz. 9:00, 15.00 (szpital), 18.00 ","","http://www.diecezja-pelplin.pl/dekanaty-i-parafie?pid=104&sid=241:Parafia-Chrystusa-Krola-Wszechswiata"
"Parafia Ducha Świętego","77-138 Borowy Młyn","Borowy Młyn","77-138 Borowy Młyn Borowy Młyn, Jana Pawła II 24","","","59 821 85 32","ks. Jacek Halman","godz. 8.30, 11.00 ","godz. 7.30 lub 17.00","godz. 8.30, 17.00 ","53.965745976858,17.315537412476","http://www.diecezja-pelplin.pl/dekanaty-i-parafie?pid=104&sid=135:Parafia-Ducha-Swietego"
"Parafia Świętej Anny","83-224","Boryechowo","83-224 Boryechowo, Lipowa 4","","","58 588 48 01","ks. Adam Kazimierz Kapelusz, mgr teol.","","","","","http://www.diecezja-pelplin.pl/dekanaty-i-parafie?pid=104&sid=421:Parafia-Swietej-Anny"
"Parafia Świętego Marcina z Tours Biskupa i Wyznawcy","77-130 Lipnica","Borzyszkowy","77-130 Lipnica Borzyszkowy, Borzyszkowy 29","","","59 822 39 31","ks. Ryszard Górny","godz. 7.30, 9.00 (Łąkie), 10.30 ","godz. 8.00 lub 17.00","godz. 10.00, 17.00 (Łąkie), 18.30 ","54.032607987564,17.373730631958","http://www.diecezja-pelplin.pl/dekanaty-i-parafie?pid=104&sid=136:Parafia-Swietego-Marcina-z-Tours-Biskupa-i-Wyznawcy"
"Parafia Najświętszego Serca Jezusa","77-141","Borzytuchom","77-141 Borzytuchom","","","59 821 13 60","ks. Jan Ciołek","godz. 8.00, 9.45 (Osieki Bytowskie), 11.30 ","godz. 8.00 lub 17.15 (zimą), 18.00 (latem)","godz. 10.00, 16.30 (Osieki Bytowskie), 18.00 ","54.200138367864,17.368639340198","http://www.diecezja-pelplin.pl/dekanaty-i-parafie?pid=104&sid=155:Parafia-Najswietszego-Serca-Jezusa"
"Parafia Świętego Piotra Apostoła","84-214","Bożepole Wielkie","84-214 Bożepole Wielkie, Chmieleniecka 36","","","58 678 97 34","ks. Alfons Formela,","godz. 8.00, 10.00, 19.00 ","godz. 17.00 (X-IV) godz. 19.00 (V-IX)","godz. 10.00, 17.00 (X-IV) godz. 1:900 (V-IX) ","","http://www.diecezja-pelplin.pl/dekanaty-i-parafie?pid=104&sid=206:Parafia-Swietego-Piotra-Apostola"
"Parafia Najświętszego Serca Pana Jezusa","83-324","Brodnica Górna","83-324 Brodnica Górna, Ostrzycka 6","","","58 684 52 25","ks. Kazimierz Adam Benkowski","","","","","http://www.diecezja-pelplin.pl/dekanaty-i-parafie?pid=104&sid=383:Parafia-Najswietszego-Serca-Pana-Jezusa"
"Parafia Wszystkich Świętych","89-632 Brusy","Brusy","89-632 Brusy Brusy, Kościelna 3","","","52 398 22 47","ks. Mirosław Klawikowski","godz. 7.20, 9.00, 11.00, 13.00 (Męcikał), 18.00 ","godz. 6.30, 8.30, 18.00","godz. 6.30, 8.30, 16.00, 18.00 ","53.886423879482,17.71853969577","http://www.diecezja-pelplin.pl/dekanaty-i-parafie?pid=104&sid=144:Parafia-Wszystkich-Swietych"
"Parafia Świętych Apostołów Piotra i Pawła","84-218","Brzeźno Lęborskie","84-218 Brzeźno Lęborskie, Brzeźno Lęborskie 16","","","58 572 81 17, http://www.brzezno.trim.pl/","Ks. Wojciech CZAJKOWSKI","godz. 8.00, 11.15 godz. 9.45 (Wysokie) ","godz. 18.00, 19.00 (VII-VIII) godz. 8.00 (czwartek i sobota)","godz. 10.00, 16.30 (Wysokie), 18.00 ","","http://www.diecezja-pelplin.pl/dekanaty-i-parafie?pid=104&sid=207:Parafia-Swietych-Apostolow-Piotra-i-Pawla"
"Parafia Świętej Katarzyny","77-139 Brzeźno Szlacheckie","Brzeźno Szlacheckie","77-139 Brzeźno Szlacheckie Brzeźno Szlacheckie, Brzeźno Szlacheckie 38","","","59 821 86 02","ks. Mariusz Stalka","godz. 8.30, 10.30 ","godz. 8.00 lub 17.00 (zimą), 18.00 (latem)","godz. 8.30, 17.00 (zimą), 18.00 (latem) ","54.0173537,17.2457661","http://www.diecezja-pelplin.pl/dekanaty-i-parafie?pid=104&sid=137:Parafia-Swietej-Katarzyny"
"Parafia Najświętszej Maryi Panny Królowej Polski","77-113","Budowo","77-113 Budowo","","","59 858 12 95","ks. Tadeusz Rybiński","","","","","http://www.diecezja-pelplin.pl/dekanaty-i-parafie?pid=104&sid=301:Parafia-Najswietszej-Maryi-Panny-Krolowej-Polski"
"Parafia Najświętszej Maryi Panny Królowej Polski","86-122","Bukowiec Pomorski","86-122 Bukowiec Pomorski, Młyńska 4","","","52 331 75 89","ks. Tadeusz Chamier Ciemiński","","","","","http://www.diecezja-pelplin.pl/dekanaty-i-parafie?pid=104&sid=283:Parafia-Najswietszej-Maryi-Panny-Krolowej-Polski"
"Parafia Świętej Trójcy Sanktuarium NMP Królowej Krajny w Byszewie","86-017","Byszewo","86-017 Byszewo","","","52 382 32 95","Ks. Stefan ADRICH","","","","","http://www.diecezja-pelplin.pl/dekanaty-i-parafie?pid=104&sid=254:Parafia-Swietej-Trojcy-Sanktuarium-NMP-Krolowej-Krajny-w-Byszewie"
"Parafia Przemienienia Pańskiego","89-510","Bysław","89-510 Bysław, Główna 69","","","52 334 98 21","ks. Aleksander Ostrowski","","","","","http://www.diecezja-pelplin.pl/dekanaty-i-parafie?pid=104&sid=285:Parafia-Przemienienia-Panskiego"
"Parafia Świętej Katarzyny Aleksandryjskiej i Świętego Jana Chrzciciela","77-100","Bytów","77-100 Bytów, Jana Pawła II 22","","","59 822 25 60","ks. Roman Spichalski, dziekan","godz. 6.30, 8.00, 9.30 godz. 9.45 (filia), 11.00, 13.00, 18.00 ","godz. 7.00, 8.30, 18.00","godz. 6.30, 8.00, 9.30, 16.30, 17.00 (filia), 18.00 ","54.1695571,17.4913479","http://www.diecezja-pelplin.pl/dekanaty-i-parafie?pid=104&sid=156:Parafia-Swietej-Katarzyny-Aleksandryjskiej-i-Swietego-Jana-Chrzciciela"
"Parafia Świętego Filipa Neri","77-100","Bytów","77-100 Bytów, Św. Filipa Neri","","","59 822 20 31, 59 822 86 35","ks. Krzysztof Szary COr., mgr teol.","godz. 7.00, 8.30, 10.00, 12.00, 17.00 ","godz. 7.00, 8.30, 18.00","godz. 7.00, 8.30, 10.00, 16.30, 18.00 ","54.183602,17.5061816","http://www.diecezja-pelplin.pl/dekanaty-i-parafie?pid=104&sid=157:Parafia-Swietego-Filipa-Neri"
"Parafia Świętej Małgorzaty i Podwyższenia Krzyża Świętego","86-160","Bzowo","86-160 Bzowo","","","52 332 49 61","ks. Krzysztof Gąsecki, dr teol.","godz. 8.00, 10.30, 15.00 (Fletnowo) godz. 18.00 (sobota) ","godz. 8.30 lub 15.30 (zimą), 18.30 (latem)","godz. 9.00, 18.00 ","","http://www.diecezja-pelplin.pl/dekanaty-i-parafie?pid=104&sid=311:Parafia-Swietej-Malgorzaty-i-Podwyzszenia-Krzyza-Swietego"
"Parafia Wniebowzięcia Najświętszej Maryi Panny","76-220 Główczyce","Cecenowo","76-220 Główczyce Cecenowo, Cecenowo 26,","","","59 811 65 69","ks. Jacek Połom, mgr teol.","","","","","http://www.diecezja-pelplin.pl/dekanaty-i-parafie?pid=104&sid=293:Parafia-Wniebowziecia-Najswietszej-Maryi-Panny"
"Parafia Podwyższenia Krzyża Świętego","89-511","Cekcyn","89-511 Cekcyn, Wczasowa 12","","","52 336 40 11","ks. Mirosław Wincenty Bucholc","","","","","http://www.diecezja-pelplin.pl/dekanaty-i-parafie?pid=104&sid=412:Parafia-Podwyzszenia-Krzyza-Swietego"
"Parafia Wniebowzięcia Najświętszej Maryi Panny","84-312","Cewice","84-312 Cewice, Wincentego Witosa 21","","","59 861 31 70","ks. Jerzy Kąkol","","","","","http://www.diecezja-pelplin.pl/dekanaty-i-parafie?pid=104&sid=302:Parafia-Wniebowziecia-Najswietszej-Maryi-Panny"
"Parafia Świętego Józefa Oblubieńca","84-352 Wicko","Charbrowo","84-352 Wicko Charbrowo","","","59 861 11 22","ks. Stanisław Bugaj","","","","","http://www.diecezja-pelplin.pl/dekanaty-i-parafie?pid=104&sid=294:Parafia-Swietego-Jozefa-Oblubienca"
"Parafia Matki Boskiej Częstochowskiej","89-606","Charzykowy","89-606 Charzykowy","","","","ks. Henryk Borkowski, mgr teol., wicedziekan","godz. 8.45, 10.45 latem: godz. 7.00, 8.45, 10.45, 18.00 ","godz. 7.00 (wtorki i czwartki) godz. 17.00 (pozostałe dni), 18.00 (latem)","godz. 8.15, 18.00 ","53.73898833194,17.511597968848","http://www.diecezja-pelplin.pl/dekanaty-i-parafie?pid=104&sid=169:Parafia-Matki-Boskiej-Czestochowskiej"
"Parafia Świętych Apostołów Piotra i Pawła","83-333","Chmielno","83-333 Chmielno, Gryfa Pomorskiego 41","","","58 684 22 24, fax 58 684 64 13","Ks. kan. Tomasz RAKOWSKI , dr muzykologii","godz. 7.15, 9.15, 11.00 godz. 17.00 (zimą), 18.00 (latem) ","godz. 7.00, 17.00 (zimą), 18.00 (latem)","godz. 7.15, 9.15, 11.00 godz. 17.00 (zimą), 18.00 (latem) ","","http://www.diecezja-pelplin.pl/dekanaty-i-parafie?pid=104&sid=242:Parafia-Swietych-Apostolow-Piotra-i-Pawla"
"Parafia Matki Bożej Królowej Polski","84-210","Choczewo","84-210 Choczewo, Pierwszych Osadników 57","","","58 572 38 96","ks. Wojciech Szmeichel","godz. 8.00, 9.15 (Łętowo) godz. 9.15 (Osieki), 10.30 (Lublewo) godz. 10.30 (Kopalino), 1:200 ","godz. 17.00 (zimą), 18.00","godz. 16.00, 17.00, 18.00 ","","http://www.diecezja-pelplin.pl/dekanaty-i-parafie?pid=104&sid=208:Parafia-Matki-Bozej-Krolowej-Polski"
"Parafia Chrystusa Króla","89-600","Chojnice","89-600 Chojnice, Ducha Świętego 4","","","52 397 41 08","o. Mirosław Zabrocki CSSp","godz. 8.00, 10.00, 12.00, 18.30 ","godz. 8.00, 18.30","godz. 8.30, 18.30 ","","http://www.diecezja-pelplin.pl/dekanaty-i-parafie?pid=104&sid=170:Parafia-Chrystusa-Krola"
"Parafia Chrystusa Miłosiernego","89-604","Chojnice","89-604 Chojnice, pl. św. Faustyny 1","","","52 515 31 77","ks. Jarosław Burandt, mgr teol.","godz. 8.00, 9.30, 11.00, 17.00 ","godz. 8.00, 18.00","godz. 8.00, 16.30, 18.00 ","","http://www.diecezja-pelplin.pl/dekanaty-i-parafie?pid=104&sid=171:Parafia-Chrystusa-Milosiernego"
"Parafia Świętej Jadwigi Królowej","89-600","Chojnice","89-600 Chojnice, ul. Wiśniowa 33","","","52 395 52 84","ks. Henryk Cyrzan, mgr teol.","godz. 7.30, 9.00, 11.00, 17.00 (zimą), 18.00 ","godz. 8.00, 17.00 (zimą), 18.00","godz. 7.30, 9.00, 11.00, 17.00 (zimą), 18.00 ","","http://www.diecezja-pelplin.pl/dekanaty-i-parafie?pid=104&sid=172:Parafia-Swietej-Jadwigi-Krolowej"
"Parafia Ścięcia Świętego Jana Chrzciciela","89-600","Chojnice","89-600 Chojnice, plac Kościelny 5","","","52 397 50 08","ks. prał. Jacek Dawidowski, mgr teol., dziekan","godz. 6.00, 7.30, 8.30 (szpital), 9.00 godz. 10.30, 12.00, 14.00, 19.00 ","godz. 7.00, 8.30, 17.00 (zimą), 19.00","godz. 6.00, 7.00, 8.30, 10.00, 17.00, 19.00 ","","http://www.diecezja-pelplin.pl/dekanaty-i-parafie?pid=104&sid=173:Parafia-Sciecia-Swietego-Jana-Chrzciciela"
"Parafia Matki Bożej Królowej Polski","89-604","Chojnice","89-604 Chojnice, Obrońców Chojnic 4","","","52 397 51 20, 52 397 43 80, kom. 507 184 330","ks. Adam Matuszewski, mgr teol., mgr psychologii","godz. 6.00, 7.30, 9.00, 10.30, 12.00, 14.00, 18.30 ","godz. 6.30, 7.00, 8.30, 18.30","godz. 6.00, 8.30, 10.00, 15.15, 17.00, 18.30 ","","http://www.diecezja-pelplin.pl/dekanaty-i-parafie?pid=104&sid=174:Parafia-Matki-Bozej-Krolowej-Polski"
"Parafia Matki Boskiej Fatimskiej","89-600","Chojnice","89-600 Chojnice, al. MB Fatimskiej 21, www.fatimachojnice.pl","","","","ks. Tomasz Mońko","godz. 7.00, 8.30, 10.00 (Nieżywięć), 1:030 godz. 12.00, 14.30, 17.00 godz. 19.00 (zimą), 20.00 (latem) ","godz. 8.30, 17.30 środy: godz. 18.15 (Nieżywięć)","godz. 8.30, 10.00, 16.00, 17.30, 18.15 (Nieżywięć), 19.00 ","53.6944002,17.5569252","http://www.diecezja-pelplin.pl/dekanaty-i-parafie?pid=104&sid=175:Parafia-Matki-Boskiej-Fatimskiej"
"Parafia Trójcy Świętej","89-600","Chojnice","89-600 Chojnice, Nieżychowice","","","52 398 10 22","ks. Ryszard Ptak, mgr teol.","godz. 8.00, 9.15 (Moszczenica), 11.00 ","godz. 7.00 (środa), 18.00 środy: godz. 18.00 (Moszczenica)","godz. 7.00, 17.00 (Moszczenica), 18.30 ","","http://www.diecezja-pelplin.pl/dekanaty-i-parafie?pid=104&sid=176:Parafia-Trojcy-Swietej"
"Parafia Nawiedzenia Najświętszej Maryi Panny","77-300","Chrząstowo","77-300 Chrząstowo, Chrząstowo 15","","","59 832 21 31; kom. 600 236 019","ks. Jerzy Prekop, mgr teol.","godz. 9.00 (Barkowo) godz. 10.30 (Chrząstowo) godz. 12.00 (Biskupnica) ","godz. 16.00 (zimą), 17.00 (latem)","godz. 16.00 (Barkowo) godz. 17.00 (Biskupnica) godz. 18.00 (Chrząstowo) ","","http://www.diecezja-pelplin.pl/dekanaty-i-parafie?pid=104&sid=187:Parafia-Nawiedzenia-Najswietszej-Maryi-Panny"
"Parafia Świętego Stanisława Kostki","77-116","Czarna Dąbrówka","77-116 Czarna Dąbrówka","","","59 821 26 81","ks. Antoni Stranc","","","","","http://www.diecezja-pelplin.pl/dekanaty-i-parafie?pid=104&sid=303:Parafia-Swietego-Stanislawa-Kostki"
"Parafia Matki Bożej Częstochowskiej","83-262","Czarna Woda","83-262 Czarna Woda, Starogardzka 22","","","58 587 87 02","ks. Roman Bruski","godz. 8.00, 9.30, 11.00, 16.00 ","godz. 8.00, 17.00 (zimą), 18.00","godz. 8.00, 10.00, 17.00 (zimą), 18.00 (latem) ","","http://www.diecezja-pelplin.pl/dekanaty-i-parafie?pid=104&sid=177:Parafia-Matki-Bozej-Czestochowskiej"
"Parafia Świętego Andrzeja Apostoła","83-213 Pączewo","Czarnylas","83-213 Pączewo Czarnylas","","","58 562 18 33","ks. Piotr Wilkowski","","","","","http://www.diecezja-pelplin.pl/dekanaty-i-parafie?pid=104&sid=363:Parafia-Swietego-Andrzeja-Apostola"
"Parafia Świętej Marii Magdaleny","89-650","Czersk","89-650 Czersk, Kościuszki 34","","","52 398 42 20","ks. dr Zbigniew Straszewski","godz. 6.30, 7.30, 8.45, 11.00, 12.30, 18.00 godz. 9.45 (Krzyż) ","godz. 6.30, 7.00, 8.45, 17.30, 18.00 (latem)","godz. 6.15, 7.00, 8.45, 11.00, 16.15 godz. 17.30, 18.00 (latem) ","","http://www.diecezja-pelplin.pl/dekanaty-i-parafie?pid=104&sid=178:Parafia-Swietej-Marii-Magdaleny"
"Parafia Świętego Jakuba Apostoła","77-300","Człuchów","77-300 Człuchów, Królewska 6","","","59 834 25 04","ks. Dariusz Bartnicki, mgr teol.","godz. 7.00, 8.30, 9.00 (Krępsk), 10.00 godz. 11.15, 14.00, 18.00 ","godz. 6.30, 1:800","godz. 6.30, 9.00, 18.00 ","","http://www.diecezja-pelplin.pl/dekanaty-i-parafie?pid=104&sid=188:Parafia-Swietego-Jakuba-Apostola"
"Parafia Świętego Judy Tadeusza","77-300","Człuchów","77-300 Człuchów, Jerzego z Dąbrowy 7","","","59 834 54 20","Ks. kan. Jan MECHLIŃSKI","godz. 7.00, 9.00, 11.00, 16.00 ","godz. 8.00, 17.00 (zimą), 18.00","godz. 8.00, 17.00 (zimą), 18.00 ","","http://www.diecezja-pelplin.pl/dekanaty-i-parafie?pid=104&sid=189:Parafia-Swietego-Judy-Tadeusza"
"Parafia Matki Bożej Królowej Polski","77-300","Człuchów","77-300 Człuchów, Szczecińska 39","","","59 834 28 88","ks. Krzysztof Różański, dr teol., wicedziekan","godz. 7.00, 9.00, 11.00, 18.00 ","godz. 1:800","godz. 9.00, 18.00 ","","http://www.diecezja-pelplin.pl/dekanaty-i-parafie?pid=104&sid=190:Parafia-Matki-Bozej-Krolowej-Polski"
"Parafia Podwyższenia Krzyża Świętego","83-212 Bobowo","Dąbrówka","83-212 Bobowo Dąbrówka, Starogardzka 25","","","58 562 01 67","ks. Paweł Sitarek, mgr teol.","","","","","http://www.diecezja-pelplin.pl/dekanaty-i-parafie?pid=104&sid=373:Parafia-Podwyzszenia-Krzyza-Swietego"
"Parafia Świętego Michała Archanioła","89-430","Dąbrówka koło Sępólna Kraj.","89-430 Dąbrówka koło Sępólna Kraj., Kościelna 4","","","52 388 68 04","ks. Jerzy Sikora, mgr teol.","godz. 8.00, 9.30 (Drożdzienica), 11.00 ","godz. 17.00 (zimą), 18.00 (latem)","godz. 9.00, 16.00 (Drożdzienica), 18.00 ","","http://www.diecezja-pelplin.pl/dekanaty-i-parafie?pid=104&sid=232:Parafia-Swietego-Michala-Archaniola"
"Parafia Świętych Szymona i Judy Tadeusza","76-231 Damnica","Damno","76-231 Damnica Damno, Damno 28","","","59 811 30 89","ks. Zdzisław Wirkus, mgr teol.","godz. 8:00, 10.00 (Grapice), 12.00 dni powszednie: godz. 18.00 godz. 16 (środa i I piątek miesiąca – Grapice","godz. 18.00 godz. 16 (środa i I piątek miesiąca – Grapice","","","http://www.diecezja-pelplin.pl/dekanaty-i-parafie?pid=104&sid=196:Parafia-Swietych-Szymona-i-Judy-Tadeusza"
"Parafia Świętego Krzyża","77-300","Dębnica","77-300 Dębnica, Dębnica 29a","","","59 834 19 80,","ks. Andrzej Wierzchowski, mgr teol.","godz. 9.00 (Ględowo), 10.30 godz. 12.00 (Mosiny) ","godz. 17.00 (zimą), 18.00 (latem)","godz. 16.00 (Mosiny), 17.00 godz. 18.00 (Ględowo) ","","http://www.diecezja-pelplin.pl/dekanaty-i-parafie?pid=104&sid=192:Parafia-Swietego-Krzyza"
"Parafia Świętego Jana Chrzciciela","76-248","Dębnica Kaszubska","76-248 Dębnica Kaszubska, Kościelna 2","","","59 813 13 08","ks. Jan Gilmeister","","","","","http://www.diecezja-pelplin.pl/dekanaty-i-parafie?pid=104&sid=304:Parafia-Swietego-Jana-Chrzciciela"
"Parafia Wniebowzięcia Najświętszej Maryi Panny","77-310","Debrzno","77-310 Debrzno, Witosa 5","","","59 833 53 12, www.debica.salezjanie.pl","ks. Adam Michalski SDB, mgr teol.","godz. 8.00, 9.15, 10.30, 12.00, 18.00 godz. 9.00 (Słupia i Myśligoszcz) godz. 10.30 (Strzeczona i Stare Gronowo) godz. 12.00 (Debrzno Wieś i Scholastykowo) ","godz. 9.00 , 18.00","godz. 9.00, 10.30, 18.00 ","","http://www.diecezja-pelplin.pl/dekanaty-i-parafie?pid=104&sid=191:Parafia-Wniebowziecia-Najswietszej-Maryi-Panny"
"Parafia Świętego Stanisława Biskupa i Męczennika","76-246","Dobieszewo","76-246 Dobieszewo","","","59 858 24 19","ks. Jerzy Śliż","","","","","http://www.diecezja-pelplin.pl/dekanaty-i-parafie?pid=104&sid=305:Parafia-Swietego-Stanislawa-Biskupa-i-Meczennika"
"Parafia Świętego Antoniego Padewskiego","86-140 Drzycim","Dólsk","86-140 Drzycim Dólsk","","","","ks. Tadeusz Olszewski","godz. 9.00, 11.00 ","godz. 17.00","godz. 9.00, 17.00 ","","http://www.diecezja-pelplin.pl/dekanaty-i-parafie?pid=104&sid=222:Parafia-Swietego-Antoniego-Padewskiego"
"Parafia Matki Boskiej Pocieszenia","86-140 Drzycim","Drzycim","86-140 Drzycim Drzycim, Szkolna 15","","","52 331 70 24","ks. Henryk Stoltmann, mgr teol.","godz. 8.00, 9.30, 11.00, 16.00 ","godz. 17.00 (zimą), 18.00","godz. 9.30, 16.00, 18.00 ","","http://www.diecezja-pelplin.pl/dekanaty-i-parafie?pid=104&sid=223:Parafia-Matki-Boskiej-Pocieszenia"
"Parafia Świętego Antoniego Padewskiego","83-425 Dziemiany","Dziemiany","83-425 Dziemiany Dziemiany, Wyzwolenia 25","","","58 688 00 68","ks. Adam Gadomski","godz. 7.00, 9.00, 11.00, 17.00 ","godz. 7.00, 18.00","godz. 7.00, 9.00, 15.00, 18.00 ","54.006251263433,17.769043821399","http://www.diecezja-pelplin.pl/dekanaty-i-parafie?pid=104&sid=146:Parafia-Swietego-Antoniego-Padewskiego"
"Parafia Świętego Jakuba Apostoła","83-132","Dzierżążno","83-132 Dzierżążno","","","58 536 27 70","ks. Janusz Wachowski, mgr teol.","godz. 9.00, 11.00, 13.00 (Gogolewo) ","godz. 17.00","godz. 9.00, 17.00 ","","http://www.diecezja-pelplin.pl/dekanaty-i-parafie?pid=104&sid=214:Parafia-Swietego-Jakuba-Apostola"
"Parafia Świętej Marii Magdaleny","84-351 Nowa Wieś Lę­borska","Garczegorze","84-351 Nowa Wieś Lę­borska Garczegorze","","","59 861 22 78","Ks. Tomasz KRAJNA","","","","","http://www.diecezja-pelplin.pl/dekanaty-i-parafie?pid=104&sid=295:Parafia-Swietej-Marii-Magdaleny"
"Parafia Świętego Andrzeja Apostoła","83-420 Liniewo Pomorskie","Garczyn","83-420 Liniewo Pomorskie Garczyn","","","58 687 93 19","ks. Rafał Cieszyński","","","","","http://www.diecezja-pelplin.pl/dekanaty-i-parafie?pid=104&sid=350:Parafia-Swietego-Andrzeja-Apostola"
"Parafia Nawiedzenia Najświętszej Maryi Panny","76-213","Gardna Wielka","76-213 Gardna Wielka, plac Wolności 6","","","59 846 34 05","ks. Mieczysław Radochoński, mgr teol.","godz. 8.45, 10.30 (Gąbino), 12.00 ","godz. 1:700","godz. 9.00, 18.00 ","","http://www.diecezja-pelplin.pl/dekanaty-i-parafie?pid=104&sid=197:Parafia-Nawiedzenia-Najswietszej-Maryi-Panny"
"Parafia Świętego Mikołaja","83-140","Gniew","83-140 Gniew, ks. Kursikowskiego 8","","","58 535 22 16","ks. Zbigniew Rutkowski, lic. teol.","godz. 7.30, 9.00, 10.00 (Polskie Gronowo) godz. 11.00 (z udziałem rodzin i dzieci) godz. 12.30 godz. 13.30 (Brody Pomorskie), 17.30 ","godz. 6.30, 8.00, 17.00,18.00","godz. 6.30, 8.00, 17.00, 18.00 ","","http://www.diecezja-pelplin.pl/dekanaty-i-parafie?pid=104&sid=215:Parafia-Swietego-Mikolaja"
"","",""," ","","","","","","","","","http://www.diecezja-pelplin.pl/dekanaty-i-parafie?pid=104&sid=209:Parafia-Swietego-Jozefa-Rzemieslnika"
"Parafia Świętego Jana Nepomucena","83-209","Godziszewo","83-209 Godziszewo","","","58 588 18 21","ks. Wiesław Wojewódzki","","","","","http://www.diecezja-pelplin.pl/dekanaty-i-parafie?pid=104&sid=351:Parafia-Swietego-Jana-Nepomucena"
"Parafia Trójcy Świętej i Wszystkich Świętych","83-311","Goręczyno","83-311 Goręczyno, Kasztelańska 60","","","58 684 17 22","ks. Hubert Kitowski, mgr teol.","godz. 7.30, 9.30, 11.00 Ostrzyce godz. 9.00,16.00, 17.00 (latem) ","godz. 8.00 (wtorek i czwartek) godz. 18.00 (pozostałe dni) Ostrzyce godz. 17.00, 18.00 (latem)","godz. 9.30, 16.00, 18.00 ","","http://www.diecezja-pelplin.pl/dekanaty-i-parafie?pid=104&sid=243:Parafia-Trojcy-Swietej-i-Wszystkich-Swietych"
"Parafia Świętej Teresy od Dzieciątka Jezus","86-134 Dragacz","Górna Grupa","86-134 Dragacz Górna Grupa, Świecka 4","","","52 332 56 14, http://werbisci-gornagrupa.prv.pl/","ks. Ryszard Hoppe SVD, lic. teol.","godz. 7.45, 10.45, 17.00 ","godz. 17.00","godz. 10.00, 17.00 ","","http://www.diecezja-pelplin.pl/dekanaty-i-parafie?pid=104&sid=312:Parafia-Swietej-Teresy-od-Dzieciatka-Jezus"
"Gorzędziej - Parafia Świętego Wojciecha Sanktuarium Świętego Wojciecha","83-120 Subkowy","Gorzędziej","83-120 Subkowy Gorzędziej, ks. Hundsdorfa 7,","","","58 536 84 34","o. Zbigniew Stachowicz OCD","godz. 9.00, 10.30, 12.30 (Rybaki) ","godz. 18.00","godz. 9.00 ","","http://www.diecezja-pelplin.pl/dekanaty-i-parafie?pid=104&sid=401:Gorzedziej-Parafia-Swietego-Wojciecha-Sanktuarium-Swietego-Wojciecha"
"PARAFIA św. Jana Marii Vianneya","77-100","Gostkowo","77-100 Gostkowo, Gostkowo 19 F","","","kom. 664 482 067","ks. Czesław Narloch, mgr teol.","godz. 9.00, 10.30 ","godz. 17.00 (18.00 latem)","godz. 17.00 ","54.223606346896,17.476974932153","http://www.diecezja-pelplin.pl/dekanaty-i-parafie?pid=104&sid=158:PARAFIA-sw-Jana-Marii-Vianneya"
"Parafia Świętego Marcina","89-520","Gostycyn","89-520 Gostycyn, Główna 46","","","52 334 60 17","ks. Stanisław Jahns","","","","","http://www.diecezja-pelplin.pl/dekanaty-i-parafie?pid=104&sid=413:Parafia-Swietego-Marcina"
"Parafia Niepokalanego Poczęcia Najświętszej Maryi Panny","83-341","Gowidlino","83-341 Gowidlino, Kościelna 9","","","58 352 60 02","ks. Leszek Piotr Knut","","","","","http://www.diecezja-pelplin.pl/dekanaty-i-parafie?pid=104&sid=340:Parafia-Niepokalanego-Poczecia-Najswietszej-Maryi-Panny"
"Parafia Najświętszej Maryi Panny Częstochowskiej","83-316","Gołubie","83-316 Gołubie, Kościelna 14","","","58 684 37 10","ks. Ryszard Grzeszczuk","","","","","http://www.diecezja-pelplin.pl/dekanaty-i-parafie?pid=104&sid=384:Parafia-Najswietszej-Maryi-Panny-Czestochowskiej"
"Parafia Objawienia Pańskiego","83-212 Bobowo","Grabowo","83-212 Bobowo Grabowo","","","58 562 17 43","ks. Piotr Kowalski","","","","","http://www.diecezja-pelplin.pl/dekanaty-i-parafie?pid=104&sid=364:Parafia-Objawienia-Panskiego"
"Parafia Świętej Anny","83-403","Grabowo Kościerskie","83-403 Grabowo Kościerskie","","","kom. 888 590 059","ks. Paweł Rąbca","","","","","http://www.diecezja-pelplin.pl/dekanaty-i-parafie?pid=104&sid=263:Parafia-Swietej-Anny"
"Parafia Miłosierdzia Bożego","86-140 Drzycim","Gródek","86-140 Drzycim Gródek, pl. Jana Pawła II","","","52 331 68 13","ks. Andrzej Maria Lemańczyk, lic. teol.","godz. 8.30, 10.00 ","godz. 17.00 w pierwsze soboty miesiąca: godz. 8.30","godz. 8.00, 17.00 ","","http://www.diecezja-pelplin.pl/dekanaty-i-parafie?pid=104&sid=224:Parafia-Milosierdzia-Bozego"
"Gruczno - Parafia Świętego Jana Chrzciciela","86-111","Gruczno","86-111 Gruczno, Wojska Polskiego 12","","","52 331 93 79 www.ewangelizacja.net","ks. Franciszek Kamecki","godz. 8.00, 9.30, 11.00 dni powszednie: godz. 18.00","godz. 18.00","","","http://www.diecezja-pelplin.pl/dekanaty-i-parafie?pid=104&sid=392:Gruczno-Parafia-Swietego-Jana-Chrzciciela"
"Parafia Wojskowa MIŁOSIERDZIA BOŻEGO","86-134","Grupa","86-134 Grupa","","","52 458 42 20","ks. Piotr Wszelaki mgr teol., major WP","","","","","http://www.diecezja-pelplin.pl/dekanaty-i-parafie?pid=104&sid=313:Parafia-Wojskowa-MILOSIERDZIA-BOZEGO"
"Parafia Niepokalanego Poczęcia Najświętszej Maryi Panny","83-300","Grzybno","83-300 Grzybno, Długa 36","","","58 694 30 10","ks. Wojciech Klawikowski","godz. 8.00, 10.00, 11.30, 17.00 ","godz. 17.00, 18.00","godz. 8.00, 16.00, 18.00 ","","http://www.diecezja-pelplin.pl/dekanaty-i-parafie?pid=104&sid=244:Parafia-Niepokalanego-Poczecia-Najswietszej-Maryi-Panny"
"Parafia Świętych Apostołów Piotra i Pawła","76-220","Główczyce","76-220 Główczyce, Kościuszki 9","","","59 811 60 52, http://salezjanie.pl/glowczyce","ks. Tadeusz Stromski SDB, mgr teol.","godz. 8.30, 9.00 (Szczypkowice), 10.00 godz. 10.30 (Izbica), 12.00, 18.00 godz. 12.00 (Będziechowo) ","godz. 16.00 (wtorek w Szczypkowicach) godz. 16.00 (środa w Izbicy) godz. 16.00 (czwartek w Będziechowie) godz. 18.00","godz. 10.00, 18.00 godz. 16.00 (Izbica, Będziechowo i Szczypkowice) ","","http://www.diecezja-pelplin.pl/dekanaty-i-parafie?pid=104&sid=198:Parafia-Swietych-Apostolow-Piotra-i-Pawla"
"Parafia Nawiedzenia Najświętszej Maryi Panny","83-312","Hopowo","83-312 Hopowo","","","58 684 19 06","ks. Tadeusz Łącki, mgr teol.","godz. 8.00, 10.00, 11.30 ","godz. 17.00 (zimą), 19.00 (latem)","godz. 8.00, 17.00 ","","http://www.diecezja-pelplin.pl/dekanaty-i-parafie?pid=104&sid=245:Parafia-Nawiedzenia-Najswietszej-Maryi-Panny"
"Parafia Świętego Józefa","83-261 Piece","Huta Kalna","83-261 Piece Huta Kalna, Koś­cielna 15","","","58 587 76 39","ks. Grzegorz Sobota","godz. 8:30, 11:00 ","godz. 17.00","godz. 9.00, 17.00 ","","http://www.diecezja-pelplin.pl/dekanaty-i-parafie?pid=104&sid=179:Parafia-Swietego-Jozefa"
"Parafia Matki Boskiej Różańcowej","89-512","Iwiec","89-512 Iwiec","","","52 336 40 70","ks. Piotr Breiski, mgr teol.","","","","","http://www.diecezja-pelplin.pl/dekanaty-i-parafie?pid=104&sid=286:Parafia-Matki-Boskiej-Rozancowej"
"Parafia Świętego Wawrzyńca","83-211","Jabłowo","83-211 Jabłowo, Szkolna 2","","","58 562 16 25","ks. Gerard Jakubiak, mgr teol.","godz. 8.30, 10.00, 11.30 ","godz. 17.00 (zimą), 18.00 (latem)","godz. 8.30, 17.00 (zimą), 18.00 (latem) ","","http://www.diecezja-pelplin.pl/dekanaty-i-parafie?pid=104&sid=325:Parafia-Swietego-Wawrzynca"
"Parafia Trójcy Świętej","86-131","Jeżewo","86-131 Jeżewo, Główna 4","","","52 331 80 24","ks. Franciszek Behrendt, lic. misjologii","godz. 8.00, 10.00, 15.00 (Buśnia), 16.30 ","godz. 16.30, 17.30","godz. 8.00, 10.00, 16.30 ","","http://www.diecezja-pelplin.pl/dekanaty-i-parafie?pid=104&sid=225:Parafia-Trojcy-Swietej"
"Parafia Matki Bożej Nieustającej Pomocy","83-260","Kaliska","83-260 Kaliska, Długa 25","","","58 588 91 69, 58 588 95 18","ks. Józef Słupski","","","","","http://www.diecezja-pelplin.pl/dekanaty-i-parafie?pid=104&sid=422:Parafia-Matki-Bozej-Nieustajacej-Pomocy"
"Parafia Świętego Rocha","83-425 Dziemiany","Kalisz Kaszubski","83-425 Dziemiany Kalisz Kaszubski, Kalisz Kaszubski 125","","","58 688 09 41","ks. Ryszard Zieliński","godz. 9.00, 11.00 nabożeństw: ","godz. 7.00 lub 17.00 (zimą), 19.00 (latem)","godz. 8.00, 18.00 ","54.04467065304,17.797840017383","http://www.diecezja-pelplin.pl/dekanaty-i-parafie?pid=104&sid=147:Parafia-Swietego-Rocha"
"Parafia Świętych Apostołów Piotra i Pawła","89-430","Kamień Krajeński","89-430 Kamień Krajeński, Mickiewicza 19","","","52 388 70 90","ks. Edwin Bernard Sołtysiak","godz. 7.30, 9.00, 9.15 (Duża Cerkwica) godz. 10.45, 11.00 (Mała Cerkwica), 15.15 ","godz. 9.00, 17.00 (Duża Cerkwica i Mała Cerkwica), 18.00","godz. 9.00, 10.45, 15.30, 18.00 Duża Cerkwica: godz. 9.15, 17.00 Mała Cerkwica: godz. 17.00 ","","http://www.diecezja-pelplin.pl/dekanaty-i-parafie?pid=104&sid=233:Parafia-Swietych-Apostolow-Piotra-i-Pawla"
"Parafia Matki Bożej Nieustającej Pomocy","83-342","Kamienica Królewska","83-342 Kamienica Królewska","","","58 681 92 72","ks. Andrzej Piernikarczyk","","","","","http://www.diecezja-pelplin.pl/dekanaty-i-parafie?pid=104&sid=341:Parafia-Matki-Bozej-Nieustajacej-Pomocy"
"Parafia Świętego Andrzeja Boboli","83-230 Smętowo Graniczne","Kamionka","83-230 Smętowo Graniczne Kamionka","","","52 332 88 11","ks. Tadeusz Galikowski","godz. 7.20, 9.00, 10.30 ","godz. 16.00 (zimą), 17.00 (latem)","godz. 10.00, 16.00 albo 17.00 ","","http://www.diecezja-pelplin.pl/dekanaty-i-parafie?pid=104&sid=314:Parafia-Swietego-Andrzeja-Boboli"
"Parafia Matki Boskiej Różańcowej","83-440 Karsin","Karsin","83-440 Karsin Karsin, Długa 192","","","58 680 04 15","ks. Dominik Szulwic","godz. 8.00, 10.00, 11.30 nabożeństw: ","godz. 7.00 lub 18.00","godz. 8.00, 16.00, 18.00 ","53.9024585,17.9194558","http://www.diecezja-pelplin.pl/dekanaty-i-parafie?pid=104&sid=148:Parafia-Matki-Boskiej-Rozancowej"
"Parafia Wniebowzięcia Najświętszej Maryi Panny","83-300","Kartuzy","83-300 Kartuzy, Klasztorna 3","","","58 681 20 85, http://www.kolegiata.nazwa.pl","ks. Piotr Paweł Krupiński, mgr teol., dziekan","godz. 6.30 (szpital), 7.00, 8.15, 9.30, 11.00, godz. 12.30, 18.00 ","godz. 7.00, 8.00, 18.00","godz. 7.00, 8.30, 11.00, 16.30,18.00 ","","http://www.diecezja-pelplin.pl/dekanaty-i-parafie?pid=104&sid=246:Parafia-Wniebowziecia-Najswietszej-Maryi-Panny"
"Parafia Świętego Kazimierza","83-300","Kartuzy","83-300 Kartuzy, Dworcowa 8","","","58 681 18 04, 58 685 33 99, www.kazimierz.kartuzy.pl","ks. Ryszard Różycki, dr teol.","godz. 7.00, 7.30 (kaplica), 8.30, 9.45 godz. 11.00, 12.15, 19.00, 20.30 (VII-VIII) ","godz. 6.30, 7.00 (kaplica), 8.30, 18.00 godz. 19.00 (IV-IX)","godz. 6.15, 7.00 (kaplica), 8.30, 9.45, 18.00 godz. 19.00 (IV-IX) ","","http://www.diecezja-pelplin.pl/dekanaty-i-parafie?pid=104&sid=247:Parafia-Swietego-Kazimierza"
"Parafia Świętego Wojciecha","83-300","Kartuzy","83-300 Kartuzy, Wybickiego 35","","","58 681 26 00, www.wojciech-kartuzy.pelplin.opoka.org.pl/","ks. Marek Trybowski, dr teol.,","godz. 7.00, 9.00, 10.30, 12.00, 17.00 ","godz. 7.00, 17.00, 18.00","godz. 7.00, 10.00, 16.00, 18.00 ","","http://www.diecezja-pelplin.pl/dekanaty-i-parafie?pid=104&sid=248:Parafia-Swietego-Wojciecha"
"Parafia Świętego Józefa","83-221 Osiek","Kasparus","83-221 Osiek Kasparus, Kasparus 62","","","","parafia Skórcz","","","","","http://www.diecezja-pelplin.pl/dekanaty-i-parafie?pid=104&sid=365:Parafia-Swietego-Jozefa"
"PARAFIA Chrystusa Króla","89-506","Kęsowo – Jeleńcz","89-506 Kęsowo – Jeleńcz, Szkolna 10","","","52 334 40 15","ks. Rafał Witta, mgr teol.","godz. 7.30, 9.15 (Kęsowo) godz. 11.00 (Jeleńcz) ","godz. 17.00 (zimą), 17.30 (latem) Kęsowo","godz. 10.00, 17.00 (zimą), 17.30 (latem) – Kęsowo godz. 15.30 (zimą), 16.00 (latem) – Jeleńcz ","","http://www.diecezja-pelplin.pl/dekanaty-i-parafie?pid=104&sid=234:PARAFIA-Chrystusa-Krola"
"Parafia Świętego Michała Archanioła","83-307","Kiełpino","83-307 Kiełpino, ks. Arasmusa 2","","","58 681 23 45","ks. Arkadiusz Okroj, dr teol.","7:30, 8:30 (Borcz), 9:30 (dzieci), 11:00, 12:00 (młodzież), 18:00 – dni powszednie: 7:15, 17:00, 18:00 http://parafiakielpino.pl biuro@parafiakielpino.pl","7:15, 17:00, 18:00 http://parafiakielpino.pl biuro@parafiakielpino.pl","","","http://www.diecezja-pelplin.pl/dekanaty-i-parafie?pid=104&sid=249:Parafia-Swietego-Michala-Archaniola"
"Parafia Świętego Jana Chrzciciela","83-206","Kleszczewo Kościerskie","83-206 Kleszczewo Kościerskie","","","58 561 68 24","ks. Edward Kampen, dr teol.","","","","","http://www.diecezja-pelplin.pl/dekanaty-i-parafie?pid=104&sid=423:Parafia-Swietego-Jana-Chrzciciela"
"Parafia Świętej Katarzyny","83-130 Pelplin","Klonówka","83-130 Pelplin Klonówka, Kościelna 7","","","58 563 71 45","ks. Przemysław Piwowarczyk, lic. teol.","godz. 9.00, 10.30 (Kolincz), 12.00 ","godz. 17.00 godz. 18.00 (sobota – Nowy Dwór)","godz. 9.00, 17.00 ","","http://www.diecezja-pelplin.pl/dekanaty-i-parafie?pid=104&sid=326:Parafia-Swietej-Katarzyny"
"Parafia Najświętszej Maryi Panny Matki Miłosierdzia","83-322 Stężyca","Klukowa Huta","83-322 Stężyca Klukowa Huta, Derdowskiego 8","","","58 684 33 78","ks. Dariusz Knut","","","","","http://www.diecezja-pelplin.pl/dekanaty-i-parafie?pid=104&sid=385:Parafia-Najswietszej-Maryi-Panny-Matki-Milosierdzia"
"Parafia Świętej Barbary","83-207","Kokoszkowy","83-207 Kokoszkowy, Szkolna 8","","","58 562 15 16","ks. Marek Błażejczyk","","","","","http://www.diecezja-pelplin.pl/dekanaty-i-parafie?pid=104&sid=374:Parafia-Swietej-Barbary"
"Parafia Świętych Apostołów Piotra i Pawła","89-607 Konarzyny","Konarzyny","89-607 Konarzyny Konarzyny, Parkowa 1","","","59 833 10 12","ks. Marek Weltrowski","godz. 7.15, 9.15, 11.15 ","godz. 17.00 (zimą), 18.00 (latem)","godz. 9.00, 17.00 ","53.823091824193,17.377173778882","http://www.diecezja-pelplin.pl/dekanaty-i-parafie?pid=104&sid=138:Parafia-Swietych-Apostolow-Piotra-i-Pawla"
"Parafia Świętego Antoniego Padewskiego","83-432 K","Konarzyny","83-432 K Konarzyny","","","58 687 96 94","ks. Michał Mazurek, mgr teol., lic. prawa kan.","","","","","http://www.diecezja-pelplin.pl/dekanaty-i-parafie?pid=104&sid=424:Parafia-Swietego-Antoniego-Padewskiego"
"Parafia Wniebowzięcia Najświętszej Maryi Panny BAZYLIKA MNIEJSZA","86-010","Koronowo","86-010 Koronowo, Bydgoska 23","","","52 382 25 01","ks. kan. Ryszard Hirsz, prepozyt kapituły kolegiackiej","","","","","http://www.diecezja-pelplin.pl/dekanaty-i-parafie?pid=104&sid=255:Parafia-Wniebowziecia-Najswietszej-Maryi-Panny-BAZYLIKA-MNIEJSZA"
"Parafia Trójcy Świętej","83-226","Kościelna Jania","83-226 Kościelna Jania","","","58 582 16 09","ks. dr Krzysztof Koch","","","","","http://www.diecezja-pelplin.pl/dekanaty-i-parafie?pid=104&sid=366:Parafia-Trojcy-Swietej"
"Parafia Świętej Trójcy Sanktuarium Matki Bożej Królowej Rodzin","83-400","Kościerzyna","83-400 Kościerzyna, Jana Pawła II 1","","","58 686 26 51, www.sanktuarium.pl","ks. Marian Szczepiński","","","","","http://www.diecezja-pelplin.pl/dekanaty-i-parafie?pid=104&sid=264:Parafia-Swietej-Trojcy-Sanktuarium-Matki-Bozej-Krolowej-Rodzin"
"Parafia Zmartwychwstania Pańskiego","83-400","Kościerzyna","83-400 Kościerzyna, Świętojańska 10","","","58 686 31 71, www.parafiakoscierzyna.p","ks. Józef Ryszard Pacholec CR","","","","","http://www.diecezja-pelplin.pl/dekanaty-i-parafie?pid=104&sid=265:Parafia-Zmartwychwstania-Panskiego"
"Parafia Jezusa Chrystusa Króla Wszechświata","83-400","Kościerzyna","83-400 Kościerzyna, Konwaliowa 8","","","399 50 50 24","ks. Bogusław Kwasigroch","","","","","http://www.diecezja-pelplin.pl/dekanaty-i-parafie?pid=104&sid=266:Parafia-Jezusa-Chrystusa-Krola-Wszechswiata"
"Parafia Najświętszego Serca Pana Jezusa","89-632 Brusy","Kosobudy","89-632 Brusy Kosobudy, Kosobudy","","","52 398 31 24","ks. Mirosław Romanowski","godz. 8.00 , 11.00 ","godz. 8.00","godz. 8.00, 18.00 ","53.873073602355,17.757359660535","http://www.diecezja-pelplin.pl/dekanaty-i-parafie?pid=104&sid=149:Parafia-Najswietszego-Serca-Pana-Jezusa"
"Parafia Świętego Ottona","84-250","Kostkowo","84-250 Kostkowo","","","Kościelna 6","ks. Robert Mayer, mgr teol.","godz. 7.30, 12.30 godz. 18.00 (poniedz.-piątek) godz. 8.00 i 18.00 (sobota) Salino: niedziele i święta: godz. 8.45 dni powszednie: godz. 17.15 (środa) Rybno: niedziele i święta: godz. 10.00 dni powszednie: godz. 17.00 (czwartek) Chynowie: niedziele i święta: godz. 11.15 dni powszednie: godz. 17.00 (piątek)","godz. 17.15 (środa) Rybno: niedziele i święta: godz. 10.00 dni powszednie: godz. 17.00 (czwartek) Chynowie: niedziele i święta: godz. 11.15 dni powszednie: godz. 17.00 (piątek)","","","http://www.diecezja-pelplin.pl/dekanaty-i-parafie?pid=104&sid=210:Parafia-Swietego-Ottona"
"PARAFIA Chrystusa Króla","77-140","Kołczygłowy","77-140 Kołczygłowy, ul. Słupska 16","","","59 821 34 19","ks. Jan Flaczyński, mgr teol.","godz. 8.00, 10.00 (Łubno), 11.45 ","godz. 17.00 (zimą), 18.00 (latem)","godz. 8.00, 18.00 ","54.238800568369,17.22682617666","http://www.diecezja-pelplin.pl/dekanaty-i-parafie?pid=104&sid=159:PARAFIA-Chrystusa-Krola"
"Parafia Wniebowzięcia Najświętszej Maryi Panny","83-200 Starogard Gd.","Krąg","83-200 Starogard Gd. Krąg","","","58 562 24 00","ks. Jacek Cirocki","","","","","http://www.diecezja-pelplin.pl/dekanaty-i-parafie?pid=104&sid=352:Parafia-Wniebowziecia-Najswietszej-Maryi-Panny"
"Parafia Najświętszego Serca Pana Jezusa","77-135","Kramarzyny","77-135 Kramarzyny","","","59 823 11 92","Ks. Krzysztof ROSZAK","godz. 8.00, 9.30 (Turowo) godz. 11.00 (Trzebiatkowa), 12.30 ","godz. 17.00","godz. 9.00, 15.30 (Turowo) godz. 17.00, 18.00 (Trzebiatkowa) ","54.059443615617,17.241958023279","http://www.diecezja-pelplin.pl/dekanaty-i-parafie?pid=104&sid=160:Parafia-Najswietszego-Serca-Pana-Jezusa"
"Parafia Niepokalanego Poczęcia Najświętszej Maryi Panny","89-620 Chojnice","Krojanty","89-620 Chojnice Krojanty, 18 Pułku Ułanów Pom. 42","","","52 396 24 40","ks. Piotr Kotewicz","","","","","http://www.diecezja-pelplin.pl/dekanaty-i-parafie?pid=104&sid=331:Parafia-Niepokalanego-Poczecia-Najswietszej-Maryi-Panny"
"Parafia Świętego Mikołaja","83-132","Królówlas","83-132 Królówlas","","","58 536 27 94","ks. Edmund Zalewski","godz. 8.30, 10.30 ","godz. 17.00","godz. 10.00, 17.00 ","","http://www.diecezja-pelplin.pl/dekanaty-i-parafie?pid=104&sid=216:Parafia-Swietego-Mikolaja"
"Parafia Świętej Barbary","83-230","Lalkowy","83-230 Lalkowy","","","58 561 94 24","ks. Dariusz Nenca, mgr teol.","godz. 8.00, 10.00, 12.00 (Bukowiny) ","godz. 17.00 (zimą), 18.00 (latem)","godz. 8.0, 18.00 ","","http://www.diecezja-pelplin.pl/dekanaty-i-parafie?pid=104&sid=315:Parafia-Swietej-Barbary"
"Parafia Niepokalanego Serca Najświętszej Maryi Panny","86-130","Laskowice Pomorskie","86-130 Laskowice Pomorskie, Mickiewicza 3","","","52 331 81 19, fax 52 331 88 05, www.laskowiceomi.pl","o. Marek Pycka OMI","godz. 8.00, 9.30, 11.00, 18.00 ","godz. 7.00, 17.00 (XI-III), 18.00","godz. 10.00, 16.30, 18.00 ","","http://www.diecezja-pelplin.pl/dekanaty-i-parafie?pid=104&sid=226:Parafia-Niepokalanego-Serca-Najswietszej-Maryi-Panny"
"Parafia Najświętszej Maryi Panny Królowej Polski","84-300","Lębork","84-300 Lębork, Kopernika 6","","","59 862 26 45","ks. Henryk Krenczkowski","","","","","http://www.diecezja-pelplin.pl/dekanaty-i-parafie?pid=104&sid=275:Parafia-Najswietszej-Maryi-Panny-Krolowej-Polski"
"Parafia Świętego Jakuba Apostoła SANKTUARIUM ŚW. JAKUBA APOSTOŁA STARSZEGO","84-300","Lębork","84-300 Lębork, Basztowa 8","","","59 862 22 44, 59 862 22 27","o. Piotr Pawlik, OFM Conv.","","","","","http://www.diecezja-pelplin.pl/dekanaty-i-parafie?pid=104&sid=276:Parafia-Swietego-Jakuba-Apostola-SANKTUARIUM-SW-JAKUBA-APOSTOLA-STARSZEGO"
"Parafia Świętej Jadwigi Śląskiej","84-300","Lębork","84-300 Lębork, ks. Szczepana Gracza 7","","","59 862 71 70","Ks. Sławomir PRABUCKI","","","","","http://www.diecezja-pelplin.pl/dekanaty-i-parafie?pid=104&sid=277:Parafia-Swietej-Jadwigi-Slaskiej"
"Parafia Świętego Maksymiliana Marii Kolbego i Wszystkich Świętych","84-300","Lębork","84-300 Lębork, ul. Kartuska 2","","","59 863 14 41","ks. Henryk Kreft","","","","","http://www.diecezja-pelplin.pl/dekanaty-i-parafie?pid=104&sid=278:Parafia-Swietego-Maksymiliana-Marii-Kolbego-i-Wszystkich-Swietych"
"Parafia Miłosierdzia Bożego","84-300","Lębork","84-300 Lębork, Kasztanowa 12/1","","","59 862 68 00","Ks. Janusz GÓRAL","","","","","http://www.diecezja-pelplin.pl/dekanaty-i-parafie?pid=104&sid=279:Parafia-Milosierdzia-Bozego"
"Parafia Najświętszego Serca Pana Jezusa","84-300","Lębork","84-300 Lębork, Teligi 22","","","59 863 18 18","ks. Tomasz Bernard Król","","","","","http://www.diecezja-pelplin.pl/dekanaty-i-parafie?pid=104&sid=280:Parafia-Najswietszego-Serca-Pana-Jezusa"
"Parafia Najświętszego Serca Pana Jezusa","89-504","Legbąd","89-504 Legbąd, ks. Stanisława Chudzińskiego 29","","","52 334 15 11","ks. Sławomir Mowiński, mgr teol.","godz. 8.30, 11.00 ","godz. 17.00","godz. 9.00, 17.00 ","","http://www.diecezja-pelplin.pl/dekanaty-i-parafie?pid=104&sid=180:Parafia-Najswietszego-Serca-Pana-Jezusa"
"Parafia Matki Boskiej Częstochowskiej","84-302","Leśnice","84-302 Leśnice, Leśnice 22","","","59 861 20 12","ks. Antoni Firmanty","","","","","http://www.diecezja-pelplin.pl/dekanaty-i-parafie?pid=104&sid=274:Parafia-Matki-Boskiej-Czestochowskiej"
"Parafia Podwyższenia Krzyża Świętego","89-634 Leśno","Leśno","89-634 Leśno Leśno, kard. St. Wyszyńskiego 2","","","52 398 17 78","ks. Stanisław Pluto Prondziński","godz. 8.00, 10.00, 11.30 ","godz. 17.00 (zimą), godz. 18.00 (latem)","godz. 8.00, 10.00, 18.00 ","53.948875695099,17.700947681934","http://www.diecezja-pelplin.pl/dekanaty-i-parafie?pid=104&sid=150:Parafia-Podwyzszenia-Krzyza-Swietego"
"Parafia Świętej Jadwigi Śląskiej","89-620 Chojnice","Lichnowy","89-620 Chojnice Lichnowy, Szkolna 3","","","52 396 15 95","ks. Andrzej Kuczyński","","","","","http://www.diecezja-pelplin.pl/dekanaty-i-parafie?pid=104&sid=332:Parafia-Swietej-Jadwigi-Slaskiej"
"Parafia Świętego Marcina","83-121","Lignowy Szlacheckie","83-121 Lignowy Szlacheckie","","","58 536 11 31","ks. Zdzisław Styn, dziekan","godz. 7.30, 9.30 (Kursztyn), 10.50 ","godz. 17.00 godz. 18.00 (Kursztyn – środa)","godz. 9:00, 17.00, 18.00 (Kursztyn) ","","http://www.diecezja-pelplin.pl/dekanaty-i-parafie?pid=104&sid=217:Parafia-Swietego-Marcina"
"Parafia Najświętszego Serca Pana Jezusa","84-223","Linia","84-223 Linia, Długa 18","","","58 676 86 46","ks. Wojciech Senger","","","","","http://www.diecezja-pelplin.pl/dekanaty-i-parafie?pid=104&sid=342:Parafia-Najswietszego-Serca-Pana-Jezusa"
"Parafia Miłosierdzia Bożego","83-420","Liniewo","83-420 Liniewo, Wyzwolenia 23","","","58 687 81 94","ks. Grzegorz Flisikowski","","","","","http://www.diecezja-pelplin.pl/dekanaty-i-parafie?pid=104&sid=353:Parafia-Milosierdzia-Bozego"
"Parafia Maryi Wspomożenia Wiernych","86-163","Lipinki koło Warlubia","86-163 Lipinki koło Warlubia","","","52 332 86 11","ks. Andrzej Kubisz, mgr teol.","godz. 8.00, 9.30 (Mątasek), 10.45 ","godz. 7.15, 17.00 (zimą)","godz. 10.00, 18.00 ","","http://www.diecezja-pelplin.pl/dekanaty-i-parafie?pid=104&sid=227:Parafia-Maryi-Wspomozenia-Wiernych"
"Parafia Jasnogórskiej Królowej Polski","77-130 Lipnica","Lipnica","77-130 Lipnica Lipnica, Kościelna 2","","","59 821 84 09","ks. Leszek Wołoszyk","godz. 8.00, 10.00 ","godz. 17.00 (zimą), 18.00 (latem)","godz. 9.00, 18.00 ","53.995539768884,17.406947108398","http://www.diecezja-pelplin.pl/dekanaty-i-parafie?pid=104&sid=139:Parafia-Jasnogorskiej-Krolowej-Polski"
"Parafia Świętego Michała Archanioła","83-424","Lipusz","83-424 Lipusz, Wybickiego 9","","","58 687 45 10","ks. Jan Antoni Ostrowski","","","","","http://www.diecezja-pelplin.pl/dekanaty-i-parafie?pid=104&sid=267:Parafia-Swietego-Michala-Archaniola"
"Parafia Narodzenia Najświętszej Maryi Panny","86-141","Lniano","86-141 Lniano, Kościelna 4","","","52 332 30 12","ks. Jerzy Dąbrowski, mgr teol.","godz. 8.00, 9.30, 11.00 ","godz. 17.00 (zimą), 19.00 (latem)","godz. 9.00, 17.00 ","","http://www.diecezja-pelplin.pl/dekanaty-i-parafie?pid=104&sid=228:Parafia-Narodzenia-Najswietszej-Maryi-Panny"
"Parafia Świętego Jakuba Apostoła Starszego","83-240","Lubichowo","83-240 Lubichowo, Starogardzka 18","","","58 588 52 17","ks. Jan Edward Kulas","","","","","http://www.diecezja-pelplin.pl/dekanaty-i-parafie?pid=104&sid=367:Parafia-Swietego-Jakuba-Apostola-Starszego"
"Parafia Świętego Mikołaja","89-526","Lubiewo","89-526 Lubiewo, Wojska Polskiego 39,","","","52 334 93 12, kom. 604 541 425","ks. Roman Walkows","","","","","http://www.diecezja-pelplin.pl/dekanaty-i-parafie?pid=104&sid=287:Parafia-Swietego-Mikolaja"
"Lubiszewo - Parafia Świętej Trójcy Sanktuarium Matki Bożej Pocieszenia","83-112","Lubiszewo","83-112 Lubiszewo","","","58 536 99 24","ks. Roman Misiak","godz. 7.00, 9.00, 11.00 ","godz. 16.00 (zimą), 17.00 (latem)","godz. 9.00, 17.00 ","","http://www.diecezja-pelplin.pl/dekanaty-i-parafie?pid=104&sid=402:Lubiszewo-Parafia-Swietej-Trojcy-Sanktuarium-Matki-Bozej-Pocieszenia"
"Parafia Błogosławionego Jana Pawła II, Papieża","77-100","Mądrzechowo","77-100 Mądrzechowo, ul. Jana Pawła II","","","","ks. Radosław Orlikowski, lic. teol.","godz. 11.00 święta zniesione: godz. 18.00","","","54.158123697397,17.512524725037","http://www.diecezja-pelplin.pl/dekanaty-i-parafie?pid=104&sid=161:Parafia-Blogoslawionego-Jana-Pawla-II-Papieza"
"Parafia Świętego Wawrzyńca","86-013","Mąkowarsko","86-013 Mąkowarsko, Bydgoska 2","","","52 382 31 10","ks. Wiesław Wiśniewski","","","","","http://www.diecezja-pelplin.pl/dekanaty-i-parafie?pid=104&sid=257:Parafia-Swietego-Wawrzynca"
"Parafia Najświętszej Maryi Panny Królowej Polski","86-170 Nowe","Mątawy","86-170 Nowe Mątawy","","","52 332 85 11","ks. Ryszard Thiede, mgr teol.","godz. 9.00, 10.30 ","godz. 16.00, 17.00 (latem)","godz. 9.00, 18.00 ","","http://www.diecezja-pelplin.pl/dekanaty-i-parafie?pid=104&sid=316:Parafia-Najswietszej-Maryi-Panny-Krolowej-Polski"
"Parafia Świętego Wojciecha i Świętego Brata Alberta Chmielowskiego","83-334","Miechucino","83-334 Miechucino, Kościelna 2","","","58 684 28 84","ks. Piotr Grabowski","","","","","http://www.diecezja-pelplin.pl/dekanaty-i-parafie?pid=104&sid=344:Parafia-Swietego-Wojciecha-i-Swietego-Brata-Alberta-Chmielowskiego"
"Parafia Świętego Kazimierza","76-243","Mikorowo","76-243 Mikorowo","","","59 821 22 28","ks. Bolesław Konewka","","","","","http://www.diecezja-pelplin.pl/dekanaty-i-parafie?pid=104&sid=307:Parafia-Swietego-Kazimierza"
"Parafia Świętego Jana Chrzciciela","83-329","Mirachowo","83-329 Mirachowo, Kartuska 5","","","58 685 56 23","ks. Bogdan Myszk","","","","","http://www.diecezja-pelplin.pl/dekanaty-i-parafie?pid=104&sid=345:Parafia-Swietego-Jana-Chrzciciela"
"Miłobądz - Parafia Macierzyństwa Najświętszej Maryi Panny","83-111","Miłobądz","83-111 Miłobądz, Pamięci Narodowej 23,","","","58 530 04 79","ks. Aleksander Cesling, mgr teol.","godz. 7.45, 10.15, 12.15 ","godz. 17.00 (zimą), 18.00 (latem)","godz. 9.00, 15.30, 18.00 ","","http://www.diecezja-pelplin.pl/dekanaty-i-parafie?pid=104&sid=403:Milobadz-Parafia-Macierzynstwa-Najswietszej-Maryi-Panny"
"Parafia Świętego Józefa","89-650","Mokre koło Czerska","89-650 Mokre koło Czerska, Mokre 2","","","52 398 60 08","ks. Dariusz Cieszyński","godz. 8.00, 9.30, 11.00 ","godz. 17.00 (zimą), 18.00 (latem)","godz. 10.00, 18.00 ","","http://www.diecezja-pelplin.pl/dekanaty-i-parafie?pid=104&sid=182:Parafia-Swietego-Jozefa"
"Parafia Świętego Brata Alberta Chmielowskiego","84-300","Mosty","84-300 Mosty, św. Brata Alberta","","","59 861 29 86","ks. Jacek Giełdon","","","","","http://www.diecezja-pelplin.pl/dekanaty-i-parafie?pid=104&sid=281:Parafia-Swietego-Brata-Alberta-Chmielowskiego"
"Parafia Wniebowzięcia Najświętszej Maryi Panny","83-321","Mściszewice","83-321 Mściszewice","","","58 684 48 13","ks. Ireneusz Lehmann","","","","","http://www.diecezja-pelplin.pl/dekanaty-i-parafie?pid=104&sid=386:Parafia-Wniebowziecia-Najswietszej-Maryi-Panny"
"Parafia Świętej Jadwigi Królowej","77-127","Nakla","77-127 Nakla, Nakla 16b","","","59 823 12 23","Ks. Leszek CAŁA","godz. 9.00, 11.00 latem: godz. 7.00, 9.30 (Grabowo), 11.00 ","godz. 17.00 (zimą), 18.00 (latem)","godz. 9:00, 17.00 ","54.180188293,17.502345064063","http://www.diecezja-pelplin.pl/dekanaty-i-parafie?pid=104&sid=162:Parafia-Swietej-Jadwigi-Krolowej"
"Parafia Świętego Mikołaja","83-423","Niedamowo","83-423 Niedamowo, Niedamowo 40","","","58 686 17 11","ks. Dariusz Wiczling","","","","","http://www.diecezja-pelplin.pl/dekanaty-i-parafie?pid=104&sid=269:Parafia-Swietego-Mikolaja"
"Parafia Świętego Jakuba Apostoła","86-120","Niewieścin","86-120 Niewieścin, Niewieścin 19","","","52 332 05 09","ks. Andrzej Danielski","","","","","http://www.diecezja-pelplin.pl/dekanaty-i-parafie?pid=104&sid=258:Parafia-Swietego-Jakuba-Apostola"
"Parafia Świętego Mikołaja Biskupa","77-132","Niezabyszewo","77-132 Niezabyszewo, Niezabyszewo 33","","","59 821 17 22","ks. Tadeusz Łukaszewicz","godz. 8.00, 11.00 godz. 9.30 (Rekowo), 13.00 (Tągowie) ","godz. 17.30 (zimą), 18.00 (latem)","godz. 8.00, 18.00 ","54.1367204,17.4232184","http://www.diecezja-pelplin.pl/dekanaty-i-parafie?pid=104&sid=163:Parafia-Swietego-Mikolaja-Biskupa"
"Parafia Wniebowzięcia Najświętszej Maryi Panny","83-132 Morzeszczyn","Nowa Cerkiew","83-132 Morzeszczyn Nowa Cerkiew, Kościelna 48,","","","58 536 22 07","ks. Stanisław Borzyszkowski","godz. 8.00 (Bielawki), 9.15, 10.15 (Kulice) godz. 11.15 ","godz. 6.30 (Bielawki), 17.30 soboty: 16.00 (Kulice)","godz. 9.00, 17.30 ","","http://www.diecezja-pelplin.pl/dekanaty-i-parafie?pid=104&sid=327:Parafia-Wniebowziecia-Najswietszej-Maryi-Panny"
"Parafia Świętej Marii Magdaleny","89-641","Nowa Cerkiew","89-641 Nowa Cerkiew, pl. Kościelny 1","","","52 397 88 34","ks. Jarosław Kaźmierczak","","","","","http://www.diecezja-pelplin.pl/dekanaty-i-parafie?pid=104&sid=333:Parafia-Swietej-Marii-Magdaleny"
"Parafia Świętego Antoniego z Padwy","83-404","Nowa Karczma","83-404 Nowa Karczma","","","58 687 71 78","ks. Jan Spierewka","","","","","http://www.diecezja-pelplin.pl/dekanaty-i-parafie?pid=104&sid=270:Parafia-Swietego-Antoniego-z-Padwy"
"Parafia Niepokalanego Poczęcia Najświętszej Maryi Panny","84-351","Nowa Wieś Lęborska","84-351 Nowa Wieś Lęborska, Grunwaldzka 47","","","59 861 22 27","ks. Andrzej Diedrych","","","","","http://www.diecezja-pelplin.pl/dekanaty-i-parafie?pid=104&sid=284:Parafia-Niepokalanego-Poczecia-Najswietszej-Maryi-Panny"
"Parafia Świętego Mateusza Apostoła i Ewangelisty","86-170","Nowe nad Wisłą","86-170 Nowe nad Wisłą, Krótka 7","","","52 332 75 11","Ks. Grzegorz KAISER","godz. 6.30, 8.00, 9.30, 11.00 godz. 12.30 (kościół filialny), 17.00 ","godz. 7.00, 18.00 sobota: godz. 14.00 (Zakład Poprawczy)","godz. 7.00, 9.30, 18.00 ","","http://www.diecezja-pelplin.pl/dekanaty-i-parafie?pid=104&sid=317:Parafia-Swietego-Mateusza-Apostola-i-Ewangelisty"
"Parafia Matki Boskiej Królowej Polski","83-422","Nowy Barkoczyn","83-422 Nowy Barkoczyn","","","58 688 20 81","ks. Mieczysław Drewek","","","","","http://www.diecezja-pelplin.pl/dekanaty-i-parafie?pid=104&sid=354:Parafia-Matki-Boskiej-Krolowej-Polski"
"Parafia Świętego Antoniego Padewskiego","77-115","Nożyno","77-115 Nożyno","","","59 821 25 01","ks. Sylwester Bąk","","","","","http://www.diecezja-pelplin.pl/dekanaty-i-parafie?pid=104&sid=308:Parafia-Swietego-Antoniego-Padewskiego"
"Parafia Matki Bożej Częstochowskiej","76-211","Objazda","76-211 Objazda","","","59 814 17 37","ks. Stanisław Fortuński","godz. 8.00, 9.30 (Rowy), 11.00 ","godz. 17.00 (zimą), 1:800 (latem)","latem godz. 17.30, 19.00 (Rowy) zimą godz. 15.30 (Rowy), 17.00 ","","http://www.diecezja-pelplin.pl/dekanaty-i-parafie?pid=104&sid=199:Parafia-Matki-Bozej-Czestochowskiej"
"Parafia Świętych Apostołów Filipa i Jakuba","89-430","Obkas","89-430 Obkas, Obkas 34","","","52 388 15 30","o. Dariusz Wiktorek OCD","godz. 9.30, 11.00 ","godz. 17.00 (I piątek miesiąca)","godz. 17.00 ","","http://www.diecezja-pelplin.pl/dekanaty-i-parafie?pid=104&sid=235:Parafia-Swietych-Apostolow-Filipa-i-Jakuba"
"Parafia Matki Bożej Królowej Polski","83-240 Lubichowo","Ocypel","83-240 Lubichowo Ocypel, Główna 4","","","58 582 13 92","ks. Mariusz Herold","","","","","http://www.diecezja-pelplin.pl/dekanaty-i-parafie?pid=104&sid=368:Parafia-Matki-Bozej-Krolowej-Polski"
"Parafia Wniebowzięcia Najświętszej Maryi Panny","89-651 Gotelp","Odry","89-651 Gotelp Odry, Strażacka 4","","","52 398 61 92","ks. Mieczysław Patałuch","godz. 8.00, 10.30 ","godz. 17.00 (zimą), 18.00 (latem)","godz. 9.00, 18.00 ","","http://www.diecezja-pelplin.pl/dekanaty-i-parafie?pid=104&sid=183:Parafia-Wniebowziecia-Najswietszej-Maryi-Panny"
"Parafia Podwyższenia Krzyża Świętego","89-665","Ogorzeliny","89-665 Ogorzeliny, Sławęcińska 2","","","52 398 79 86,","ks. Eugeniusz Pepliński,","godz. 7.45, 9.30, 11.00 ","godz. 7.00 (wtorek i czwartek) 17.30 lub 18.30","godz. 9.00, 17.30 lub 18.30 ","","http://www.diecezja-pelplin.pl/dekanaty-i-parafie?pid=104&sid=236:Parafia-Podwyzszenia-Krzyza-Swietego"
"Parafia Świętych Apostołów Piotra i Pawła w Opaleniu","83-136","Opalenie","83-136 Opalenie","","","58 535 18 94","ks. Waldemar Opłatkowski","godz. 8.30, 10.30, 16.00 ","godz. 16.00","godz. 8.30, 10.30, 16.00 ","","http://www.diecezja-pelplin.pl/dekanaty-i-parafie?pid=104&sid=218:Parafia-Swietych-Apostolow-Piotra-i-Pawla-w-Opaleniu"
"Parafia Podwyższenia Krzyża Świętego","86-150","Osie","86-150 Osie, Kościelna 1","","","52 332 95 02","ks. Konrad Baumgart, mgr teol.","godz. 8.00, 9.30 (Tleń), 10.00, 11.45 godz. 17.00 (od XI-III), 18.00 (latem) ","latem godz. 8.00 i 18.00 zimą godz. 8.00 i 17.00","godz. 7.00, 10.00, 16.00, 17.00 (Tleń), 18.00 ","","http://www.diecezja-pelplin.pl/dekanaty-i-parafie?pid=104&sid=230:Parafia-Podwyzszenia-Krzyza-Swietego"
"Parafia Niepokalanego Poczęcia Najświętszej Maryi Panny","83-242","Osieczna","83-242 Osieczna, os. ks. F. Czaplińskiego 4","","","58 588 14 92","ks. Tadeusz Wandtka","latem: godz. 8.00, 10.30, 15.00 zimą: godz. 8.30, 11.00, 15.00 ","godz. 8.00, 16.30 (zimą), 17.30. (latem)","godz. 10.00, 16.00, 17.00 ","","http://www.diecezja-pelplin.pl/dekanaty-i-parafie?pid=104&sid=184:Parafia-Niepokalanego-Poczecia-Najswietszej-Maryi-Panny"
"Parafia Świętego Rocha Sanktuarium św. Rocha","83-221","Osiek","83-221 Osiek, Wyzwolenia 4","","","58 582 12 12, tel./fax 58 582 10 05","ks. Zdzisław Ossowski","","","","","http://www.diecezja-pelplin.pl/dekanaty-i-parafie?pid=104&sid=369:Parafia-Swietego-Rocha-Sanktuarium-sw-Rocha"
"Parafia Świętego Maksymiliana Marii Kolbego","83-440 Karsin","Osowo","83-440 Karsin Osowo, Wielewska 17","","","58 687 32 42","ks. Mariusz Drogosz","godz. 8.00, 10.00 nabożeństw: ","godz. 17.00 (zimą), 18.00","godz. 10.00, 18.00 ","53.87413073559,17.893363270703","http://www.diecezja-pelplin.pl/dekanaty-i-parafie?pid=104&sid=151:Parafia-Swietego-Maksymiliana-Marii-Kolbego"
"Parafia Świętego Jakuba Apostoła","89-662","Ostrowite koło Chojnic","89-662 Ostrowite koło Chojnic","","","52 398 74 13","ks. Janusz Pawlak","","","","","http://www.diecezja-pelplin.pl/dekanaty-i-parafie?pid=104&sid=334:Parafia-Swietego-Jakuba-Apostola"
"Parafia Zwiastowania Najświętszej Maryi Panny","83-213","Pączewo","83-213 Pączewo","","","58 562 00 25","ks. Ireneusz Nowak,","","","","","http://www.diecezja-pelplin.pl/dekanaty-i-parafie?pid=104&sid=370:Parafia-Zwiastowania-Najswietszej-Maryi-Panny"
"Parafia Świętego Mikołaja","77-124","Parchowo","77-124 Parchowo, Kościelna 8","","","59 821 44 85","ks. Antoni Mazur","godz. 7.00, 9.30, 11.30 ","godz. 17.00 (zimą), 18.00 (latem)","godz. 7.00, 10.00, 17.00 ","54.164137533198,17.491992980469","http://www.diecezja-pelplin.pl/dekanaty-i-parafie?pid=104&sid=164:Parafia-Swietego-Mikolaja"
"Parafia Świętego Mikołaja","89-620 Chojnice","Pawłowo","89-620 Chojnice Pawłowo, Okrężna 1","","","52 397 95 75","ks. Brunon Lubiński","","","","","http://www.diecezja-pelplin.pl/dekanaty-i-parafie?pid=104&sid=335:Parafia-Swietego-Mikolaja"
"Parafia Katedralna Wniebowzięcia Najświętszej Maryi Panny Bazylika Mniejsza","83-130","Pelplin","83-130 Pelplin, pl. Mariacki 2","","","58 536 15 64, http://parafia-pelplin.pl/","ks. inf. Tadeusz Brzeziński, mgr teol.","godz. 7.00, 8.30, 10.00, 12.00, 13.30, 16.00 w kościele Bożego Ciała godz. 18.00 Nieszpory lub nabożeństwo okresowe w katedrze godz. 15.00 ","godz. 7.00, 8.00 w kościele Bożego Ciała godz. 18.00","godz. 7.00, 8.00, 17.00, 18.00 ","","http://www.diecezja-pelplin.pl/dekanaty-i-parafie?pid=104&sid=328:Parafia-Katedralna-Wniebowziecia-Najswietszej-Maryi-Panny-Bazylika-Mniejsza"
"Parafia Narodzenia Najświętszej Maryi Panny Sanktuarium Królowej Pomorza i Matki Jedności","83-123","Piaseczno","83-123 Piaseczno","","","58 535 14 23, www.sanktuarium-piaseczno.pl","ks. Andrzej Ossowski, mgr teol., wicedziekan","godz. 7.50 (Rakowiec), 9.00, 10.30, 16.00 ","godz. 7.30 (wtorek i czwartek), 18.00 Rakowiec: sobota: godz. 15.30 (zimą), 16.50 (latem)","godz. 9.00, 17.00 ","","http://www.diecezja-pelplin.pl/dekanaty-i-parafie?pid=104&sid=219:Parafia-Narodzenia-Najswietszej-Maryi-Panny-Sanktuarium-Krolowej-Pomorza-i-Matki-Jednosci"
"Parafia Najświętszego Serca Pana Jezusa","83-261","Piece","83-261 Piece, Kościelna 10","","","58 587 18 08","ks. Witold Szumiato","","","","","http://www.diecezja-pelplin.pl/dekanaty-i-parafie?pid=104&sid=425:Parafia-Najswietszego-Serca-Pana-Jezusa"
"Parafia Świętego Jana Chrzciciela","83-135","Pieniążkowo","83-135 Pieniążkowo","","","58 562 39 45","ks. Roman Ossowski, mgr teol.","godz. 7.20, 9.30, 11.30 ","godz. 16.10 (zimą), 17.30 (latem)","godz. 9.30, 17.30 ","","http://www.diecezja-pelplin.pl/dekanaty-i-parafie?pid=104&sid=318:Parafia-Swietego-Jana-Chrzciciela"
"Parafia Świętej Elżbiety","83-251","Pinczyn","83-251 Pinczyn, Główna 25","","","58 588 45 84","ks. Mieczysław Bizoń","","","","","http://www.diecezja-pelplin.pl/dekanaty-i-parafie?pid=104&sid=426:Parafia-Swietej-Elzbiety"
"Parafia Świętych Apostołów Piotra i Pawła","83-236","Pogódki","83-236 Pogódki, ks. Kellera 1","","","58 588 11 28","ks. Janusz Grzybek","","","","","http://www.diecezja-pelplin.pl/dekanaty-i-parafie?pid=104&sid=355:Parafia-Swietych-Apostolow-Piotra-i-Pawla"
"Parafia Trójcy Świętej","77-300","Polnica","77-300 Polnica, Polnica 81","","","59 832 34 11, kom. 784 751 098","ks. Stanisław Miotke, mgr teol.","godz. 9.00, 11.15 godz. 12.30 (Kiełpin) ","godz. 18.00","godz. 9.00, 18.00 ","","http://www.diecezja-pelplin.pl/dekanaty-i-parafie?pid=104&sid=193:Parafia-Trojcy-Swietej"
"Parafia Świętego Bartłomieja","86-122","Polskie Łąki","86-122 Polskie Łąki","","","52 331 75 60","ks. Romuald Demski","","","","","http://www.diecezja-pelplin.pl/dekanaty-i-parafie?pid=104&sid=288:Parafia-Swietego-Bartlomieja"
"Parafia Niepokalanego Serca Najświętszej Maryi Panny","77-100","Pomysk Wielki","77-100 Pomysk Wielki, Pomysk Wielki 23","","","59 823 13 25","ks. Wojciech Bernard Hapka","godz. 8.30, 11.00 ","godz. 17.00","godz. 9.00, 17.00 ","54.208262,17.5575761","http://www.diecezja-pelplin.pl/dekanaty-i-parafie?pid=104&sid=165:Parafia-Niepokalanego-Serca-Najswietszej-Maryi-Panny"
"Parafia Świętych Apostołów Piotra i Pawła","77-143","Półczno","77-143 Półczno","","","59 821 43 23, www.parafiapolczno.cba.pl","ks. Krzysztof Kosobucki","godz. 8.00, 10.00 (Msza św. dla dzieci), 11.30 ","godz. 18.00","godz. 18.00 ","54.1514054,17.6389745","http://www.diecezja-pelplin.pl/dekanaty-i-parafie?pid=104&sid=166:Parafia-Swietych-Apostolow-Piotra-i-Pawla"
"Parafia Matki Boskiej Częstochowskiej","83-300","Prokowo","83-300 Prokowo, Kościelna 1","","","58 684 08 48","ks. Grzegorz Lewandowski, dr teol.","godz. 8 00, 10 00 ","godz. 17 00 (zimą), 18 00 (latem)","godz. 10 00, 18 00 ","","http://www.diecezja-pelplin.pl/dekanaty-i-parafie?pid=104&sid=250:Parafia-Matki-Boskiej-Czestochowskiej"
"Parafia Narodzenia Najświętszej Maryi Panny","89-520 Gostycyn","Pruszcz Bagienica","89-520 Gostycyn Pruszcz Bagienica, Kościelna 24","","","52 334 66 06","ks. Stefan Czarnecki","","","","","http://www.diecezja-pelplin.pl/dekanaty-i-parafie?pid=104&sid=414:Parafia-Narodzenia-Najswietszej-Maryi-Panny"
"Parafia Trójcy Świętej","86-120","Pruszcz k. Bydgoszczy","86-120 Pruszcz k. Bydgoszczy, pl. Jana Pawła II 1","","","52 330 80 25","ks. Jerzy Mroczyński","","","","","http://www.diecezja-pelplin.pl/dekanaty-i-parafie?pid=104&sid=259:Parafia-Trojcy-Swietej"
"Parafia Świętej Anny","77-320 Przechlewo","Przechlewo","77-320 Przechlewo Przechlewo, Młyńska 3","","","59 833 46 12","ks. Krzysztof Jakubek","godz. 7.30, 9.00, 11.00, 17.00 (filia) ","godz. 17.00 (zimą), 18.00 (latem)","godz. 11.00, 17.00 ","53.800215192865,17.253031416455","http://www.diecezja-pelplin.pl/dekanaty-i-parafie?pid=104&sid=140:Parafia-Swietej-Anny"
"Parafia Świętego Andrzeja Apostoła","83-304","Przodkowo","83-304 Przodkowo, Kartuska 3","","","58 681 97 22","ks. Wacław Mielewczyk","godz. 7 15, 9 00, 11 00, 12 45 (Kobysewo) godz. 18 00 ","godz. 7 00, 18 00","godz. 7 00, 10 00, 16 00, 18 00 ","","http://www.diecezja-pelplin.pl/dekanaty-i-parafie?pid=104&sid=251:Parafia-Swietego-Andrzeja-Apostola"
"Przysiersk - Parafia Świętego Wawrzyńca","86-122 Bukowiec Pomorski","Przysiersk","86-122 Bukowiec Pomorski Przysiersk","","","52 332 27 22","ks. Ireneusz Lehmann","godz. 8.00 (kaplica), 10.30, 16.00 godz. 18.00 (latem) ","godz. 7.00","godz. 8.00 (kaplica), 10.30, 16.00 godz. 18.00 (latem) ","","http://www.diecezja-pelplin.pl/dekanaty-i-parafie?pid=104&sid=393:Przysiersk-Parafia-Swietego-Wawrzynca"
"Parafia Świętego Wawrzyńca SANKTUARIUM MARYJNE MATKI KOŚCIOŁA","86-160 Warlubie","Płochocin","86-160 Warlubie Płochocin","","","52 332 62 58","ks. Stanisław Wilkowski, mgr teol.","godz. 8.30, 10.30 ","godz. 17.00 (zimą), 18.00","godz. 10.30, 18.00 ","","http://www.diecezja-pelplin.pl/dekanaty-i-parafie?pid=104&sid=319:Parafia-Swietego-Wawrzynca-SANKTUARIUM-MARYJNE-MATKI-KOSCIOLA"
"Parafia Świętego Józefa Oblubieńca Najświętszej Maryi Panny","89-430","Płocicz","89-430 Płocicz","","","52 388 71 20","ks. Piotr Dunst, mgr teol.","godz. 9.00, 11.00 ","godz. 17.00 (zimą), 18.00 (latem)","godz. 9.00, 16.30 (zimą), 18.00 (latem) ","","http://www.diecezja-pelplin.pl/dekanaty-i-parafie?pid=104&sid=237:Parafia-Swietego-Jozefa-Oblubienca-Najswietszej-Maryi-Panny"
"Parafia Świętej Trójcy","89-502","Raciąż","89-502 Raciąż, Kasztelańska 4","","","52 336 17 28, 52 559 25 53","ks. Henryk Fetke","","","","","http://www.diecezja-pelplin.pl/dekanaty-i-parafie?pid=104&sid=336:Parafia-Swietej-Trojcy"
"Parafia Świętego Bartłomieja","83-130 Pelplin","Rajkowy","83-130 Pelplin Rajkowy","","","58 536 17 91","ks. Jerzy Kryger","godz. 8.00, 10.30, 16.00 ","godz. 17.30 (zimą), 18.00 (latem)","godz. 8.00, 17.30, 18.00 ","","http://www.diecezja-pelplin.pl/dekanaty-i-parafie?pid=104&sid=329:Parafia-Swietego-Bartlomieja"
"Parafia Świętego Michała Archanioła","83-422 Nowy Barkoczyn","Rekownica","83-422 Nowy Barkoczyn Rekownica","","","58 687 74 09","ks. Zbigniew Wysiecki","","","","","http://www.diecezja-pelplin.pl/dekanaty-i-parafie?pid=104&sid=271:Parafia-Swietego-Michala-Archaniola"
"Parafia Świętego Andrzeja Boboli","77-123","Rokity","77-123 Rokity","","","59 821 28 23","ks. Mariusz Łącki","","","","","http://www.diecezja-pelplin.pl/dekanaty-i-parafie?pid=104&sid=309:Parafia-Swietego-Andrzeja-Boboli"
"Parafia Świętego Wojciecha Biskupa i Męczennika","84-219","Rozłazino","84-219 Rozłazino, Długa 27","","","58 678 99 86, www.parafiarozlazino.pl","ks. Sławomir Kozioł, dr teologii","godz. 8.00 (Nawcz), 9.00 godz. 10.00 (Dzięcielec) godz. 11.00 (Popowo), 12.30","","","","http://www.diecezja-pelplin.pl/dekanaty-i-parafie?pid=104&sid=282:Parafia-Swietego-Wojciecha-Biskupa-i-Meczennika"
"Parafia Świętej Trójcy i Świętej Jadwigi Śląskiej","77-300","Rychnowy","77-300 Rychnowy, Rychnowy 69","","","59 832 33 53","ks. Franciszek Sowiźrał","godz. 8.00, 10.00 (Brzeźno), 12.00 ","godz. 18.00","godz. 12.00, 16.30, 18.00 ","","http://www.diecezja-pelplin.pl/dekanaty-i-parafie?pid=104&sid=194:Parafia-Swietej-Trojcy-i-Swietej-Jadwigi-Slaskiej"
"Parafia Świętego Rocha","86-183 Błądzim","Rykowisko","86-183 Błądzim Rykowisko","","","52 332 92 32","ks. Janusz Zgódka","","","","","http://www.diecezja-pelplin.pl/dekanaty-i-parafie?pid=104&sid=289:Parafia-Swietego-Rocha"
"Parafia Najświętszej Maryi Panny Królowej Różańca Świętego","89-642","Rytel","89-642 Rytel, ks. A. Kowalkowskiego 1","","","52 398 51 60","ks. Tomasz Lewandowski","","","","","http://www.diecezja-pelplin.pl/dekanaty-i-parafie?pid=104&sid=337:Parafia-Najswietszej-Maryi-Panny-Krolowej-Rozanca-Swietego"
"Parafia Świętego Wawrzyńca","77-320 Przechlewo","Sąpolno","77-320 Przechlewo Sąpolno, Sąpolno 24","","","59 833 48 76","ks. Ireneusz Brzeziński","godz. 8.00, 9.30 (Nowa Wieś), 11.15 ","godz. 17.00 (X-III), 18.00 (IV-IX)","godz. 10.00, 16.30 (Nowa Wieś), 18.00 ","53.806855296926,17.334055586377","http://www.diecezja-pelplin.pl/dekanaty-i-parafie?pid=104&sid=141:Parafia-Swietego-Wawrzynca"
"Parafia Świętej Anny","84-352","Sarbsk","84-352 Sarbsk","","","59 866 31 79","ks. Kazimierz Stachowiak","","","","","http://www.diecezja-pelplin.pl/dekanaty-i-parafie?pid=104&sid=299:Parafia-Swietej-Anny"
"Sartowice - Parafia Świętej Barbary","86-100 Świecie","Sartowice","86-100 Świecie Sartowice, Sartowice 29","","","52 331 99 25","ks. Ireneusz Machut, mgr teol.","godz. 8.30, 10.15 (Wiąg), 12.00 dni powszednie: godz. 16.00 (zimą), 17.00 (latem)","godz. 16.00 (zimą), 17.00 (latem)","","","http://www.diecezja-pelplin.pl/dekanaty-i-parafie?pid=104&sid=394:Sartowice-Parafia-Swietej-Barbary"
"Parafia Miłosierdzia Bożego","84-210","Sasino","84-210 Sasino, Lipowa 3","","","58 572 41 99","ks. Grzegorz Rybicki","","","","","http://www.diecezja-pelplin.pl/dekanaty-i-parafie?pid=104&sid=300:Parafia-Milosierdzia-Bozego"
"Parafia Matki Bożej Różańcowej","86-120","Serock Pomorski","86-120 Serock Pomorski, Wyzwolenia 26","","","52 382 95 19","ks. Tadeusz Daniszewski","","","","","http://www.diecezja-pelplin.pl/dekanaty-i-parafie?pid=104&sid=260:Parafia-Matki-Bozej-Rozancowej"
"PARAFIA NARODZENIA NAJŚWIĘTSZEJ MARYI PANNY SANKTUARIUM NMP KRÓLOWEJ KASZUB","83-328","Sianowo","83-328 Sianowo","","","58 685 57 76","ks. Eugeniusz Jan Grzędzicki","godz. 7.30, 9.00 9.45 (Pomieczyńska Huta), 11.00, 18.00 ","godz. 18.00 (zimą), 19.00 (latem) godz. 9.45 (Sianowska Huta w 2 i 4 sobotę)","godz. 8.00, 16.00 (dzieci), 18.00 ","","http://www.diecezja-pelplin.pl/dekanaty-i-parafie?pid=104&sid=252:PARAFIA-NARODZENIA-NAJSWIETSZEJ-MARYI-PANNY-SANKTUARIUM-NMP-KROLOWEJ-KASZUB"
"Parafia Wojskowo-Cywilna Świętego Ignacego Loyoli","84-313","Siemirowice","84-313 Siemirowice, os. Na Skarpie 1/10","","","59 861 45 06","ks. Tomasz Osmałek","","","","54.401287,17.7561933","http://www.diecezja-pelplin.pl/dekanaty-i-parafie?pid=104&sid=310:Parafia-Wojskowo-Cywilna-Swietego-Ignacego-Loyoli"
"Parafia św. Ignacego Loyoli w Siemirowicach","84-313","Siemirowice","84-313 Siemirowice, os. Na Skarpie 1/10","","","730 267 538","ks. Tomasz OSMAŁEK","godz. 9.30, 11.00 święta zniesione: godz. 17.00 dni powszednie: godz. 17.00 (zimą), 18.00 (latem) www.parafia-siemirowice.pl","godz. 17.00 (zimą), 18.00 (latem) www.parafia-siemirowice.pl","","54.401287,17.7561933","http://www.diecezja-pelplin.pl/dekanaty-i-parafie?pid=104&sid=431:Parafia-sw-Ignacego-Loyoli-w-Siemirowicach"
"Parafia Świętego Jana Chrzciciela","83-340","Sierakowice","83-340 Sierakowice, Kartuska 25a","","","58 681 61 10","ks. Marek Wera","","","","","http://www.diecezja-pelplin.pl/dekanaty-i-parafie?pid=104&sid=346:Parafia-Swietego-Jana-Chrzciciela"
"Parafia Świętego Marcina","83-340","Sierakowice","83-340 Sierakowice, Kartuska 1","","","58 684 79 25","ks. Bronisław Dawicki","","","","","http://www.diecezja-pelplin.pl/dekanaty-i-parafie?pid=104&sid=347:Parafia-Swietego-Marcina"
"Parafia Świętych Apostołów Piotra i Pawła","86-140 Drzycim","Sierosław","86-140 Drzycim Sierosław, Sierosław 71a","","","52 331 70 91","ks. January Cybulski, mgr teol.","godz. 8.00, 10.00 ","godz. 8.00 (poniedziałek i czwartek) godz. 17.00 (wtorek, środa, piątek) godz. 17.30 (sobota)","godz. 9.00, 17.00 ","53.4931795,18.3150271","http://www.diecezja-pelplin.pl/dekanaty-i-parafie?pid=104&sid=231:Parafia-Swietych-Apostolow-Piotra-i-Pawla"
"Parafia Niepokalanego Serca Najświętszej Maryi Panny","89-620 Chojnice","Silno","89-620 Chojnice Silno, Gockowicka 4","","","52 398 76 80","ks. Wojciech Klunder","","","","","http://www.diecezja-pelplin.pl/dekanaty-i-parafie?pid=104&sid=338:Parafia-Niepokalanego-Serca-Najswietszej-Maryi-Panny"
"Parafia Świętego Maksymiliana Marii Kolbego","83-250","Skarszewy","83-250 Skarszewy, Szkolna 5","","","kom. 725 595 917","ks. Dariusz Leman","","","","","http://www.diecezja-pelplin.pl/dekanaty-i-parafie?pid=104&sid=356:Parafia-Swietego-Maksymiliana-Marii-Kolbego"
"Parafia Świętego Michała Archanioła","83-250","Skarszewy","83-250 Skarszewy, ks. Ściegiennego 2","","","58 588 27 50, www.skarszewyparafia.pl","ks. Ryszard Konefał","","","","","http://www.diecezja-pelplin.pl/dekanaty-i-parafie?pid=104&sid=357:Parafia-Swietego-Michala-Archaniola"
"Parafia Wszystkich Świętych","83-220","Skórcz","83-220 Skórcz, Kościelna 5","","","58 582 48 14, 58 582 42 57","ks.Dariusz Ryłko","","","","","http://www.diecezja-pelplin.pl/dekanaty-i-parafie?pid=104&sid=371:Parafia-Wszystkich-Swietych"
"Parafia Świętego Stanisława Biskupa i Męczennika","76-230","Skórowo","76-230 Skórowo, Skórowo Stare 12","","","59 811 50 08","ks. Waldemar Pielecki, mgr teol.","godz. 10.45 Żychlin: godz. 9.00 Potęgowo: godz. 9.00, 12.30 Darżewo: godz. 10.45 Głuszyno: godz. 12.30 ","","godz. 17.00","","http://www.diecezja-pelplin.pl/dekanaty-i-parafie?pid=104&sid=200:Parafia-Swietego-Stanislawa-Biskupa-i-Meczennika"
"Parafia Matki Bożej Nieustającej Pomocy","83-400 Kościerzyna","Skorzewo","83-400 Kościerzyna Skorzewo","","","58 686 48 18","ks. Eugeniusz Filipski","","","","","http://www.diecezja-pelplin.pl/dekanaty-i-parafie?pid=104&sid=387:Parafia-Matki-Bozej-Nieustajacej-Pomocy"
"Parafia Ciała i Krwi Pańskiej","83-230","Smętowo Graniczne","83-230 Smętowo Graniczne, Starogardzka 5","","","58 561 95 11","ks. Leszek Kozłowski, mgr teol.","godz. 8.00, 9.30, 11.00 oraz 17.00 ","godz. 17.00 (zimą), 18.00","godz. 10.00, 17.00 ","","http://www.diecezja-pelplin.pl/dekanaty-i-parafie?pid=104&sid=320:Parafia-Ciala-i-Krwi-Panskiej"
"Parafia Trójcy Świętej","76-214","Smołdzino","76-214 Smołdzino, Kościelna 1","","","59 811 72 64","ks. Robert Jakubowski","godz. 7.30 (wakacje), 8.30 godz. 10.00 (Smołdziński Las), 11.30 ","godz. 8.00 (poniedziałki, wtorki) godz. 17.30 (XI-III), 18.00 (środy – soboty) godz. 19.15 (soboty – Siecie)","godz. 15.00, 18.00 ","","http://www.diecezja-pelplin.pl/dekanaty-i-parafie?pid=104&sid=201:Parafia-Trojcy-Swietej"
"Parafia Przemienienia Pańskiego i Najświętszej Maryi Panny Królowej Polski","83-314","Somonino","83-314 Somonino, Siemiana 6","","","58 684 11 82","ks. Piotr Kardas, mgr teol.","godz. 7.30, 9.30, 11.15 ","godz. 18.00","godz. 8.00, 10.00, 18.00 ","","http://www.diecezja-pelplin.pl/dekanaty-i-parafie?pid=104&sid=253:Parafia-Przemienienia-Panskiego-i-Najswietszej-Maryi-Panny-Krolowej-Polski"
"Parafia Niepokalanego Serca Maryi","89-412","Sośno","89-412 Sośno, Bydgoska 11","","","52 389 12 18","ks. Andrzej Jaskuła","","","","","http://www.diecezja-pelplin.pl/dekanaty-i-parafie?pid=104&sid=261:Parafia-Niepokalanego-Serca-Maryi"
"Parafia Świętego Marcina w Starej Kiszewie","83-430","Stara Kiszewa","83-430 Stara Kiszewa, Tysiąclecia 28","","","58 687 63 05","ks. Andrzej Taliński","","","","","http://www.diecezja-pelplin.pl/dekanaty-i-parafie?pid=104&sid=427:Parafia-Swietego-Marcina-w-Starej-Kiszewie"
"Parafia Świętego Mikołaja","83-433","Stare Polaszki","83-433 Stare Polaszki","","","58 687 61 04","ks. Edward Zbigniew Dowbusz","","","","","http://www.diecezja-pelplin.pl/dekanaty-i-parafie?pid=104&sid=358:Parafia-Swietego-Mikolaja"
"Parafia Świętej Katarzyny Aleksandryjskiej","83-200","Starogard Gdański","83-200 Starogard Gdański, Tczewska 3","","","58 562 54 23, 58 562 37 87","ks. Witold Kreft","","","","","http://www.diecezja-pelplin.pl/dekanaty-i-parafie?pid=104&sid=375:Parafia-Swietej-Katarzyny-Aleksandryjskiej"
"Parafia Świętego Mateusza","83-200","Starogard Gdański","83-200 Starogard Gdański, gen. J. Hallera 3","","","58 562 28 75, www.swietymateusz.starogard.pl","ks. Eugeniusz Stencel","","","","","http://www.diecezja-pelplin.pl/dekanaty-i-parafie?pid=104&sid=376:Parafia-Swietego-Mateusza"
"Parafia Miłosierdzia Bożego","83-200","Starogard Gdański","83-200 Starogard Gdański, Lubichowska 56","","","kom. 501 890 751","ks. Grzegorz Weis","","","","","http://www.diecezja-pelplin.pl/dekanaty-i-parafie?pid=104&sid=377:Parafia-Milosierdzia-Bozego"
"Parafia Najświętszej Maryi Panny Matki Kościoła","83-200","Starogard Gdański","83-200 Starogard Gdański, Bohaterów Getta 4","","","58 562 99 19","ks. Ryszard Wiśniewski","","","","","http://www.diecezja-pelplin.pl/dekanaty-i-parafie?pid=104&sid=378:Parafia-Najswietszej-Maryi-Panny-Matki-Kosciola"
"Parafia Najświętszego Serca Pana Jezusa","83-200","Starogard Gdański","83-200 Starogard Gdański, bpa K. Dominika 8","","","58 562 22 07, fax 58 561 16 50","ks. Józef Pick","","","","","http://www.diecezja-pelplin.pl/dekanaty-i-parafie?pid=104&sid=379:Parafia-Najswietszego-Serca-Pana-Jezusa"
"Parafia Świętego Wojciecha","83-200","Starogard Gdański","83-200 Starogard Gdański, Pomorska 4a","","","58 562 28 81, www.wojciechstarogard.pl","ks. Janusz Lipski","","","","","http://www.diecezja-pelplin.pl/dekanaty-i-parafie?pid=104&sid=380:Parafia-Swietego-Wojciecha"
"Parafia Jezusa Chrystusa Króla Wszechświata","83-200","Starogard Gdański","83-200 Starogard Gdański, Skośna 36","","","58 561 21 23, fax 58 586 72 54,","ks. Stanisław Piastowski","","","","","http://www.diecezja-pelplin.pl/dekanaty-i-parafie?pid=104&sid=381:Parafia-Jezusa-Chrystusa-Krola-Wszechswiata"
"Parafia Świętej Katarzyny Aleksandryjskiej","83-322","Stężyca","83-322 Stężyca, Jana III Sobieskiego 14","","","58 684 33 09","ks. Bogdan Lipski","","","","","http://www.diecezja-pelplin.pl/dekanaty-i-parafie?pid=104&sid=388:Parafia-Swietej-Katarzyny-Aleksandryjskiej"
"Parafia Świętego Stanisława Biskupa i Męczennika","76-220","Stowięcino","76-220 Stowięcino, Stowięcino 17","","","59 811 66 69","ks. Piotr Sławomir Szuta, mgr teol.","godz. 8.00 (Rzechcino), 10.00, 11.30 ","godz. 17.00 (zimą), 18.00 (latem) we wtorki w Rzechcinie","godz. 10.00, 16.30 (Rzechcino), 18.00 ","","http://www.diecezja-pelplin.pl/dekanaty-i-parafie?pid=104&sid=202:Parafia-Swietego-Stanislawa-Biskupa-i-Meczennika"
"Parafia Świętej Marii Magdaleny","84-223 Linia","Strzepcz","84-223 Linia Strzepcz, ks. Rotty 9","","","58 676 82 20","ks. Andrzej Kmiecik","","","","","http://www.diecezja-pelplin.pl/dekanaty-i-parafie?pid=104&sid=348:Parafia-Swietej-Marii-Magdaleny"
"Subkowy - Parafia Świętego Stanisława Biskupa i Męczennika","83-120 Subkowy","Subkowy","83-120 Subkowy Subkowy, Kościelna 8","","","58 536 85 19, kom. 696 438 379","ks. Feliks Kamecki","godz. 7.30, 9.00, 10.15 (Brzuśce), 11.30 ","godz. 18.15, 17.00 (XII-III) godz. 16.00 (sobota – Gniszewo)","godz. 9.00, 16.00 (Brzuśce), 17.30 ","","http://www.diecezja-pelplin.pl/dekanaty-i-parafie?pid=104&sid=404:Subkowy-Parafia-Swietego-Stanislawa-Biskupa-i-Meczennika"
"Parafia Świętego Maksymiliana Marii Kolbego Kapłana i Męczennika","89-525","Sucha na Pomorzu","89-525 Sucha na Pomorzu, Słoneczna 2","","","52 334 90 61","ks. Czesław Kubera","","","","","http://www.diecezja-pelplin.pl/dekanaty-i-parafie?pid=104&sid=290:Parafia-Swietego-Maksymiliana-Marii-Kolbego-Kaplana-i-Meczennika"
"Parafia Trójcy Świętej","83-320","Sulęczyno","83-320 Sulęczyno, Zwycięstwa 8","","","58 684 40 30, kom. 606 630 748","ks. Andrzej Bolesław Karliński","","","","","http://www.diecezja-pelplin.pl/dekanaty-i-parafie?pid=104&sid=389:Parafia-Trojcy-Swietej"
"Parafia Świętego Jana Chrzciciela","83-200","Sumin","83-200 Sumin","","","58 562 10 81","ks. Stefan Rogowski","","","","","http://www.diecezja-pelplin.pl/dekanaty-i-parafie?pid=104&sid=382:Parafia-Swietego-Jana-Chrzciciela"
"Swarożyn - Parafia Świętego Andrzeja Boboli","83-115","Swarożyn","83-115 Swarożyn, Wyzwolenia 15","","","58 536 93 96","Ks. Piotr MALINOWSKI, dr teol.","godz. 7.30, 9.30, 11.30 ","godz. 17.00 (zimą), 18.00 (latem)","godz. 9.00, 18.00 ","","http://www.diecezja-pelplin.pl/dekanaty-i-parafie?pid=104&sid=405:Swarozyn-Parafia-Swietego-Andrzeja-Boboli"
"Parafia Świętej Barbary","89-608 Swornegacie","Swornegacie","89-608 Swornegacie Swornegacie, Mestwina 18","","","52 398 11 21","ks. Wojciech Książkiewicz","godz. 8.00, 10.00, 18.00 (latem) ","godz. 8.00 lub 18.00 (IV-X) godz. 8.00 lub 17.00 (XI-III)","godz. 8.00, 18.00 ","53.861400626365,17.500483879688","http://www.diecezja-pelplin.pl/dekanaty-i-parafie?pid=104&sid=142:Parafia-Swietej-Barbary"
"Parafia Świętych Apostołów Szymona i Judy Tadeusza","83-250","Szczodrowo","83-250 Szczodrowo","","","58 588 08 98","ks. Ryszard Jędrzejak","","","","","http://www.diecezja-pelplin.pl/dekanaty-i-parafie?pid=104&sid=359:Parafia-Swietych-Apostolow-Szymona-i-Judy-Tadeusza"
"Parafia Najświętszego Serca Jezusowego","83-242 Osieczna","Szlachta","83-242 Osieczna Szlachta, 3 Maja 77","","","58 588 13 24","ks. Andrzej Wałdoch, dziekan","godz. 7.30, 9.00, 10.30 ","godz. 17.00 (zimą), 18.00 (latem)","godz. 9.00, 17.00 ","","http://www.diecezja-pelplin.pl/dekanaty-i-parafie?pid=104&sid=185:Parafia-Najswietszego-Serca-Jezusowego"
"Parafia Świętej Teresy od Dzieciątka Jezus","83-315","Szymbark","83-315 Szymbark, Długa 18","","","58 684 38 21","ks. Grzegorz Fąferko","","","","","http://www.diecezja-pelplin.pl/dekanaty-i-parafie?pid=104&sid=390:Parafia-Swietej-Teresy-od-Dzieciatka-Jezus"
"Tczew - Parafia Świętego Józefa","83-110","Tczew","83-110 Tczew, Gdańska 6","","","58 531 33 12, 58 531 54 74 (biuro)","ks. Antoni Dunajski, dr teol.","godz. 6.30, 7.45, 9.30, 11.00, 12.30 godz. 18.00, 19.00 (latem) ","godz. 6.30, 7.00, 8.00, 18.30","godz. 6.30, 7.00, 8.00, 10.00, 17.00, 18.30 ","","http://www.diecezja-pelplin.pl/dekanaty-i-parafie?pid=104&sid=406:Tczew-Parafia-Swietego-Jozefa"
"Tczew - Parafia Podwyższenia Krzyża Świętego","83-110","Tczew","83-110 Tczew, Stefana Kard. Wyszyńskiego 13","","","58.5312518","ks. Piotr Wysga, www.fara.tczew.pl","godz. 6.30, 8.00, 9.30, 11.00, 12.30, 18.00 kościół filialny: godz. 10.00, 12.30 kaplica: godz. 8.00, 9.15 ","godz. 6.30, 8.00, 18.30","godz. 6.30, 8.00, 10.00, 17.00, 18.30 ","54.0879985,18.7991117","http://www.diecezja-pelplin.pl/dekanaty-i-parafie?pid=104&sid=407:Tczew-Parafia-Podwyzszenia-Krzyza-Swietego"
"Tczew - Parafia Świętego Maksymiliana Marii Kolbego","83-110","Tczew","83-110 Tczew, Spółdzielcza 1c","","","58 531 25 17","ks. Krzysztof Stoltmann, mgr teol.","godz. 8.00, 9.30, 11.30 ","godz. 18.00","godz. 8.00, 18.00 ","","http://www.diecezja-pelplin.pl/dekanaty-i-parafie?pid=104&sid=408:Tczew-Parafia-Swietego-Maksymiliana-Marii-Kolbego"
"Tczew - Parafia Najświętszej Maryi Panny Matki Kościoła","83-110","Tczew","83-110 Tczew, Rokicka 1","","","58 531 66 33 www.nmp-tczew.pelplin.opoka.org.pl","ks. Stanisław Cieniewicz, dziekan","godz. 7.00, 11.30, 17.00 – kościół dolny godz. 8.30, 10.00, 11.30, 13.00, 18.00 – kościół górny ","godz. 6.30, 8.00, 18.30 – kościół dolny","godz. 6.30, 8.00, 10.00, 17.00, 18.30 ","","http://www.diecezja-pelplin.pl/dekanaty-i-parafie?pid=104&sid=409:Tczew-Parafia-Najswietszej-Maryi-Panny-Matki-Kosciola"
"Tczew - Parafia Świętego Franciszka z Asyżu","83-110","Tczew","83-110 Tczew, Nałkowskiej 10","","","58 531 00 03","ks. Jan Buk, kanonik honorowy","godz. 8.00, 11.00, 16.00 ","godz. 18.00 (zimą), 18.30 (latem)","godz. 10.00, 18.30 ","","http://www.diecezja-pelplin.pl/dekanaty-i-parafie?pid=104&sid=410:Tczew-Parafia-Swietego-Franciszka-z-Asyzu"
"Tczew - Parafia Jezusa Chrystusa Króla Wszechświata","83-110","Tczew","83-110 Tczew, Jodłowa 15","","","58 533 89 29","ks. Janusz Gojke, mgr teol.","godz. 7.00, 8.30, 10.00, 11.30, 13.00, 18.00 ","godz. 7.00, 18.00","godz. 7.00, 10.00, 16.00, 18.00 ","","http://www.diecezja-pelplin.pl/dekanaty-i-parafie?pid=104&sid=411:Tczew-Parafia-Jezusa-Chrystusa-Krola-Wszechswiata"
"Topolno - Parafia Nawiedzenia Najświętszej Maryi Panny - Sanktuarium Maryjne","86-120 Pruszcz","Topolno","86-120 Pruszcz Topolno","","","52 332 06 93","ks. Andrzej Regent","godz. 8.00, 10.30 ","godzina uzależniona od pory roku","godz. 8.00, 17.00 (zimą), 18.00 ","","http://www.diecezja-pelplin.pl/dekanaty-i-parafie?pid=104&sid=400:Topolno-Parafia-Nawiedzenia-Najswietszej-Maryi-Panny-Sanktuarium-Maryjne"
"Parafia Matki Boskiej Częstochowskiej","83-340 Sierakowice","Tuchlino","83-340 Sierakowice Tuchlino","","","58 681 61 31","ks. Jarosław Dunajski","","","","","http://www.diecezja-pelplin.pl/dekanaty-i-parafie?pid=104&sid=349:Parafia-Matki-Boskiej-Czestochowskiej"
"Parafia Bożego Ciała","89-500","Tuchola","89-500 Tuchola, Świecka 24","","","52 336 38 21 (biuro parafialne)","ks. Ireneusz Kalf","","","","","http://www.diecezja-pelplin.pl/dekanaty-i-parafie?pid=104&sid=415:Parafia-Bozego-Ciala"
"Parafia Świętego Bartłomieja Apostoła","89-501","Tuchola","89-501 Tuchola, Wincentego Witosa 3","","","52 559 03 43","ks. Grzegorz Kielas","","","","","http://www.diecezja-pelplin.pl/dekanaty-i-parafie?pid=104&sid=416:Parafia-Swietego-Bartlomieja-Apostola"
"Parafia Świętego Jakuba Apostoła","89-500","Tuchola","89-500 Tuchola, pl. Wolności 30","","","52 334 35 23","ks. Jan Pałubicki","","","","","http://www.diecezja-pelplin.pl/dekanaty-i-parafie?pid=104&sid=417:Parafia-Swietego-Jakuba-Apostola"
"Parafia Opatrzności Bożej","89-500","Tuchola Rudzki Most","89-500 Tuchola Rudzki Most, Jana Pawła II 1","","","52 334 86 96","ks. Wiesław Herold","","","","","http://www.diecezja-pelplin.pl/dekanaty-i-parafie?pid=104&sid=418:Parafia-Opatrznosci-Bozej"
"Parafia Świętego Michała Archanioła","77-133","Tuchomie","77-133 Tuchomie, Kościelna 1","","","59 821 50 20","ks. Franciszek Pudlewski, mgr teol.","godz. 8.00 (Nowe Huty), 9.30 godz. 11.00, 12.30 (Modrzejewo) ","godz. 18.00","godz. 8.00, 9.30, 11.00, 18.00 ","54.114873188602,17.336379689038","http://www.diecezja-pelplin.pl/dekanaty-i-parafie?pid=104&sid=167:Parafia-Swietego-Michala-Archaniola"
"Parafia Matki Bożej Nieustającej Pomocy","83-113","Turze","83-113 Turze","","","58 536 77 77","ks. Mirosław Przechowski","","","","","http://www.diecezja-pelplin.pl/dekanaty-i-parafie?pid=104&sid=360:Parafia-Matki-Bozej-Nieustajacej-Pomocy"
"Parafia Świętego Michała Archanioła","83-140","Tymawa","83-140 Tymawa","","","58 535 19 45","ks. Janusz Kropiewnicki, dr teol.","godz. 8.00, 10.30 ","godz. 16.30 (zimą), 18.00","godz. 8.00, 18.00 ","","http://www.diecezja-pelplin.pl/dekanaty-i-parafie?pid=104&sid=220:Parafia-Swietego-Michala-Archaniola"
"Parafia Świętej Marii Magdaleny","77-143","Ugoszcz","77-143 Ugoszcz","","","59 821 47 94","ks. Bolesław Liss, kanonik honorowy","godz. 8.00, 10.45 Sominy: godz. 9.30, 11.00 (latem) Studzienice: godz. 8.00, 9.30, 12.00 ","godz. 17.00 (zimą), 19.00 (latem) Studzienice: godz. 18.00","godz. 11.00, 17.00 (zimą), 19.00 (latem) Sominy: godz. 16.00 Studzienice: godz. 10.00, 18.00 ","54.1249172,17.5287652","http://www.diecezja-pelplin.pl/dekanaty-i-parafie?pid=104&sid=168:Parafia-Swietej-Marii-Magdaleny"
"Parafia Wniebowzięcia Najświętszej Maryi Panny","83-406 Wąglikowice","Wąglikowice","83-406 Wąglikowice Wąglikowice","","","58 686 12 78","ks. Dariusz Jereczek","","","","","http://www.diecezja-pelplin.pl/dekanaty-i-parafie?pid=104&sid=272:Parafia-Wniebowziecia-Najswietszej-Maryi-Panny"
"Parafia Niepokalanego Serca Maryi","86-160","Warlubie","86-160 Warlubie, Dworcowa 24","","","52 332 60 11","ks. Mirosław Kopyto, mgr teol.","godz. 7.30, 9.15, 10.45, 16.00 ","godz. 9.00, 17.00 (zimą), 18.00 (latem)","godz. 9.00, 17.00 (zimą), 18.00 (latem) ","","http://www.diecezja-pelplin.pl/dekanaty-i-parafie?pid=104&sid=321:Parafia-Niepokalanego-Serca-Maryi"
"Parafia Świętego Mateusza Apostoła i Ewangelisty","89-405","Wałdowo","89-405 Wałdowo","","","52 388 44 87, http://parafia-waldowo.cba.pl/","ks. Sławomir Maciejewski, mgr teol.","godz. 8.00, 11.00 godz. 9.15 (Obodowo), 9.15 (Skarpa) godz. 10.30 (Włościbórz), 1:315 (Komierowo) ","godz. 17.00","godz. 9.00, 17.30 godz. 15.30 (Skarpa), 16.30 (Obodowo) godz. 17.00 (Włościbórz) godz. 18.00 (Komierowo) ","","http://www.diecezja-pelplin.pl/dekanaty-i-parafie?pid=104&sid=238:Parafia-Swietego-Mateusza-Apostola-i-Ewangelisty"
"Parafia Najświętszego Serca Pana Jezusa","83-240 Lubichowo","Wda","83-240 Lubichowo Wda, Główna 4","","","58 582 13 92","ks. Mariusz Herold","","","","","http://www.diecezja-pelplin.pl/dekanaty-i-parafie?pid=104&sid=372:Parafia-Najswietszego-Serca-Pana-Jezusa"
"Parafia Świętego Mikołaja - Sanktuarium Kalwaryjskie","83-441 Wiele","Wiele","83-441 Wiele Wiele, Derdowskiego 1","","","58 687 34 91","ks. Jan Flisikowski","godz. 8.00, 10.00, 11.30, 16.00 19.00 (1.06-30.08) święta zniesione: godz. 10.00, 17.00, 18.30 (Wdzydze Tuchol.) dni powszednie: godz. 7.30, 17.00­, 18.00 (1.06-30.08) Wdzydze Tucholskie: godz. 18.30 (sobota) godz. 13.00 (niedziela: 1.06-31.08)","godz. 7.30, 17.00­, 18.00 (1.06-30.08) Wdzydze Tucholskie: godz. 18.30 (sobota) godz. 13.00 (niedziela: 1.06-31.08)","","53.923499299028,17.864814329981","http://www.diecezja-pelplin.pl/dekanaty-i-parafie?pid=104&sid=152:Parafia-Swietego-Mikolaja-Sanktuarium-Kalwaryjskie"
"Parafia Narodzenia Najświętszej Maryi Panny","89-520 Gostycyn","Wielka Klonia","89-520 Gostycyn Wielka Klonia","","","52 334 65 14","ks. Kazimierz Jerzy Ostrowski","godz. 8.00, 10.00 ","godz. 17.00 (zimą), 18.00 (latem)","godz. 10.00, 17.00 ","","http://www.diecezja-pelplin.pl/dekanaty-i-parafie?pid=104&sid=239:Parafia-Narodzenia-Najswietszej-Maryi-Panny"
"Parafia Niepokalanego Poczęcia Najświętszej Maryi Panny","83-121 Rudno","Wielki Garc","83-121 Rudno Wielki Garc","","","58 536 11 09","ks. Wojciech Jan Gruba, dr teol. moralnej","godz. 7.30, 9.05 (Rudno), 11.00 ","godz. 16.30 sobota: godz. 16.30 (Rudno)","godz. 10.00, 16.00 (Rudno), 17.00 ","","http://www.diecezja-pelplin.pl/dekanaty-i-parafie?pid=104&sid=330:Parafia-Niepokalanego-Poczecia-Najswietszej-Maryi-Panny"
"PARAFIA Świętej Rodziny","83-423","Wielki Klincz","83-423 Wielki Klincz, Klasztorna 5","","","58 686 14 85, fax 58 686 44 99, http://www.msf.opoka.org.pl/wielkiklincz.html","ks. Roman Ruciński MSF","","","","","http://www.diecezja-pelplin.pl/dekanaty-i-parafie?pid=104&sid=273:PARAFIA-Swietej-Rodziny"
"Parafia Świętego Bartłomieja Apostoła","86-161","Wielki Komorsk","86-161 Wielki Komorsk, Warlubska 4","","","52 332 65 25","ks. Jerzy Dampc","godz. 8.00, 9.30 (Mały Komorsk), 11.00 ","godz. 16.00 (zimą), 18.00 (latem)","godz. 10.00, 17.00 (Mały Komorsk), 18.00 ","","http://www.diecezja-pelplin.pl/dekanaty-i-parafie?pid=104&sid=322:Parafia-Swietego-Bartlomieja-Apostola"
"Parafia Świętego Jakuba Apostoła","86-134 Dragacz","Wielki Lubień","86-134 Dragacz Wielki Lubień","","","52 332 51 81","ks. Józef Kortas","godz. 9.00, 1:100 ","godz. 17.00 (zimą), 18.00 (latem)","godz. 9.00, 18.00 ","","http://www.diecezja-pelplin.pl/dekanaty-i-parafie?pid=104&sid=323:Parafia-Swietego-Jakuba-Apostola"
"Parafia Świętego Stanisława Biskupa i Męczennika","89-520","Wielki Mędromierz","89-520 Wielki Mędromierz","","","52 336 11 24","Ks. Arkadiusz KUJAWA","","","","","http://www.diecezja-pelplin.pl/dekanaty-i-parafie?pid=104&sid=419:Parafia-Swietego-Stanislawa-Biskupa-i-Meczennika"
"Parafia Ścięcia Świętego Jana Chrzciciela","83-122","Wielkie Walichnowy","83-122 Wielkie Walichnowy","","","58 535 16 94","ks. Henryk Karolewski","godz. 9.00, 10.30 ","godz. 18.00","godz. 9.00, 18.00 ","","http://www.diecezja-pelplin.pl/dekanaty-i-parafie?pid=104&sid=221:Parafia-Sciecia-Swietego-Jana-Chrzciciela"
"Parafia Matki Bożej Szkaplerznej","77-300","Wierzchowo Człuchowskie","77-300 Wierzchowo Człuchowskie, Wierzchowo Człuchowskie 16","","","59 833 77 92, http://salezjanie.pl/wierzchowo","ks. Zenon Mach SDB, mgr teol.","godz. 7.45, 9.15 (Bukowo), 10.30, 12.00 ","godz. 17.00, 18.00; zimą: 16.00, 17.00","godz. 17.00, 18.00 ","","http://www.diecezja-pelplin.pl/dekanaty-i-parafie?pid=104&sid=195:Parafia-Matki-Bozej-Szkaplerznej"
"Parafia Najświętszego Serca Pana Jezusa","84-113","Wierzchucino","84-113 Wierzchucino, Abrahama 18","","","58 673 50 35, http://www.pelplin.home.pl/wierzchucino/","ks. Tadeusz Knut, lic. teol.","godz. 7.00, 10.00, 11.30 ","godz. 18.00","godz. 7.00, 10.00, 18.00 ","","http://www.diecezja-pelplin.pl/dekanaty-i-parafie?pid=104&sid=212:Parafia-Najswietszego-Serca-Pana-Jezusa"
"Parafia Przemienienia Pańskiego","76-200","Wrzeście","76-200 Wrzeście, Wrzeście 22a","","","59 846 26 23","ks. Andrzej Osowski","godz. 8.30, 10.00 (Żelkowo), 12.00 godz. 13.30 (III i IV niedziela m-ca Żoruchowo) godz. 13.30 (I i II niedziela m-ca Lubuczewo) ","godz. 7.00, 16.00 (jesień-zima) godz. 19.00 (piątek, sobota) godz. 17.30 (piątek, sobota – Żelkowo) godz. 17.30 (czwartek – Żoruchowo)","godz. 9.00, 19.00 Żelkowo: godz. 10.00, 17.30 ","","http://www.diecezja-pelplin.pl/dekanaty-i-parafie?pid=104&sid=203:Parafia-Przemienienia-Panskiego"
"Parafia Świętej Barbary","86-022","Wudzyn","86-022 Wudzyn","","","52 381 92 78","ks. Antoni Bunikowski","","","","","http://www.diecezja-pelplin.pl/dekanaty-i-parafie?pid=104&sid=262:Parafia-Swietej-Barbary"
"Parafia Świętego Józefa","83-335 Borzestowo","Wygoda","83-335 Borzestowo Wygoda","","","58 684 27 67","ks. Bogdan Marian Drozdowski","","","","","http://www.diecezja-pelplin.pl/dekanaty-i-parafie?pid=104&sid=391:Parafia-Swietego-Jozefa"
"Parafia Wszystkich Świętych","83-421","Wysin","83-421 Wysin, Kościelna 1","","","58 687 88 01","ks. Andrzej Żur","","","","","http://www.diecezja-pelplin.pl/dekanaty-i-parafie?pid=104&sid=361:Parafia-Wszystkich-Swietych"
"Parafia Świętego Józefa","76-231","Zagórzyca","76-231 Zagórzyca, Zagórzyca 41","","","59 811 30 17","ks. Henryk Jereczek, mgr teol.","godz. 9.00, 12.00 Damnica: godz. 7.30, 10.30 Domaradz: godz. 13.30 ","godz. 17.00","godz. 16.00 (Domaradz), 17.00 godz. 18.00 (Damnica) ","","http://www.diecezja-pelplin.pl/dekanaty-i-parafie?pid=104&sid=204:Parafia-Swietego-Jozefa"
"Parafia Narodzenia Najświętszej Maryi Panny Sanktuarium Matki Bożej Szkaplerznej","89-430","Zamarte","89-430 Zamarte, Klasztorna 2","","","kom. 661 748 728, http://karmelicibosi.pl/Zakon?zakon=bracia&subkat=zamarte","o. Tomasz Litwiejko OCD","godz. 7.15, 9.00, 11.00 ","godz. 8.30, 18.00","godz. 8.30, 18.00 ","","http://www.diecezja-pelplin.pl/dekanaty-i-parafie?pid=104&sid=240:Parafia-Narodzenia-Najswietszej-Maryi-Panny-Sanktuarium-Matki-Bozej-Szkaplerznej"
"Parafia Chrystusa Króla","77-130 Lipnica","Zapceń","77-130 Lipnica Zapceń, Zapceń","","","59 821 87 82","ks. Jacek Somerski","godz. 8.00, 9.30 (Mielno), 11.00 ","godz. 17.00 (zimą), 18.00 (latem)","godz. 9.00, 10.30 (Mielno), 18.00 ","53.992916004468,17.476984950195","http://www.diecezja-pelplin.pl/dekanaty-i-parafie?pid=104&sid=143:Parafia-Chrystusa-Krola"
"Parafia Świętego Michała Archanioła","83-210","Zblewo","83-210 Zblewo, Kościelna 2a","","","58 588 42 04","ks. Zenon Górecki, mgr teol., wicedziekan","","","","","http://www.diecezja-pelplin.pl/dekanaty-i-parafie?pid=104&sid=428:Parafia-Swietego-Michala-Archaniola"
"Parafia Świętego Mateusza Apostoła i Ewangelisty","89-505 Małe Gacno","Zdroje","89-505 Małe Gacno Zdroje","","","52 336 10 17","ks. Sylwester Dober","","","","","http://www.diecezja-pelplin.pl/dekanaty-i-parafie?pid=104&sid=420:Parafia-Swietego-Mateusza-Apostola-i-Ewangelisty"
"Parafia Świętego Józefa Oblubieńca Najświętszej Maryi Panny","84-210","Zwartowo","84-210 Zwartowo","","","58 676 39 23","ks. Alojzy Kąkolewski","godz. 8.30, 11.00 ","godz. 17.00 (zimą), 18.00 (latem)","godz. 18.00 ","","http://www.diecezja-pelplin.pl/dekanaty-i-parafie?pid=104&sid=213:Parafia-Swietego-Jozefa-Oblubienca-Najswietszej-Maryi-Panny"
