"name","postal","city","address","www","email","phone","rector","sun","week","fest","latlng","url"
"Parafia pw. św. Urbana","","","09-130 Baboszewo, ul. Odrodzenia 2","","baboszewo@diecezjaplocka.pl","","Stanisław Gutowski","8:00 ; 10:00 ; 11:45 ; 17:00","7:00 ; 17:00 lub 18:00","","52.6815453,20.258606","http://diecezjaplocka.pl/parafie/baboszewo-sw-urbana"
"Parafia pw. św. Szczepana","","","09-414 Brudzeń Duży, ul. Jana Pawła II 22","","badkowo@diecezjaplocka.pl","","Jan Zega","8:30 ; 10:30 kaplice; 12:00 ; 17:00","18:00 ; 18:30","","52.67474,19.5041981","http://diecezjaplocka.pl/parafie/badkowo-koscielne-sw-szczepana"
"Parafia pw. św. Jadwigi Śląskiej","","","09-411 Biała k. Płocka, Stara Biała 64","","biala@diecezjaplocka.pl","","Jan Deptuła","8:00 ; 10:00 ; 12:00 ; 17:00","17:00","","52.6081,19.6495457","http://diecezjaplocka.pl/parafie/biala-sw-jadwigi-slaskiej"
"Parafia pw. św. Jana Chrzciciela","","","09-230 Bielsk, Plac Wolności 20","","bielsk@diecezjaplocka.pl","","J&#243;zef Kazimierz R&#243;żański","9:00 ; 10:30 ; 12:00 ; 16:00","17:00 ; 18:00","","52.6714478,19.8043976","http://diecezjaplocka.pl/parafie/bielsk-sw-jana-chrzciciela"
"Parafia pw. św. Stanisława Biskupa i Męczennika","","","09-320 Bieżuń, ul. Nowy Rynek 8","","biezun@diecezjaplocka.pl","","Tomasz Ozimkowski","8:00 ; 9:30 ; 11:15 ; 16:00","7:00 ; 17:00","","52.9581146,19.8923073","http://diecezjaplocka.pl/parafie/biezun-sw-stanislawa-biskupa-i-meczennika"
"Parafia pw. św. Anny","","","09-452 Blichowo, Blichowo 57","","blichowo@diecezjaplocka.pl","","Włodzimierz Dzieńkowski","9:00 ; 11:30 ; 16:00","7:30 lub 17:00 lub 18:00","","52.5535545,20.01008","http://diecezjaplocka.pl/parafie/blichowo-sw-anny"
"Parafia pw. Wniebowzięcia Najświętszej Marii Panny","","","09-470 Bodzanów, Pl. Kościuszki 1","","bodzanow@diecezjaplocka.pl","","Tomasz Mazurowski","8:00 ; 10:00 ; 12:00 ; 17:00","18:00","","52.4995766,20.02932","http://diecezjaplocka.pl/parafie/bodzanow-wniebowziecia-najswietszej-marii-panny"
"Parafia pw. św. Jana Ewangelisty","","","06-300 Przasnysz, Bogate","","bogate@diecezjaplocka.pl","","Cezary Olzacki","8:30 ; 10:00 ; 12:00","16:30 ; 17:00","","52.9546967,20.9907532","http://diecezjaplocka.pl/parafie/bogate-sw-jana-ewangelisty"
"Parafia pw. św. Doroty","","","06-521 Wiśniewo, Bogurzyn","","bogurzyn@diecezjaplocka.pl","","J&#243;zef Gałązka","8:00 ; 9:30 ; 11:30","17:00 lub 18:00","","53.0467758,20.275423","http://diecezjaplocka.pl/parafie/bogurzyn-sw-doroty"
"Parafia pw. św. Stanisława Biskupa i Męczennika","","","09-213 Gozdowo, Bonisław","","bonislaw@diecezjaplocka.pl","","Franciszek Antoni Kuć","8:30 ; 10:00 kaplica; 12:00","17:00","","52.7166328,19.751646","http://diecezjaplocka.pl/parafie/bonislaw-sw-stanislawa-biskupa-i-meczennika"
"Parafia pw. św. Apolonii","","","09-200 Sierpc, Borkowo","","borkowo@diecezjaplocka.pl","","Marian Łuniewski","8:00 ; 9:30 ; 11:30","8:00 ; 16:00 czas zimowy; 18:00 czas letni","","52.840435,19.713377","http://diecezjaplocka.pl/parafie/borkowo-sw-apolonii"
"Parafia pw. św. Jakuba","","","","","bozewo@diecezjaplocka.pl","","Andrzej Feliks Świderski","8:00 ; 10:00 ; 11:30","16:00 czas zimowy; 17:00 czas letni","","52.71853,19.55972","http://diecezjaplocka.pl/parafie/bozewo-sw-jakuba"
"Parafia pw. św. Andrzeja Apostoła","","","09-400 Płock, Brwilno 45","","brwilno@diecezjaplocka.pl","","Henryk Lipka","8:00 kaplica; 9:00 ; 11:00 ; 16:00 ; 17:15 ; 17:00 czas zimowy; 18:00 czas letni","16:00 czas zimowy","","52.5682831,19.5867825","http://diecezjaplocka.pl/parafie/brwilno-sw-andrzeja-apostola"
"Parafia pw. Tr&#243;jcy Świętej","","","09-454 Bulkowo, ul. Płocka 1","","bulkowo@diecezjaplocka.pl","","Stanisław Wiesław Sadłowski","8:30 ; 10:30","7:30 ; 16:00 czas zimowy; 18:00 czas letni","","52.5418,20.1177349","http://diecezjaplocka.pl/parafie/bulkowo-trojcy-swietej"
"Parafia pw. św. Floriana","","","09-300 Żuromin, ul. Mazowiecka 35","","chamsk@diecezjaplocka.pl","","Księża mieszkający w parafii","9:00 ; 11:00 ; 16:00","16:00 czas zimowy; 17:00","","53.0223961,19.9295025","http://diecezjaplocka.pl/parafie/chamsk-sw-floriana"
"Parafia pw. św. Leonarda","","","09-150 Czerwińsk, Chociszewo 43","","chociszewo@diecezjaplocka.pl","","Jerzy Antoni Zdunkiewicz","9:00 ; 11:00","17:00","","52.3157,15.75036","http://diecezjaplocka.pl/parafie/chociszewo-sw-leonarda"
"Parafia pw. św. Barbary","","","87-602 Chrostkowo, Chrostkowo 21","","chrostkowo@diecezjaplocka.pl","","Marek Trymers","8:00 ; 10:00 ; 12:00","8:00 czas kolędy; 17:00 czas zimowy; 18:00 czas letni","","52.94334,19.252512","http://diecezjaplocka.pl/parafie/chrostkowo-sw-barbary"
"Parafia pw. św. Stanisława Biskupa i Męczennika","","","09-230 Bielsk, Ciachcin","","ciachcin@diecezjaplocka.pl","","Andrzej Krajewski","9:00 ; 11:30 ; 15:00 Dom Pomocy Społecznej Goślice","17:00 ; 18:00 od Wielkanocy do października","","52.6225471,19.7903214","http://diecezjaplocka.pl/parafie/ciachcin-sw-stanislawa-biskupa-i-meczennika"
"Parafia pw. Błogosławionych Płockich Biskup&#243;w Męczennik&#243;w","","","06-400 Ciechanów, ul. Maksymialiana Kolbego 39","","ciechanow.meczennicy@diecezjaplocka.pl","","Sławomir Trzaska","8:30 ; 10:30 ; 12:30 ; 18:00","18:00","","52.8543167,20.6498432","http://diecezjaplocka.pl/parafie/ciechanow-blogoslawionych-plockich-biskupow-meczennikow"
"Parafia pw. Matki Bożej Fatimskiej","","","06-400 Ciechanów, ul. Maksymiliana Kolbego 39","","ciechanow.fatimska@diecezjaplocka.pl","","Jan J&#243;źwiak","8:00 ; 10:00 ; 12:00 ; 18:00","7:00 ; 18:00","","52.8699837,20.5899258","http://diecezjaplocka.pl/parafie/ciechanow-matki-bozej-fatimskiej"
"Parafia pw. św. Franciszka z Asyżu","","","06-400 Ciechanów, ul. Batalionów Chłopskich 10","","ciechanow.franciszek@diecezjaplocka.pl","","Jan Dzieniszewski","7:00 ; 7:00 Dom Pomocy Społecznej Kombatant; 9:00 ; 10:30 ; 12:00 ; 15:00 ; 18:00","7:00 ; 18:00","","52.87646,20.6333561","http://diecezjaplocka.pl/parafie/ciechanow-sw-franciszka-z-asyzu"
"Parafia pw. św. J&#243;zefa","","","06-400 Ciechanów, ul. ks. P. Ściegennego 11","","ciechanow.jozef@diecezjaplocka.pl","","Zbigniew Adamkowski","7:00 ; 8:30 ; 10:00 ; 10:00 kości&#243;ł filialny w Przedwojewie; 11:30 ; 16:00 ; 18:00","6:30 ; 7:00 ; 8:30 ; 18:00","","52.87538,20.6134357","http://diecezjaplocka.pl/parafie/ciechanow-sw-jozefa"
"Parafia pw. św. Piotra Apostoła","","","06-400 Ciechanów, ul. Wyspiańskiego 25","","piotrciechanow@yahoo.pl","","Eugeniusz Mieczysław Graczyk","7:00 ; 8:30 ; 10:00 ; 11:30 ; 13:00 ; 17:00","7:00 ; 18:00","","52.8898239,20.5976067","http://diecezjaplocka.pl/parafie/ciechanow-sw-piotra-apostola"
"Parafia pw. św. Tekli","","","06-400 Ciechanów, ul. Augustiańska 3a","","ciechanow.tekla@diecezjaplocka.pl","","Wojciech Hubert","7:00 ; 8:30 ; 11:30 ; 13:00 ; 17:00","7:00 ; 17:00","","52.8740273,20.6137123","http://diecezjaplocka.pl/parafie/ciechanow-sw-tekli"
"Parafia pw. św. Rocha","","","05-192 Cieksyn, ul. Piłsudskiego 10","","cieksyn@diecezjaplocka.pl","","Krzysztof Krawczyk","8:00 ; 9:30 ; 11:30 ; 16:00","16:00 ; 16:30 czas zimowy; 17:00 ; 17:30 czas letni","","52.5744133,20.6668911","http://diecezjaplocka.pl/parafie/cieksyn-sw-rocha"
"Parafia pw. św. Mikołaja","","","06-430 Sońsk, Ciemniewko 36","","ciemniewko@diecezjaplocka.pl","","Księża mieszkający w parafii","9:00 ; 11:30","18:00","","52.8163643,20.7416744","http://diecezjaplocka.pl/parafie/ciemniewko-sw-mikolaja"
"Parafia pw. św. Wawrzyńca","","","09-530 Gąbin, Czermno 55","","czermno@diecezjaplocka.pl","","Tadeusz Żerdziewski","9:00 ; 12:00","16:00 czas zimowy; 17:00","","52.40577,19.8005962","http://diecezjaplocka.pl/parafie/czermno-sw-wawrzynca"
"Parafia pw. św. Stanisława Biskupa i Męczennika","","","06-415 Czernice Borowe, ul. Kościelna 12","","czernice@diecezjaplocka.pl","","Michał Gaszczyński","10:00 ; 12:00 ; 15:00","8:00 ; 16:30","","53.0306473,20.7162666","http://diecezjaplocka.pl/parafie/czernice-sw-stanislawa-biskupa-i-meczennika"
"Parafia pw. Zwiastowania Najświętszej Maryi Panny","","","09-150 Czerwińsk n. Wisłą, ul. Klasztorna 23","","czerwinsk@diecezjaplocka.pl","","Sławomir Janusz Goworek, SDB","7:00 ; 8:30 ; 10:00 ; 11:30 ; 17:00","7:00 ; 18:00","","52.39562,20.3095436","http://diecezjaplocka.pl/parafie/czerwinsk-zwiastowania-najswietszej-maryi-panny"
"Parafia pw. Przemienienia Pańskiego","","","09-454 Bulkowo, Daniszewo 42","","daniszewo@diecezjaplocka.pl","","Jan Ż&#243;łtowski","8:00 ; 9:30 ; 11:30","17:00","","52.58246,20.1420612","http://diecezjaplocka.pl/parafie/daniszewo-przemienienia-panskiego"
"Parafia pw. św. Stanisława Biskupa i Męczennika","","","","","dabrowa@diecezjaplocka.pl","","Księża mieszkający w parafii","8:00 kaplica; 10:00 ; 12:00","17:00","","52.9665871,20.277874","http://diecezjaplocka.pl/parafie/dabrowa-sw-stanislawa-biskupa-i-meczennika"
"Parafia pw. św. Stanisława Kostki","","","06-516 Szydłowo, Dębsk 108","","debsk@diecezjaplocka.pl","","Janusz Wilkowski","9:00 ; 10:30 kaplica; 12:00 ; 15:00 Ośrodek Rehabilitacyjny w Dąbku","17:00","","53.11442,20.4970932","http://diecezjaplocka.pl/parafie/debsk-sw-stanislawa-kostki"
"Parafia pw. św. Wawrzyńca","","","13-203 Dłutowo, ul. Wolności 49","","dlutowo@diecezjaplocka.pl","","Krzysztof Kowalski","9:00 ; 11:00 ; 16:00","17:00 ; 18:00 czas letni","","53.1871452,19.9609013","http://diecezjaplocka.pl/parafie/dlutowo-sw-wawrzynca"
"Parafia pw. św. Stanisława Biskupa i Męczennika","","","09-522 Dobrzyków, ul. Kościelna 2","","dobrzykow@diecezjaplocka.pl","","Marek Mikołaj Mizerski","9:00 ; 11:30 ; 16:00","17:00 czas zimowy; 18:00","","52.4701767,19.75095","http://diecezjaplocka.pl/parafie/dobrzykow-sw-stanislawa-biskupa-i-meczennika"
"Parafia pw. św. Katarzyny Aleksandryjskiej","","","87-400 Golub-Dobrzyń, ul. Nowa 10","","dobrzyn.katarzyna@diecezjaplocka.pl","","Jarosław Wacław Kulesza","7:00 r&#243;wnież w szpitalu; 9:00 ; 10:30 ; 12:00 ; 16:00 ; 18:00 msza niedzielna w sobotę","7:00 ; 18:00","","53.14354,19.1581688","http://diecezjaplocka.pl/parafie/dobrzyn-n-drweca-sw-katarzyny-aleksandryjskiej"
"Parafia pw. Wniebowzięcia Najświętszej Maryi Panny","","","87-610 Dobrzyń n. Wisłą, ul. Franciszkańska 15","","dobrzyn.wniebowziecie@diecezjaplocka.pl","","Henryk Lewandowski","8:30 ; 10:30 ; 12:00 ; 16:00","7:00 ; 18:00","","52.63692,19.3198967","http://diecezjaplocka.pl/parafie/dobrzyn-n-wisla-wniebowziecia-najswietszej-maryi-panny"
"Parafia pw. św. Stanisława Biskupa i Męczennika","","","09-210 Drobin, ul .Targowa 2","","drobin@diecezjaplocka.pl","","Andrzej Kucharczyk","8:30 ; 10:00 ; 12:00 ; 16:00","7:00 ; 18:00","","52.738636,19.99034","http://diecezjaplocka.pl/parafie/drobin-sw-stanislawa-biskupa-i-meczennika"
"Parafia pw. św. Jana Nepomucena","","","06-330 Chorzele, Duczymin 6","","duczymin@diecezjaplocka.pl","","Księża mieszkający w parafii","9:00 ; 12:00","16:00","","53.25559,20.7982674","http://diecezjaplocka.pl/parafie/duczymin-sw-jana-nepomucena"
"Parafia pw. Wniebowzięcia Najświętszej Maryi Panny","","","87-404 Radomin, Dulsk 57","","<span style=color: #808080; text-decoration: underline;>parafia@parafiadulsk.pl</span></a></span></p> <p>Oficjalna strona parafii: <a href=http://www.parafiadulsk.pl/ target=_blank>prafiadulsk.pl</a></p></div> <div></div> </div> <div id=oznaczenia> </div> <a class=link zobacz-jak-dojechac href='http://maps.google.com/maps?daddr=53.06031476285968,19.11665591045073&amp;z=12' target=_blank >Zobacz jak dojechać</a> </div> <div id=ksieza> <div class=header>Księża pracujący w parafii</div> <ul> <li style=><a href='http://diecezjaplocka.pl/dla-wiernych/wyszukiwarka?tab=ksieza&amp;ksiadzId=14068' style=color:#0e346c;><img alt=ksiadz src=/InteliImage.ashx?image=/media/522492/ks._maciej_jastrz_bski.jpg&width=80&height=108&resizeMethod=crop /> <span>Jarosław Maciej Jastrzębski</span><br/><span>proboszcz</span></a></li> </ul> </div> </div> <div id=parafia-container-right> <div class=accordion> <a class=header href=javascript:void(0);>Msze Święte <img alt=arrow up src=/images/arrow-down.png /></a> <div class=content> Niedziele i święta: <b>9:00 ; 11:30 </b> <br/> <br/> Dni powszednie: <b>18:00 lub wg ogłoszenia</b> </div> </div> <div class=accordion> <a class=header href=javascript:void(0);>Nabożeństwa <img alt=arrow up src=/images/arrow-down.png /></a> <div class=content><p><strong>1. Porządek mszy św.:</strong></p> <p>Niedziele i święta: <br /> - w Dulsku: g. 9.00 i g. 11.30 <br /> - w kaplicy w Sokołowie o g. 10.30 <br /> Dni powszednie: g. 18.00 lub wg ogłoszenia</p> <p><strong>2. Nabożeństwa:</strong></p> <p>a) Adoracja Najświętszego Sakramentu:<br /> I piątek miesiąca o g. 17.30</p> <p>I niedziela miesiąca:<br /> po Mszy św. o g.11.30.</p> <p>b) Nabożeństwo majowe w dni powszednie w Dulsku g. 17.45, w kaplicy w Sokołowie o g. 17.00. W niedzielę po mszy o g. 11.30</p> <p>c) Nabożeństwo czerwcowe w dni powszednie po mszy wieczornej. W niedzielę po mszy o g. 11.30</p> <p>d) Nabożeństwo różańcowe w dni powszednie w październiku: w Dulsku o g. 17.30, w kaplicy w Sokołowie o g. 17.00. W niedzielę po Mszy o g. 11.30</p> <p>e) Gorzkie Żale w niedziele Wielkiego Postu: w Dulsku po mszy o g. 11.30, w kaplicy w Sokołowie o g. 10.00.</p> <p>f) Droga Krzyżowa w piątki Wielkiego Postu o g. 18.00</p> <p>g) Odpusty: Niedziela Trójcy Przenajświętszej, niedziela po wspomnieniu św. Tekli</p> <p>Imieniny parafii - Uroczystość Wniebowzięcia NMP.</p></div> </div> <div class=accordion> <a class=header href=javascript:void(0);>Spowiedź <img alt=arrow up src=/images/arrow-down.png /></a> <div class=content><p>Spowiedź 15 min. przed każdą mszą.</p></div> </div> <div class=accordion> <a class=header href=javascript:void(0);>Kancelaria parafialna <img alt=arrow up src=/images/arrow-down.png /></a> <div class=content><p>Kancelaria Parafialna czynna jest przez pół godziny po mszy w dni powszednie.</p></div> </div> <div class=accordion> <a class=header href=javascript:void(0);>Ogłoszenia parafialne <img alt=arrow up src=/images/arrow-down.png /></a> <div class=content><p>Ogłoszenia parafialne: <a href=http://www.parafiadulsk.pl/ target=_blank>http://www.parafiadulsk.pl/</a></p></div> </div> <div id=wspolnoty> <div class=header>Wspólnoty</div> <div class=wspolnota> </div> </div> </div> <script type=text/javascript> $(document).ready(function(){ $('.accordion').first().addClass('selected'); $('.accordion').find('img').first().attr('src','/images/arrow-up-white.png'); $('.accordion .header').click(function(){ var selectedAccordion = $(this).parent(); var selectedContent = $(this).next(); if(selectedContent.is(:visible)){ selectedAccordion.find('img').attr('src','/images/arrow-down.png'); selectedAccordion.toggleClass('selected'); selectedContent.slideUp(500); } else{ selectedAccordion.find('img').attr('src','/images/arrow-up-white.png'); selectedAccordion.toggleClass('selected'); selectedContent.slideDown(500); } }); }); </script> <script type=text/javascript> $(document).ready(function(){ $('.wspolnota').find('.strzalka').first().attr('src','/images/arrow-up.png'); $('.wspolnota .header').click(function(){ var selectedAccordion = $(this).parent(); var selectedContent = $(this).next(); if(selectedContent.is(:visible)){ selectedAccordion.find('.strzalka').attr('src','/images/arrow-down.png'); selectedAccordion.toggleClass('selected'); selectedContent.slideUp(500); } else{ selectedAccordion.find('.strzalka').attr('src','/images/arrow-up.png'); selectedAccordion.toggleClass('selected'); selectedContent.slideDown(500); } }); }); </script> <script type=text/javascript> $(document).ready(function(){ var mapObject; var size = new google.maps.Size(31, 44); var startPoint = new google.maps.Point(0, 0); var hangPoint = new google.maps.Point(10, 30); var markerIcon = new google.maps.MarkerImage('/images/marker-icon.png', size, startPoint, hangPoint); var infowindow = new google.maps.InfoWindow(); var dlugoscGeograficzna = 53.06031476285968; var szerokoscGeograficzna = 19.11665591045073; function InicjalizujMape() { var mapDiv = document.getElementById('mapka'); var myOptions = { zoom: 11, maxZoom: 18, center: new google.maps.LatLng(dlugoscGeograficzna, szerokoscGeograficzna), mapTypeId: google.maps.MapTypeId.ROADMAP, streetViewControl: false, panControl: false }; mapObject = new google.maps.Map(mapDiv, myOptions); } function DodajPunkt(){ var latlng = new google.maps.LatLng(dlugoscGeograficzna, szerokoscGeograficzna); var marker = new google.maps.Marker({ position: latlng, map: mapObject }); marker.setIcon(markerIcon); } InicjalizujMape(); DodajPunkt(); }); </script> </div> </div> <footer> <div id=footer-center> <div id=footer-upper> <table border=0 cellpadding=0 style=width: 100px; margin-right: 30px;> <tbody> <tr> <td><a href=http://diecezjaplocka.pl/dla-wiernych title=Dla wiernych class=header>DLA WIERNYCH</a></td> </tr> <tr> <td><a href=http://diecezjaplocka.pl/dla-wiernych/aktualnosci title=Aktualności>Aktualności</a></td> </tr> <tr> <td><a href=http://diecezjaplocka.pl/dla-wiernych/blogi title=Blogi>Blogi</a></td> </tr> <tr> <td><a href=http://diecezjaplocka.pl/dla-wiernych/parafie title=Parafie>Parafie</a></td> </tr> <tr> <td><a href=http://diecezjaplocka.pl/dla-wiernych/znajdz-msze title=Znajdź Mszę>Znajdź Mszę św.</a></td> </tr> <tr> <td><a href=http://diecezjaplocka.pl/dla-wiernych/poradnik title=Poradnik>Poradnik</a></td> </tr> <tr> <td><a href=http://diecezjaplocka.pl/dla-wiernych/dzieci-i-mlodziez title=Dzieci i młodzież>Dzieci i młodzież</a></td> </tr> <tr> <td><a href=http://diecezjaplocka.pl/dla-wiernych/narzeczeni title=Narzeczeni>Narzeczeni</a></td> </tr> <tr> <td><a href=http://diecezjaplocka.pl/dla-wiernych/malzenstwo-i-rodzina title=Małżeństwo i rodzina>Małżeństwo i rodzina</a></td> </tr> <tr> <td><a href=http://diecezjaplocka.pl/dla-wiernych/serwis-dla-katechetow title=Serwis dla katechetów>Serwis dla katechetów</a></td> </tr> <tr> <td><a href=http://diecezjaplocka.pl/dla-wiernych/pomoc-duchowa title=Pomoc duchowa>Pomoc duchowa</a></td> </tr> <tr> <td><a href=http://diecezjaplocka.pl/dla-wiernych/zaangazuj-sie title=Zaangażuj się!>Zaangażuj się</a>a</td> </tr> <tr> <td><a href=/dla-wiernych/nowa-ewangelizacja-diecezji-plockiej title=Nowa Ewangelizacja Diecezji Płockiej>Nowa Ewangelizacja Diecezji Płockiej</a></td> </tr> </tbody> </table> <table border=0 cellpadding=0 style=width: 115px; margin-right: 20px;> <tbody> <tr> <td><a href=http://diecezjaplocka.pl/dla-ksiezy title=Dla księży class=header>DLA DUCHOWNYCH</a></td> </tr> <tr> <td><a href=http://diecezjaplocka.pl/dla-ksiezy/panel-ksiedza?tab=4 title=Panel księdza>Dekrety</a></td> </tr> <tr> <td><a href=http://diecezjaplocka.pl/dla-ksiezy/panel-ksiedza?tab=1 title=Panel księdza>Personalia</a></td> </tr> <tr> <td><a href=http://diecezjaplocka.pl/dla-ksiezy/panel-ksiedza?tab=5 title=Panel księdza>Oświadczenia</a></td> </tr> <tr> <td><a href=http://diecezjaplocka.pl/dla-ksiezy/panel-ksiedza?tab=2 title=Panel księdza>43. Synod Diecezji Płockiej</a></td> </tr> <tr> <td><a href=http://diecezjaplocka.pl/dla-ksiezy/panel-ksiedza?tab=6 title=Panel księdza>Zakony i zgromadzenia</a></td> </tr> <tr> <td><a href=http://diecezjaplocka.pl/dla-ksiezy/okolnik title=Okólnik>Okólnik</a></td> </tr> <tr> <td><a href=http://diecezjaplocka.pl/dla-ksiezy/panel-ksiedza?tab=3 title=Panel księdza>Powołania</a></td> </tr> </tbody> </table> <table border=0 cellpadding=0 style=width: 100px; margin-right: 25px;> <tbody> <tr> <td><a href=http://diecezjaplocka.pl/dla-turystow title=Dla turystów class=header>DLA TURYSTÓW</a></td> </tr> <tr> <td><a href=http://diecezjaplocka.pl/dla-turystow/katedra title=Katedra>Katedra</a></td> </tr> <tr> <td><a href=http://diecezjaplocka.pl/dla-turystow/drzwi-plockie title=Drzwi płockie>Drzwi Płockie</a></td> </tr> <tr> <td><a href=http://diecezjaplocka.pl/dla-turystow/muzeum title=Muzeum>Muzeum</a></td> </tr> <tr> <td><a href=http://diecezjaplocka.pl/dla-turystow/sw-faustyna title=Św. Faustyna>Św. Faustyna</a></td> </tr> <tr> <td><a href=http://diecezjaplocka.pl/dla-turystow/noclegi title=Noclegi>Noclegi</a></td> </tr> <tr> <td> </td> </tr> <tr> <td> </td> </tr> <tr> <td> </td> </tr> <tr> <td> </td> </tr> <tr> <td> </td> </tr> <tr> <td> </td> </tr> </tbody> </table> <table border=0 cellpadding=0 style=width: 70px; margin-right: 30px;> <tbody> <tr> <td><a href=http://diecezjaplocka.pl/biskup title=Biskup Płocki Piotr Libera class=header>BISKUP</a></td> </tr> <tr> <td><a href=http://diecezjaplocka.pl/biskup title=Biskup>Biskup płocki</a></td> </tr> <tr> <td><a href=http://diecezjaplocka.pl/biskup/biskup-pomocniczy title=Biskup pomocniczy>Biskup pomocniczy</a></td> </tr> <tr> <td> </td> </tr> <tr> <td> </td> </tr> <tr> <td> </td> </tr> <tr> <td> </td> </tr> <tr> <td> </td> </tr> <tr> <td> </td> </tr> <tr> <td> </td> </tr> <tr> <td> </td> </tr> <tr> <td> </td> </tr> </tbody> </table> <table border=0 cellpadding=0 style=width: 100px; margin-right: 10px;> <tbody> <tr> <td><a href=http://diecezjaplocka.pl/instytucje title=Instytucje class=header>INSTYTUCJE</a></td> </tr> <tr> <td><a href=http://diecezjaplocka.pl/instytucje/kuria title=Kuria>Kuria</a></td> </tr> <tr> <td><a href=http://diecezjaplocka.pl/instytucje/sad-biskupi title=Sąd biskupi>Sąd biskupi</a></td> </tr> <tr> <td><a href=http://diecezjaplocka.pl/instytucje/komisje-i-rady title=Komisje i rady>Komisje i rady</a></td> </tr> <tr> <td><a href=http://diecezjaplocka.pl/instytucje/ruchy-i-stowarzyszenia title=Ruchy i stowarzyszenia>Ruchy i stowarzyszenia</a></td> </tr> <tr> <td><a href=http://diecezjaplocka.pl/instytucje/rada-spoleczna title=Rada społeczna>Rada społeczna</a></td> </tr> <tr> <td><a href=http://diecezjaplocka.pl/instytucje/kapituly title=Kapituły>Kapituły</a></td> </tr> <tr> <td><a href=http://diecezjaplocka.pl/instytucje/seminarium title=Seminarium>Seminarium</a></td> </tr> <tr> <td><a href=http://diecezjaplocka.pl/instytucje/szkoly-i-uczelnie title=Szkoły i uczelnie>Szkoły i uczelnie</a></td> </tr> <tr> <td><a href=http://diecezjaplocka.pl/instytucje/caritas-diecezji-plockiej title=Caritas>Caritas</a></td> </tr> <tr> <td><a href=http://diecezjaplocka.pl/instytucje/biblioteka title=Biblioteka>Biblioteka</a></td> </tr> <tr> <td><a href=http://diecezjaplocka.pl/instytucje/wydawnictwo title=Wydawnictwo>Wydawnictwo</a></td> </tr> <tr> <td><a href=http://diecezjaplocka.pl/instytucje/archiwum title=Archiwum>Archiwum</a></td> </tr> </tbody> </table> <table border=0 cellpadding=0 style=width: 80px; margin-right: 20px;> <tbody> <tr> <td><a href=http://diecezjaplocka.pl/multimedia title=Multimedia class=header>MULTIMEDIA</a></td> </tr> <tr> <td><a href=http://diecezjaplocka.pl/multimedia/zdjecia title=Zdjęcia>Zdjęcia</a></td> </tr> <tr> <td><a href=http://diecezjaplocka.pl/multimedia/video title=Video>Video</a></td> </tr> <tr> <td><a href=http://diecezjaplocka.pl/multimedia/audio title=Audio>Audio</a></td> </tr> <tr> <td><a href=http://diecezjaplocka.pl/multimedia/radio title=Radio>Radio</a></td> </tr> <tr> <td><a href=http://diecezjaplocka.pl/blogi/blog-logowanie title=Słownik pojęć> </a></td> </tr> </tbody> </table> <table border=0 cellpadding=0 style=width: 90px; margin-right: 10px;> <tbody> <tr> <td><a href=http://diecezjaplocka.pl/kontakt title=Kontakt class=header>KONTAKT</a></td> </tr> <tr> <td><a href=http://diecezjaplocka.pl/kontakt/redakcja title=Redakcja>Redakcja</a></td> </tr> <tr> <td><a href=http://diecezjaplocka.pl/kontakt/znajdz-ksiedza title=Znajdź księdza>Znajdź księdza</a></td> </tr> <tr> <td><a href=http://diecezjaplocka.pl/kontakt/linki title=Linki>Linki</a></td> </tr> <tr> <td> </td> </tr> <tr> <td> </td> </tr> </tbody> </table> <table border=0 cellpadding=0 style=width: 120px;> <tbody> <tr> <td><a href=http://diecezjaplocka.pl/dla-dziennikarzy title=Dla dziennikarzy class=header>DLA DZIENNIKARZY</a></td> </tr> <tr> <td><a href=http://diecezjaplocka.pl/dla-dziennikarzy/komunikaty-prasowe title=Komunikaty prasowe>Komunikaty prasowe</a></td> </tr> <tr> <td><a href=http://diecezjaplocka.pl/dla-dziennikarzy/zapowiedzi-prasowe title=Zapowiedzi prasowe>Zapowiedzi prasowe</a></td> </tr> <tr> <td><a href=http://diecezjaplocka.pl/dla-dziennikarzy/materialy-prasowe title=Materiały prasowe>Materiały prasowe</a></td> </tr> <tr> <td><a href=http://diecezjaplocka.pl/dla-dziennikarzy/logotypy-i-herby title=Logotypy i herby>Logotypy i herby</a></td> </tr> <tr> <td><a href=http://diecezjaplocka.pl/dla-dziennikarzy/blog-rzecznika title=Blog rzecznika>Blog rzecznika</a> </td> </tr> <tr> <td> </td> </tr> </tbody> </table> <img id=footer-icon src=/images/footer-icon.jpg alt= /> </div> <img id=footer-line src=/images/footer-line.png alt= /> <div id=footer-bottom> &copy; 2014 Diecezja Płocka </div> </div> </footer> <div id=side-widget> <div id=fb-tab> <div class=fb-content> <iframe src=http://www.facebook.com/plugins/likebox.php?href=https://www.facebook.com/DiecezjaPlocka&amp;width=200&amp;colorscheme=light&amp;show_faces=true&amp;stream=false&amp;header=false&amp;height=335 scrolling=no frameborder=0 style=border:none; overflow:hidden; width:200px; height:335px;background:White;vertical-align:bottom; allowTransparency=false> </iframe> </div> <div class=fb-tab-button> </div> </div> <div id=intencja> <div id=intencja-container> <div class=intencja-header> Wyślij intencję </div> <form id=intencja-form data-bind=visible: !sended(), submit: sendIntention> <!-- errors --> <p class=error-info data-bind=visible: !isValid()> Wypełnij poprawnie wszystkie pola </p> <p class=error-info data-bind=visible: serverError()> Błąd serwera, spróbuj ponownie! </p> <!-- /errors --> <label for=intencja-imie-nazwisko>Imię i nazwisko: </label> <input type=text id=intencja-imie-nazwisko name=intencja-imie-nazwisko placeholder=Imię Nazwisko data-bind=value: name required/> <br/> <div class=clr></div> <label for=intencja-email>Adres e-mail: </label> <input type=email id=intencja-email name=intencja-email placeholder=E-mail pattern=^([0-9a-zA-Z]([-.\w]*[0-9a-zA-Z])*@([0-9a-zA-Z][-\w]*[0-9a-zA-Z]\.)+[a-zA-Z]{2,9})$ data-bind=value: email required/> <br/> <div class=clr></div> <label for=intencja-content>Intencja:</label> <textarea id=intencja-content name=intencja-content placeholder=Treść intencji data-bind=value: intentionContent required></textarea> <label for=recaptcha_response_field> <span data-bind=visible: !captchaError()>Uzupełnij kod:</span> <span class=input-label-error data-bind=visible: captchaError()>Popraw kod:</span> </label> <div id=captcha-container style=clear:both;></div> <p> Tu możesz wysłać intencję modlitewną. Otrzymają ją wybrane zgromadzenia zakonne i wspólnoty. </p> <button type=submit class=btn-wyslij>Wyślij intencję</button> </form> <div class=acknowledgements data-bind=visible: sended()> Dziękujemy za wysłanie intencji </div> </div> <script type=text/javascript> function IntencjeVM() { var self = this; self.name = ko.observable(''); self.email = ko.observable(''); self.intentionContent = ko.observable(''); self.isValid = ko.observable(true); self.serverError = ko.observable(false); self.captchaError = ko.observable(false); self.sended = ko.observable(false); self.sendIntention = function(){ if(!Modernizr.input.required){ if(self.name().length < 3 || self.email().length < 7 || self.intentionContent().length < 10 || !emailIsValid(self.email())) { self.isValid(false); return false; } } var intentionData = { name: self.name(), email: self.email(), content: self.intentionContent() }; checkCaptcha(function(result){ if(result){ send(intentionData, function(result){ result = $.trim(result); result = Number(result); if(result){ self.sended(result); self.serverError(false); setTimeout(resetForm, 5000); } else { self.serverError(true); } }); } }); return false; } var send = function(intentionData, callback) { $.post('/intencjesendemail', intentionData, function(result) { if(callback) { callback(result); } }); } var checkCaptcha = function(callback) { var challengeField = $(input#recaptcha_challenge_field).val() responseField = $(input#recaptcha_response_field).val(), privateKey = '6Ldy1eISAAAAAIJ4iduSSxRlr6LAFNntWHP9Wxak'; var captchaData = { privateKey: privateKey, challenge: challengeField, response: responseField, remoteIp: '192.168.1.10' }; $.post('/Recaptcha.ashx', captchaData, function(result) { result = result == True ? 1 : 0; if(result){ if(callback) { self.captchaError(false); callback (result); } } else{ Recaptcha.reload(); self.captchaError(true); } }); }; function resetForm() { // reset everything? self.name(''); self.email(''); self.intentionContent(''); Recaptcha.reload(); self.sended(false); } function emailIsValid(emailCandidate){ var patternResult = /^([0-9a-zA-Z]([-.\w]*[0-9a-zA-Z])*@([0-9a-zA-Z][-\w]*[0-9a-zA-Z]\.)+[a-zA-Z]{2,9})$/.test(emailCandidate); return patternResult; } } Recaptcha.create(6Ldy1eISAAAAAGxs0TXWOvP8fDJf6-6xKxOLHq3g, captcha-container, { theme: white, lang: pl } ); var intencjeVM = new IntencjeVM(); ko.applyBindings(intencjeVM, document.getElementById('intencja-container')); </script> <a href=# id=intencja-button> </a> </div> <div id=newsletter> <div id=newsletter-container> <div class=newsletter-header>Zapisz się do newslettera</div> <div id=newsletter-form> <p class=newsletter-email-label>Adres e-mail: </p><input type=text id=newsletter-input placeholder=Adres e-mail /> <a href=javascript:void(0); id=newsletter-button-wyslij>Zapisz</a> </div> <div id=newsletter-komunikat style=display:none;> </div> </div> <a href=# id=newsletter-button></a> </div> <a id=zamknij-button href=javascript:void(0);></a> </div> <!-- widget control --> <script type=text/javascript> $(document).ready(function(){ $(window).scroll(function () { var positionTop = $(window).scrollTop() + 100; if($('body').height() - $(window).scrollTop() > 700){ $('#side-widget').stop().animate({ top: positionTop },500,function(){ }); } }); $(#fb-tab).hover( function(){ $(this).stop(true, false).animate({left:0},medium); }, function(){ $(this).stop(true, false).animate({left:-200},medium); }, 500); $(#intencja).hover( function(){ $(#intencja).stop(true, false).animate({left:0},medium); }, function(){ $(#intencja).stop(true, false).animate({left:-348},medium); }, 500); $(#newsletter).hover( function(){ $(#newsletter).stop(true, false).animate({left:0},medium); }, function(){ $(#newsletter).stop(true, false).animate({left:-348},medium); }, 500); $('#zamknij-button').click(function(){ $('#side-widget').hide(); }); }); </script> <!-- /wiget control --> <script type=text/javascript> $(document).ready(function(){ var visible = false; $('#search-form').mouseover(function(){ if(!visible){ $('#search-form input[type=text]').css('border','1px solid #B2B2B2'); $('#search-form input[type=text]').animate({ width: '+=170' }, 1000, function() { }); visible=true; } }); }); </script> <div id=freshmail-response style=display:none;></div> <script type=text/javascript> $(document).ready(function () { $('#newsletter-button-wyslij').click(function(){ if($('#newsletter-input').val() != ''){ var url = 'http://diecezjaplocka.pl/newsletter?freshmail_email=' + $('#newsletter-input').val(); var komunikatOk = 'Dziękujemy za zapisanie się do newslettera. Na podany adres email zostanie wysłana wiadomość z prośbą o potwierdzenie rejestracji. Kliknij na link umieszczony w tej wiadomości aby potwierdzić rejestrację.'; var komunikatIstnieje = 'Podany adres email jest już w bazie danych'; var komunikatNiepoprawny = 'Podany adres email jest niepoprawny'; var komunikatBlad = 'Przepraszamy, wystąpił problem podczas zapisywania Cię do newslettera. Spróbuj później lub skontaktuj się z obsługą serwisu.'; $.ajax({ type: POST, url: url, success: function(data) { //$('#freshmail-response').empty(); //$('#freshmail-response').html(data); //$('#newsletter-komunikat').html($('#freshmail-response').find('.infobox-content p').html()); //$('#freshmail-response').empty(); if($.trim(data) == 0) $('#newsletter-komunikat').html(komunikatOk); else if($.trim(data) == 1304) $('#newsletter-komunikat').html(komunikatIstnieje); else if($.trim(data) == 1301) $('#newsletter-komunikat').html(komunikatNiepoprawny); else $('#newsletter-komunikat').html(komunikatBlad); $('#newsletter-form').hide(); $('#newsletter-komunikat').show(); setTimeout(function(){ $('#newsletter-form').show(); $('#newsletter-komunikat').hide(); }, 5000); }, error: function() { $('#newsletter-komunikat').html(komunikatBlad); $('#newsletter-form').hide(); $('#newsletter-komunikat').show(); setTimeout(function(){ $('#newsletter-form').show(); $('#newsletter-komunikat').hide(); }, 5000); } }); } $('#newsletter-input').val(''); }); }); </script> <!-- <script type=text/javascript> $(document).ready(function(){ var dlugoscMenu = $('#main-menu').outerWidth(); var dlugoscLi = 0; var liczbaElementowLi = 0; var li = $('#main-menu > li'); var a = $('#main-menu > li > a'); li.each(function(){ dlugoscLi += $(this).outerWidth(true); liczbaElementowLi++; window.console.log($(this).outerWidth(true)); }); var roznica = dlugoscLi - dlugoscMenu; var delta = Math.floor(roznica/(liczbaElementowLi*2)); var reszta = roznica - delta * 2 * liczbaElementowLi; a.each(function(){ //$(this).css('padding-left', '-=' + delta); //$(this).css('padding-right', '-=' + delta); //$(this).css('width',50); }); // $('#main-menu > li.ostatni > a').css('padding-left', '-=' + Math.floor(reszta/2)); //$('#main-menu > li.ostatni > a').css('padding-right', '-=' + (reszta - Math.floor(reszta/2))); }); </script> --> <div class=cookies_block> <p>Ta strona używa COOKIES. Z pomocą cookies zbieramy dane jedynie w celach statystycznych. Możesz usunąć pliki cookies z dysku twardego a także zablokować ich zapisywanie poprzez zmianę ustawień swojej przeglądarki.</p> <div id=ok_btn></div> </div> <script type=text/javascript> $(document).ready(function(){ if(!$.cookie('showcookie')) { $(.cookies_block).css('display',block); } $(#ok_btn).click(function(){ $(.cookies_block).animate({opacity:0},600,function(){ $(this).css(display,none); }); $.cookie('showcookie', 'on',{ expires: 364*10, path: '/'}); }); }); </script> <script> (function(i,s,o,g,r,a,m){i['GoogleAnalyticsObject']=r;i[r]=i[r]||function(){ (i[r].q=i[r].q||[]).push(arguments)},i[r].l=1*new Date();a=s.createElement(o), m=s.getElementsByTagName(o)[0];a.async=1;a.src=g;m.parentNode.insertBefore(a,m) })(window,document,'script','//www.google-analytics.com/analytics.js','ga'); ga('create', 'UA-48298254-1', 'diecezjaplocka.pl'); ga('send', 'pageview'); </script> </body> </html> ","","Jarosław Maciej Jastrzębski","9:00 ; 11:30","18:00 lub wg ogłoszenia","","53.0603142,19.1166553","http://diecezjaplocka.pl/parafie/dulsk-wniebowziecia-najswietszej-maryi-panny"
"Parafia pw. św. Mikołaja","","","09-505 Nowy Duninów, ul. Kościelna 6","","duninow@diecezjaplocka.pl","","Adam Łach","9:00 ; 11:30 ; 15:00 szkoła Lipnikach","17:00 czas zimowy; 18:00","","52.5807762,19.4819832","http://diecezjaplocka.pl/parafie/duninow-sw-mikolaja"
"Parafia pw. św. Katarzyny","","","09-105 Dziektarzewo, Dziektarzewo 17","","dziektarzewo@diecezjaplocka.pl","","Księża mieszkający w parafii","9:00 ; 11:30 ; 17:00","17:00","","52.7688,20.3362827","http://diecezjaplocka.pl/parafie/dziektarzewo-sw-katarzyny"
"Parafia pw. Wniebowzięcia Najświętszej Maryi Panny","","","06-520 Dzierzgowo, ul. Ks. Prymasa M. Dzierzgowskiego 4 A","","dzierzgowo@diecezjaplocka.pl","","Piotr Joniak","9:00 ; 11:30 ; 15:00 kaplica; 16:30","7:00 ; 17:00 czas zimowy; 18:00","","53.1515121,20.6637039","http://diecezjaplocka.pl/parafie/dzierzgowo-wniebowziecia-najswietszej-maryi-panny"
"Parafia pw. św. Tomasza Apostoła","","","06-121 Pokrzywnica, Dzierżenin 57a","","dzierzenin@diecezjaplocka.pl","","Kazimierz Kozicki","9:00 ; 11:30 ; 16:00 od I niedzieli Wielkiego Postu do 1.XI","16:00 czas zimowy; 18:00 czas letni","","52.5691261,21.0899334","http://diecezjaplocka.pl/parafie/dzierzenin-sw-tomasza-apostola"
"Parafia pw. św. Mikołaja","","","09-530 Gąbin, ul. Warszawska 4","","gabin@diecezjaplocka.pl","","J&#243;zef Szczeciński","7:30 ; 9:00 ; 10:30 ; 12:00 ; 14:00 Dom Pomocy Społecznej w Koszelewie; 17:00","7:00 ; 17:30 ; 18:00","","52.397,19.7348785","http://diecezjaplocka.pl/parafie/gabin-sw-mikolaja"
"Parafia pw. św. Maksymiliana Kolbego","","","06-440 Gąsocin, ul. Zacisze 19","","gasocin@diecezjaplocka.pl","","Księża mieszkający w parafii","8:30 ; 10:15 kaplica; 12:00","18:00","","52.73885,20.71239","http://diecezjaplocka.pl/parafie/gasocin-sw-maksymiliana-kolbego"
"Parafia pw. św. Stanisława Biskupa i Męczennika","","","06-450 Glinojeck, ul. Kościelna 1","","glinojeck@diecezjaplocka.pl","","Adam Zdzisław Staniszewski","8:00 ; 9:30 ; 11:00 ; 16:00","16:30 ; 17:00","","52.81863,20.283968","http://diecezjaplocka.pl/parafie/glinojeck-sw-stanislawa-biskupa-i-meczennika"
"Parafia pw. św. Mateusza","","","09-200 Sierpc, ul. Niepodległości 13","","goleszyn@diecezjaplocka.pl","","Ryszard Berk","9:00 ; 11:30","17:00","","52.78354,19.7195339","http://diecezjaplocka.pl/parafie/goleszyn-sw-mateusza"
"Parafia pw. św. Jana Chrzciciela","","","06-420 Gołymin, ul. Ks. Michalaka 6B","","golymin@diecezjaplocka.pl","","Marek Świgoński","9:00 ; 11:00 ; 15:00","17:00","","52.8082352,20.87207","http://diecezjaplocka.pl/parafie/golymin-sw-jana-chrzciciela"
"Parafia pw. Miłosierdzia Bożego","","","09-500 Gostynin, ul. Polna 9","","gostynin.milosierdzie@diecezjaplocka.pl","","Sławomir Wiśniewski","7:00 ; 9:00 r&#243;wnież kaplica; 10:00 kaplica; 11:00 r&#243;wnież kaplica; 12:30 ; 16:00 ; 17:30","7:00 ; 17:00","","52.4147377,19.4606915","http://diecezjaplocka.pl/parafie/gostynin-milosierdzia-bozego"
"Parafia pw. św. Marcina","","","09-500 Gostynin, ul. Jana Pawła II 15","","gostynin.marcin@diecezjaplocka.pl","","Ryszard J&#243;zef Kruszewski","7:00 ; 8:30 r&#243;wnież Dom Pomocy Społecznej; 10:00 ; 11:30 ; 13:00 ; 16:00 ; 18:00","6:30 ; 7:00 ; 18:00","","52.4306221,19.4618378","http://diecezjaplocka.pl/parafie/gostynin-sw-marcina"
"Parafia pw. Wszystkich Świętych","","","09-230 Gozdowo, ul. K. Gozdawy 33","","gozdowo@diecezjaplocka.pl","","Stanisław Jan Opolski","9:00 ; 10:30 kaplica; 12:00 ; 16:00","16:00 czas zimowy; 18:00 czas letni","","52.7247658,19.6812477","http://diecezjaplocka.pl/parafie/gozdowo-wszystkich-swietych"
"Parafia pw. św. Mikołaja","","","09-227 Szczutowo, ul. Lipnowska 1","","gojsk@diecezjaplocka.pl","","Grzegorz Żabik","8:30 ; 10:30 kaplica; 12:00 ; 15:00","7:30 ; 17:00","","52.9008026,19.52533","http://diecezjaplocka.pl/parafie/gojsk-sw-mikolaja"
"Parafia pw. św. Jakuba Apostoła","","","09-440 Staroźreby, ul. Płocka 11","","gora@diecezjaplocka.pl","","Wiesław Waldemar Leszczyński","9:00 ; 11:30 ; 14:30 kaplica","17:00","","52.6466331,20.0939083","http://diecezjaplocka.pl/parafie/gora-sw-jakuba-apostola"
"Parafia pw. św. Katarzyny Aleksandryjskiej","","","09-135 Siemiątkowo, Gradzanowo Kościelne 14","","gradzanowo@diecezjaplocka.pl","","Roman Stanisław Tomaszewski","9:00 ; 11:30 ; 15:00","16:00 czas zimowy; 17:00","","52.8983536,20.0912876","http://diecezjaplocka.pl/parafie/gradzanowo-sw-katarzyny-aleksandryjskiej"
"Parafia pw. św. Małgorzaty","","","","","gralewo@diecezjaplocka.pl","","Jan Stanisław Piotrowski","8:00 ; 10:00 ; 12:00 ; 14:00 kaplica Niedarzyn","16:00 ; 18:00 czas letni","","52.7167549,20.1101875","http://diecezjaplocka.pl/parafie/gralewo-sw-malgorzaty"
"Parafia pw. św. Bartłomieja","","","Grodziec 5, ul. Warszawska 1","","grodziec@diecezjaplocka.pl","","Księża mieszkający w parafii","9:00 ; 13:00","9:00 ; 17:00 zamiennie","","52.4713745,20.394865","http://diecezjaplocka.pl/parafie/grodziec-sw-bartlomieja"
"Parafia pw. św. Apostoł&#243;w Piotra i Pawła","","","06-460 Grudusk, ul. Żeromskiego 2","","grudusk@diecezjaplocka.pl","","Tadeusz Wołowiec","8:00 ; 9:30 ; 11:30","7:30 ; 18:00","","53.0583267,20.62582","http://diecezjaplocka.pl/parafie/grudusk-sw-apostolow-piotra-i-pawla"
"Parafia pw. św. Leonarda","","","06-513 Wieczfnia Kościelna, Grzebsk 48","","grzebsk@diecezjaplocka.pl","","Krzysztof Dziadak","9:00 ; 11:30","17:00 czas zimowy; 18:00 czas letni","","53.2181664,20.5870819","http://diecezjaplocka.pl/parafie/grzebsk-sw-leonarda"
"Parafia pw. św. Pankracego","","","09-164 Dzierzążnia, Nowe Gumino 42","","gumino@diecezjaplocka.pl","","Tadeusz Milczarski","8:30 ; 12:00","7:30 lub 17:00","","52.58349,20.2372112","http://diecezjaplocka.pl/parafie/gumino-sw-pankracego"
"Parafia pw. św. Walentego","","","06-126 Gzy, Gzy 14","","gzy@diecezjaplocka.pl","","Księża mieszkający w parafii","9:00 ; 11:00","16:00","","52.73841,20.9423542","http://diecezjaplocka.pl/parafie/gzy-sw-walentego"
"Parafia pw. św. Jana Chrzciciela","","","","","janowiec@diecezjaplocka.pl","","Jacek Lubiński","8:00 ; 10:00 ; 12:00","7:00 ; 17:00 zamiennie","","53.2903252,20.5245361","http://diecezjaplocka.pl/parafie/janowiec-sw-jana-chrzciciela"
"Parafia pw. św. Rocha","","","","","janowo@diecezjaplocka.pl","","Księża mieszkający w parafii","9:00 ; 11:15 ; 14:00 kaplica; 17:00","7:00 ; 17:00 ; 18:00 zamiennie","","53.3123856,20.6740627","http://diecezjaplocka.pl/parafie/janowo-sw-rocha"
"Parafia pw. św. Bartłomieja Apostoła","","","09-226 Zawidz Kościelny, Jeżewo 7","","jezewo@diecezjaplocka.pl","","Dariusz Zbigniew Perg&#243;ł","8:00 ; 10:00 ; 12:00","16:00","","53.5098763,18.4947681","http://diecezjaplocka.pl/parafie/jezewo-sw-bartlomieja-apostola"
"Parafia pw. św. Ludwika","","","09-131 Joniec, Joniec 65","","joniec@diecezjaplocka.pl","","Włodzimierz Czarnomski","9:00 ; 10:30 kaplica; 12:00","17:00","","52.6021729,20.57784","http://diecezjaplocka.pl/parafie/joniec-sw-ludwika"
"Parafia pw. Opatrzności Bożej","","","","","kamienica@diecezjaplocka.pl","","Hubert Jerzy Komorowski","9:00 ; 11:30 ; 16:00 od 1 września do 1 czerwca; 18:00 od 1 czerwca do końca wakacji","18:00","","52.47288,20.4750156","http://diecezjaplocka.pl/parafie/kamienica-opatrznosci-bozej"
"Parafia pw. Wszystkich Świętych","","","06-425 Karniewo, Pl. Kościelny 4","","karniewo@diecezjaplocka.pl","","Sławomir Piotr Filipski","9:00 ; 11:30 ; 14:00 kaplica; 16:00","7:00 ; 17:00","","52.8352432,20.98808","http://diecezjaplocka.pl/parafie/karniewo-wszystkich-swietych"
"Parafia pw. św. Stanisława Biskupa i Męczennika","","","06-150 Świercze, Klukowo 8","","klukowo@diecezjaplocka.pl","","Wojciech Wiśniewski","8:00 ; 10:00 ; 12:00 ; 17:00 sobota czas zimowy; 18:00 sobota czas letni","17:00 czas zimowy; 18:00 czas letni","","52.6663857,20.7420712","http://diecezjaplocka.pl/parafie/klukowo-sw-stanislawa-biskupa-i-meczennika"
"Parafia pw. św. Anny","","","09-450 Wyszogród, Kobylniki 50","","kobylniki@diecezjaplocka.pl","","Marek Jędrzejewski","9:00 ; 11:30","16:00 ; 17:00 zamiennie","","52.470005,20.216362","http://diecezjaplocka.pl/parafie/kobylniki-sw-anny"
"Parafia pw. św. Walentego","","","09-520 Łąck, Antoninów 37","","korzen@diecezjaplocka.pl","","Bogusław Daniel Kwiatkowski","8:30 ; 10:00 kaplica; 12:00 ; 16:00","17:00","","52.4290733,19.62661","http://diecezjaplocka.pl/parafie/korzen-sw-walentego"
"Parafia pw. św. Dionizego","","","06-461 Regimin, Koziczyn 54","","koziczynek@diecezjaplocka.pl","","Zenon Froch","9:00 ; 11:30","17:00 czas zimowy; 18:00 czas letni","","52.9818153,20.680685","http://diecezjaplocka.pl/parafie/koziczynek-sw-dionizego"
"Parafia pw. św. Jakuba Apostoła","","","09-140 Raciąż, Koziebrody","","koziebrody@diecezjaplocka.pl","","Władysław Majewski","9:00 ; 11:30 ; 15:00","18:00","","52.803093,19.994297","http://diecezjaplocka.pl/parafie/koziebrody-sw-jakuba-apostola"
"Parafia pw. Tr&#243;jcy Świętej","","","09-140 Raciąż, Krajkowo","","krajkowo@diecezjaplocka.pl","","Zbigniew Kluba","9:15 ; 11:30 ; 14:00 kaplica","17:00 czas letni; 18:00","","52.7942276,20.2010479","http://diecezjaplocka.pl/parafie/krajkowo-trojcy-swietej"
"Parafia pw. św. Jana Chrzciciela","","","06-408 Krasne, ul. Ludwika Krasińskiego 2/1","","krasne@diecezjaplocka.pl","","Krzysztof Kujawa","9:00 ; 11:30 ; 15:00","7:00 ; 17:00","","52.9211464,20.9688816","http://diecezjaplocka.pl/parafie/krasne-sw-jana-chrzciciela"
"Parafia pw. św. Zygmunta","","","06-456 Ojrzeń, Kraszewo","","kraszewo@diecezjaplocka.pl","","J&#243;zef Hilary Deptuła","9:15 ; 11:30 ; 15:00","17:00 czas zimowy; 18:00 czas letni","","52.79296,20.5708332","http://diecezjaplocka.pl/parafie/kraszewo-sw-zygmunta"
"Parafia pw. św. Jana Chrzciciela","","","09-142 Załuski, Kroczewo","","kroczewo@diecezjaplocka.pl","","Henryk Wojciech Szwajkowski","9:30 ; 11:30 ; 15:00 czas zimowy; 17:00","16:30 ; 17:00 czas zimowy; 17:30 ; 18:00 czas letni","","52.4783936,20.5556374","http://diecezjaplocka.pl/parafie/kroczewo-sw-jana-chrzciciela"
"Parafia pw. św. Zygmunta","","","09-131 Joniec, Królewo 99","","krolewo@diecezjaplocka.pl","","Witold Zembrzuski","9:00 ; 11:00 ; 15:00","8:00 poniedziałek, sobota; 17:00","","52.63327,20.5650158","http://diecezjaplocka.pl/parafie/krolewo-sw-zygmunta"
"Parafia pw. św. Floriana","","","09-152 Naruszewo, Krysk 13","","krysk@diecezjaplocka.pl","","Jan Kaźmierczak","8:30 kaplica; 10:30 ; 12:00 ; 18:00 sobota","17:00","","52.532402,20.41839","http://diecezjaplocka.pl/parafie/krysk-sw-floriana"
"Parafia pw. św. Dominika","","","06-316 Krzynowłoga Mała, ul. Kościelna 13","","krzynowlogamala@diecezjaplocka.pl","","Księża mieszkający w parafii","8:30 ; 10:00 kaplica; 11:15","8:00 ; 16:00 zamiennie","","53.1551361,20.7901917","http://diecezjaplocka.pl/parafie/krzynowloga-mala-sw-dominika"
"Parafia pw. Wszystkich Świętych","","","06-330 Chorzele, Krzynowłoga Wielka 30","","krzynowlogawielka@diecezjaplocka.pl","","Kazimierz W&#243;jcik","8:00 ; 10:00 ; 12:00","16:00 lub 18:00","","53.2123032,20.84926","http://diecezjaplocka.pl/parafie/krzynowloga-wielka-wszystkich-swietych"
"Parafia pw. św. Michała Archanioła","","","09-164 Dzierzążnia, Nowe Gumino 42","","kucice@diecezjaplocka.pl","","Tadeusz Milczarski","10:15","Nabożeństwa","","52.57135,20.2177238","http://diecezjaplocka.pl/parafie/kucice-sw-michala-archaniola"
"Parafia pw. św. Bartłomieja Apostoła","","","09-310 Kuczbork, ul. Mickiewicza 14a","","kuczbork@diecezjaplocka.pl","","Antoni Włodzimierz Kosiorek","9:00 ; 11:00 ; 16:00","17:00","","53.0820923,20.0439167","http://diecezjaplocka.pl/parafie/kuczbork-sw-bartlomieja-apostola"
"Parafia pw. św. Apostoł&#243;w Piotra i Pawła","","","09-213 Gozdowo, Kurowo 6","","kurowo@diecezjaplocka.pl","","Księża mieszkający w parafii","9:00 ; 11:30","16:00 czas zimowy; 17:00","","52.77594,19.6469116","http://diecezjaplocka.pl/parafie/kurowo-sw-apostolow-piotra-i-pawla"
"Parafia pw. św. Stanisława Biskupa i Męczennika","","","06-461 Regimin, Lekowo 8","","lekowo@diecezjaplocka.pl","","Franciszek Jan Tuszyński","9:00 ; 11:00 ; 14:00 kaplica; 16:00","16:30 ; 17:00","","52.93527,20.5509586","http://diecezjaplocka.pl/parafie/lekowo-sw-stanislawa-biskupa-i-meczennika"
"Parafia pw. św. Mateusza Ewangelisty","","","09-228 Ligowo, Ligowo 19","","ligowo@diecezjaplocka.pl","","Andrzej Zembrzuski","9:00 ; 10:30 kaplica; 12:00 ; 16:00","16:00 czas zimowy; 16:30 czas zimowy; 17:30 czas letni; 18:00 czas letni","","52.823616,19.4818382","http://diecezjaplocka.pl/parafie/ligowo-sw-mateusza-ewangelisty"
"Parafia pw. św. Mikołaja","","","06-545 Lipowiec Kościelny, Lipowiec Kościelny 38","","lipowiec@diecezjaplocka.pl","","Krzysztof Szwejkowski","9:00 ; 11:30 ; 16:00","7:00 ; 17:00 czas zimowy; 18:cz s letni","","53.10393,20.1771622","http://diecezjaplocka.pl/parafie/lipowiec-koscielny-sw-mikolaja"
"Parafia pw. św. Andrzeja Apostoła","","","09-304 Lubowidz, ul. Gamy 2","","lubowidz@diecezjaplocka.pl","","Tadeusz Nikicin","7:30 ; 9:30 ; 11:30 ; 16:00","7:30 ; 17:00 ; 18:00 zamiennie","","53.1200676,19.8449535","http://diecezjaplocka.pl/parafie/lubowidz-sw-andrzeja-apostola"
"Parafia pw. św. Kazimierza","","","","","lucien@diecezjaplocka.pl","","Eugeniusz Klonowski","9:00 ; 10:30 ; 12:00 kaplica w Białe; 16:00 kaploca Kruk","18:00","","52.4883232,19.474472","http://diecezjaplocka.pl/parafie/lucien-sw-kazimierza"
"Parafia pw. św. Mateusza","","","09-317 Lutocin, ul. Konopnickiej 4","","lutocin@diecezjaplocka.pl","","Wiesław Barański","9:00 ; 10:30 ; 12:00 ; 16:00","7:30 ; 17:00","","52.9796562,19.7655354","http://diecezjaplocka.pl/parafie/lutocin-sw-mateusza"
"Parafia pw. św. Katarzyny","","","09-210 Drobin, Łęg Probostwo 31","","leg@diecezjaplocka.pl","","Zbigniew J&#243;zef Załęcki","9:00 ; 11:00 ; 16:00","18:00","","52.70912,19.8907528","http://diecezjaplocka.pl/parafie/leg-sw-katarzyny"
"Parafia pw. św. Jana Chrzciciela","","","09-470 Bodzanów, Łętowo 1","","letowo@diecezjaplocka.pl","","Eugeniusz Światkowski","9:00 ; 11:30","7:30 lub 17:00","","52.5332527,20.0692978","http://diecezjaplocka.pl/parafie/letowo-sw-jana-chrzciciela"
"Parafia pw. św. Leonarda","","","06-440 Gąsocin, Łopacin 35","","lopacin@diecezjaplocka.pl","","Roman Bogumił Godlewski","9:00 ; 11:30","17:00 czas zimowy; 18:00 czas letni","","52.7428436,20.6698627","http://diecezjaplocka.pl/parafie/lopacin-sw-leonarda"
"Parafia pw. św. Antoniego","","","09-204 Rościszewo, Łukomie","","lukomie@diecezjaplocka.pl","","Krzysztof Zakrzewski","8:00 ; 10:00 ; 12:00","7:30 poniedziałek,środa,czwartek; 18:00 wtorek,piątek,sobota","","52.919178,19.72418","http://diecezjaplocka.pl/parafie/lukomie-sw-antoniego"
"Parafia pw. św. Antoniego Padewskiego","","","06-460 Grudusk, Łysakowo 30","","lysakowo@diecezjaplocka.pl","","Teofil Andrzej Kapuściński","9:00 ; 11:30","16:00 czas zimowy; 18:00 czas letni","","53.0227051,20.6027145","http://diecezjaplocka.pl/parafie/lysakowo-sw-antoniego-padewskiego"
"Parafia pw. św. Brata Alberta","","","06-200 Maków Mazowiecki, ul. Kolejowa 11","","makow.albert@diecezjaplocka.pl","","Krzysztof Biernat","7:30 ; 9:30 ; 11:00 ; 12:30 ; 17:00 ; 19:00 kaplica szpitalna","7:00 ; 18:00","","52.86773,21.0923347","http://diecezjaplocka.pl/parafie/makow-mazowiecki-sw-brata-alberta"
"Parafia pw. św. J&#243;zefa","","","06-200 Maków Mazowiecki, ul. Kościelna 11A","","makow.jozef@diecezjaplocka.pl","","Bonifacy Kazimierz Radziszewski","8:00 ; 10:00 ; 12:00 ; 16:00 ; 19:00","7:00 ; 18:00","","52.863,21.1027489","http://diecezjaplocka.pl/parafie/makow-mazowiecki-sw-jozefa"
"Parafia pw. św. Wojciecha","","","06-450 Glinojeck, Malużyn 55A","","maluzyn@diecezjaplocka.pl","","Krzysztof Kozłowski","8:00 ; 9:30 ; 12:00","7:30 lub 17:00","","52.7483444,20.41662","http://diecezjaplocka.pl/parafie/maluzyn-sw-wojciecha"
"Parafia pw. św. Maksymiliana Kolbego","","","09-460 Mała Wieś, ul. Mickiewicza 20","","malawies@diecezjaplocka.pl","","Edward Kuzak","9:00 ; 11:00 ; 16:00 ; 18:00","7:00 ; 17:00","","52.4576569,20.1035767","http://diecezjaplocka.pl/parafie/mala-wies-sw-maksymiliana-kolbego"
"Parafia pw. św. Mikołaja","","","09-472 Słupno, Miszewko Strzałkowskie 35","","miszewko@diecezjaplocka.pl","","Zbigniew Cichewicz","9:15 ; 11:00","17:00","","52.5327568,19.8543034","http://diecezjaplocka.pl/parafie/miszewko-strzalkowskie-sw-mikolaja"
"Parafia pw. św. Anny","","","","","miszewo@diecezjaplocka.pl","","Stanisław Dziekan","9:00 ; 11:30 ; 13:00 kaplica Białobrzegi","17:00 ; 18:00 czas letni","","52.4835,19.94092","http://diecezjaplocka.pl/parafie/miszewo-murowane-sw-anny"
"Parafia pw. Matki Bożej Kr&#243;lowej Polski","","","06-500 Mława, ul. Mariacka 20","","mlawa.matkaboza@diecezjaplocka.pl","","Kazimierz Zi&#243;łkowski","7:00 ; 9:00 ; 10:30 ; 12:00 ; 14:00 kaplica Lewiczyn; 16:00 ; 18:00","7:00 ; 7:25 ; 17:30 ; 18:00","","53.1113,20.3669","http://diecezjaplocka.pl/parafie/mlawa-matki-bozej-krolowej-polski"
"Parafia pw. św. Jana Kantego","","","06-500 Mława, ul. Graniczna 86","","mlawa.kanty@diecezjaplocka.pl","","Jan Stanisław Cegłowski","8:00 ; 9:30 ; 11:00 ; 18:00","7:00 ; 18:00","","53.1267548,20.3563633","http://diecezjaplocka.pl/parafie/mlawa-sw-jana-kantego"
"Parafia pw. św. Stanisława Biskupa i Męczennika","","","06-500 Mława, ul. Stary Rynek 18","","mlawa.stanislaw@diecezjaplocka.pl","","Ryszard Kamiński","7:00 ; 8:30 ; 10:00 11:30; 13:00 ; 16:00 kaplica; 18:00","6:30 ; 8:30 ; 18:00","","53.111763,20.3822975","http://diecezjaplocka.pl/parafie/mlawa-sw-stanislawa-biskupa-i-meczennika"
"Parafia pw. Świętej Rodziny","","","06-500 Mława, ul. Kard. Wyszyńskiego 2","","mlawa.swietarodzina@diecezjaplocka.pl","","Sławomir Franciszek Kowalski","7:00 ; 9:00 ; 10:30 ; 12:00 ; 18:00","7:00 ; 18:00","","53.12039,20.3782368","http://diecezjaplocka.pl/parafie/mlawa-swietej-rodziny"
"Parafia pw. św. Marcina","","","","","mochowo@diecezjaplocka.pl","","Grzegorz Robert Mierzejewski","8:00 kaplica Żurawin czas letni; 9:30 ; 11:30 ; 13:00 kaplica Żurawin czas zimowy","17:00 czas zimowy; 18:00 czas letni","","52.7647629,19.55403","http://diecezjaplocka.pl/parafie/mochowo-sw-marcina"
"Parafia pw. św. Marii Magdaleny","","","87-606 Chalin, Mokowo 17","","mokowo@diecezjaplocka.pl","","Księża mieszkający w parafii","9:00 ; 11:30 ; 15:00","16:00 lub 17:00","","52.69006,19.3465137","http://diecezjaplocka.pl/parafie/mokowo-sw-marii-magdaleny"
"Parafia pw. św. Tekli","","","09-152 Naruszewo, Naruszewo 40","","naruszewo@diecezjaplocka.pl","","Sławomir Grzegorz Stefański","9:00 ; 11:30 ; 16:00","16:00 czas zimowy; 17:00 czas letni","","52.5282555,20.3528519","http://diecezjaplocka.pl/parafie/naruszewo-sw-tekli"
"Parafia pw. św. Katarzyny","","","05-191 Nasielsk, ul. Kolejowa 67 Stare Pieścirogi","","nasielsk.katarzyna@diecezjaplocka.pl","","Jan Majewski","8:00 ; 10:00 ; 12:00 ; 17:00","16:30 czas zimowy; 17:30 czas letni; 17:00 czas zimowy; 18:00 czas letni","","52.5795174,20.762867","http://diecezjaplocka.pl/parafie/nasielsk-sw-katarzyny"
"Parafia pw. św. Wojciecha","","","05-190 Nasielsk, ul. św. Wojciecha 13","","nasielsk.wojciech@diecezjaplocka.pl","","Tadeusz Pepłoński","7:30 ; 9:00 ; 10:00 Dom pomocy Społecznej Nasielsk; 10:30 ; 12:00 ; 17:00","7:00 ; 18:00","","52.59224,20.8025074","http://diecezjaplocka.pl/parafie/nasielsk-sw-wojciecha"
"Parafia pw. Wszystkich Świętych","","","13-206 Płośnica, Niechłonin 87","","niechlonin@diecezjaplocka.pl","","Dariusz Krzysztof Załęcki","8:30 ; 10:00 ; 11:30","18:00","","53.17298,20.0467224","http://diecezjaplocka.pl/parafie/niechlonin-wszystkich-swietych"
"Parafia pw. św. Mikołaja","","","","","niedzborz@diecezjaplocka.pl","","Stanisław Gajewski","9:00 ; 10:30 kaplica; 12:00","8:00 zamiennie; 16:00 czas zimowy; 18:00 czas letni","","52.93392,20.3660469","http://diecezjaplocka.pl/parafie/niedzborz-sw-mikolaja"
"Parafia pw. św. Anny","","","09-120 Nowe Miasto k.Płońska, ul. Kościelna 18","","nowemiasto@diecezjaplocka.pl","","Wojciech Brzozowski","8:30 ; 10:00 ; 11:30 ; 16:00 sobota; 18:00","7:00 ; 17:00 czas zimowy; 18:00","","52.65778,20.6299","http://diecezjaplocka.pl/parafie/nowe-miasto-sw-anny"
"Parafia pw. św. Maksymiliana Kolbego","","","05- 102 Nowy Dwór Mazowiecki, ul. Czarnieckiego 13 (Modlin Stary)","","nowydwormazowiecki.barbara@diecezjaplocka.pl","","Andrzej Redmer","7:30 maj - wrzesień; 9:30 ; 12:00 ; 18:00","17:30 ; 18:00 maj - wrzesień","","52.4496574,20.70782","http://diecezjaplocka.pl/parafie/nowy-dwor-mazowiecki-sw-maksymiliana-kolbego"
"Parafia pw. św. Barbary","","","05-160 Nowy Dwór Mazowiecki, ul. Szpitalna 69 Modlin Twierdza","","nowydwormazowiecki.maksymilian@diecezjaplocka.pl","","Janusz Nawrocki","9:00 ; 10:30 ; 12:00 ; 17:00","7:00 ; 18:00","","52.4343147,20.663908","http://diecezjaplocka.pl/parafie/nowy-dwor-mazowiecki-sw-barbary"
"Parafia pw. bł. ks. Jerzego Popiełuszki","","","05-190 Nasielsk, Nuna 159","","nuna@diecezjaplocka.pl","","Tadeusz Szczepan Jabłoński","9:00 ; 11:30","16:00 czas zimowy; 17:00 czas letni","","52.5309372,20.86654","http://diecezjaplocka.pl/parafie/nuna-bl-ks-jerzego-popieluszki"
"Parafia pw. Matki Bożej Bolesnej","","","87-645 Zbójno k. Rypina, Obory","","obory@diecezjaplocka.pl","","Piotr Słomiński,O.Carm.","8:30 ; 10:00 ; 11:00 16:00","7:30 ; 16:00 czas zimowy; 18:00 czas letni","","53.001873,19.2138615","http://diecezjaplocka.pl/parafie/obory-matki-bozej-bolesnej"
"Parafia pw. św. Jana Chrzciciela","","","07-215 Obryte, Obryte 97","","obryte@diecezjaplocka.pl","","Cezary Siemiński","9:00 ; 10:15 kaplica; 11:30 ; 16:00 czas zimowy; 17:00 czas letni","7:00 ; 17:00 czas zimowy; 18:00 czas letni","","52.7168121,21.2546215","http://diecezjaplocka.pl/parafie/obryte-sw-jana-chrzciciela"
"Parafia pw. Matki Boskiej Szkaplerznej","","","87-510 Skrwilno, Okalewo 139","","okalewo@diecezjaplocka.pl","","Roman Murawski","8:30 ; 10:00 ; 12:00","16:00 lub 17:00","","53.0568161,19.6099472","http://diecezjaplocka.pl/parafie/okalewo-matki-boskiej-szkaplerznej"
"Parafia pw. św. Zygmunta","","","06-406 Opinogóra, ul. Krasińskiego 1","","opinogora@diecezjaplocka.pl","","Jarosław Arbat","9:00 ; 10:30 ; 12:00","16:00 czas zimowy; 17:00 czas letni","","52.90327,20.7133446","http://diecezjaplocka.pl/parafie/opinogora-sw-zygmunta"
"Parafia pw. św. Floriana","","","09-460 Mała Wieś, Orszymowo 50","","orszymowo@diecezjaplocka.pl","","Grzegorz Jendrzejewski","9:00 ; 11:00 ; 13:00 kaplica","18:00","","52.455204,20.1582718","http://diecezjaplocka.pl/parafie/orszymowo-sw-floriana"
"Parafia pw. Wniebowzięcia Najświętszej Marii Panny","","","","","osiek@diecezjaplocka.pl","","Stanisław Roman Bednarski","7:30 ; 9:00 ; 11:00 ; 16:00","7:00 ; 17:00 czas zimowy; 18:00 czas letni","","53.168087,19.3859367","http://diecezjaplocka.pl/parafie/osiek-wniebowziecia-najswietszej-marii-panny"
"Parafia pw. św. Stanisława Kostki","","","","","ostrowite@diecezjaplocka.pl","","Księża mieszkający w parafii","8:00 ; 10:00 ; 16:00","17:00","","53.0661049,19.2864742","http://diecezjaplocka.pl/parafie/ostrowite-sw-stanislawa-kostki"
"Parafia pw. św. Gotardy","","","06-406 Opinogóra, Pałuki","","paluki@diecezjaplocka.pl","","Wacław Michalski","9:00 ; 10:30 ; 12:00","7:30 ; 17:00","","52.88084,20.7623138","http://diecezjaplocka.pl/parafie/paluki-sw-gotarda"
"Parafia pw. św. Macieja","","","06-415 Czernice Borowe, Pawłowo","","pawlowo@diecezjaplocka.pl","","Księża mieszkający w parafii","10:00 ; 12:00 ; 16:00 ; 17:00","9:30","","53.0731544,20.7144222","http://diecezjaplocka.pl/parafie/pawlowo-sw-macieja"
"Parafia pw. św. Marii Magdaleny","","","","","pilichowo@diecezjaplocka.pl","","Stanisław Wiesław Sadłowski","12:15","17:00 I piątki","","52.55312,20.1482372","http://diecezjaplocka.pl/parafie/pilichowo-sw-marii-magdaleny"
"Parafia pw. Ducha Świętego","","","09-400 Płock, ul. Asnyka 2","","plock.duch@diecezjaplocka.pl","","Zbigniew Jerzy Zbrzezny","8:00 ; 9:30 ; 11:00 ; 12:15 ; 18:00","7:00 ; 18:00","","52.5595627,19.66871","http://diecezjaplocka.pl/parafie/plock-ducha-swietego"
"Parafia pw. Matki Bożej Fatimskiej","","","09-407 Płock, ul. Gierzyńskiego 29","","plock.fatimska@diecezjaplocka.pl","","Stanisław G&#243;rski","7:30 ; 9:00 ; 10:30 ; 12:00 ; 16:00 ; 18:00","7:00 ; 18:00","","52.5422859,19.72589","http://diecezjaplocka.pl/parafie/plock-matki-bozej-fatimskiej"
"Parafia pw. św. Bartłomieja","","","09-400 Płock, ul. Kazimierza Wielkiego 1","","plock.bartlomiej@diecezjaplocka.pl","","Wiesław Kazimierz Gutowski","7:00 ; 8:30 kaplica cmentarna; 9:00 ; 10:00 kaplica cmentarna; 10:30 ; 11:30 kaplica cmentarna; 12:00 ; 16:00 poza wakacjami; 18:00","7:00 ; 17:00 kaplica cmentarna; 18:00","","52.5448952,19.683527","http://diecezjaplocka.pl/parafie/plock-sw-bartlomieja"
"Parafia pw. św. Jadwigi Kr&#243;lowej","","","09-400 Płock, ul. Kossobudzkiego 10","","plock.jadwiga@diecezjaplocka.pl","","Stanisław Kaźmierczak","7:00 ; 9:00 ; 11:00 ; 12:30 II niedziela; 15:00 ; 18:00","6:30 ; 18:00","","52.55886,19.6884613","http://diecezjaplocka.pl/parafie/plock-sw-jadwigi-krolowej"
"Parafia pw. św. Jakuba Apostoła","","","09-400 Płock, ul. Wyszogrodzka 166","","plock.jakub@diecezjaplocka.pl","","Ryszard Paradowski","7:00 ; 9:00 ; 10:30 ; 12:00 ; 17:00 ; 18:30","7:00 ; 18:00 ; 18:30","","52.5308456,19.77625","http://diecezjaplocka.pl/parafie/plock-sw-jakuba-apostola"
"","","","","","","","","","","","52.54801,19.6848412","http://diecezjaplocka.pl/parafie/plock-sw-jana-chrzciciela"
"Parafia pw. św. J&#243;zefa Rzemieślnika","","","09-402 Płock, ul. Górna 1","","plock.jozef@diecezjaplocka.pl","","Andrzej Adam Smoleń","8:00 ; 9:30 ; 11:00 ; 12:30 ; 16:00 ; 18:00","7:00 ; 18:00","","52.53363,19.7169228","http://diecezjaplocka.pl/parafie/plock-sw-jozefa-rzemieslnika"
"Parafia pw. św. Maksymiliana Kolbego","","","09-402 Płock, ul. Kościuszki 16","","plock.maksymilian@diecezjaplocka.pl","","Tadeusz Łebkowski","8:00 ; 9:30 ; 11:00 ; 12:30 ; 18:00","7:00 ; 18:00","","52.5408859,19.6927376","http://diecezjaplocka.pl/parafie/plock-sw-maksymiliana-kolbego"
"Parafia pw. św. Stanisława Kostki","",""," 09-402 Płock, Al. Jachowicza 4","","plock.stanislaw@diecezjaplocka.pl","","Jan Rusiecki,SDB","7:00 ; 9:00 ; 9:00 Msza Trydencka - dolny kości&#243;ł; 10:30 ; 12:00 ; 18:00 ; 20:00","7:00 ; 8:00 ; 18:00","","52.5477371,19.705904","http://diecezjaplocka.pl/parafie/plock-sw-stanislawa-kostki"
"Parafia pw. św. Wojciecha","","","09-410 Płock, ul. św. Wojciecha 2","","plock.wojciech@diecezjaplocka.pl","","Jerzy Ławicki","8:00 ; 9:30 ; 11:00 ; 12:30 ; 16:00 październik-maj; 18:00","7:00 ; 18:00","","52.52969,19.7513351","http://diecezjaplocka.pl/parafie/plock-sw-wojciecha"
"Parafia pw. św. Zygmunta","","","09-402 Płock, ul. Mostowa 2","","katedra@diecezjaplocka.pl","","Stefan Jan Cegłowski","8:00 ; 10:00 (transmitowana przez Katolickie Radio Diecezji Płockiej); 11:30 (dla dzieci); 13:00 (z oprawą ch&#243;ru Pueri et Puellae Cantores Plocenses); 18:00","9:00 ; 18:00","","52.541832,19.6898251","http://diecezjaplocka.pl/parafie/plock-sw-zygmunta"
"Parafia pw. Świętego Krzyża","","","09-409 Płock, ul. Gen. Kutrzeby 2","","plock.krzyz@diecezjaplocka.pl","","Grzegorz Wojciech Dobrzeniecki","8:00 ; 9:30 ; 11:00 ; 12:30 ; 16:00 ; 18:00 ; 20:00","7:00 ; 17:00 ; 18:00","","52.5395279,19.75775","http://diecezjaplocka.pl/parafie/plock-swietego-krzyza"
"Parafia pw. św. Maksymiliana Kolbego","","","09-401 Płock, ul. Ciechomicka 17 Płock - Ciechomice","","plock.ciechomice@diecezjaplocka.pl","","Leszek Franciszek Żuchowski","8:30 ; 10:00 ; 11:30 ; 18:00","17:00","","52.4960823,19.6799679","http://diecezjaplocka.pl/parafie/plock-ciechomice-sw-maksymiliana-kolbego"
"Parafia pw. św. Benedykta","","","09-401 Płock, ul. Dobrzykowska 2 Płock – Radziwie","","plock.benedykt@diecezjaplocka.pl","","Krzysztof Jaroszewski","8:30 ; 10:00 ; 11:15 kaplica; 11:30 16:30","7:00 ; 17:30 ; 18:00","","52.52488,19.6814957","http://diecezjaplocka.pl/parafie/plock-radziwie-sw-benedykta"
"Parafia pw. św. Aleksego","","","09-402 Płock, ul. Krzywa 15 Płock - Trzepowo","","plock.aleksy@diecezjaplocka.pl","","Zbigniew Kaniecki","9:15 ; 11:15","18:00","","52.58183,19.7235012","http://diecezjaplocka.pl/parafie/plock-trzepowo-sw-aleksego"
"Parafia pw. św. Jakuba Apostoła","","","87-404 Radomin, Płonne","","plonne@diecezjaplocka.pl","","Leszek Błaszczak","9:00 ; 11:00","17:00","","53.1244,19.1722832","http://diecezjaplocka.pl/parafie/plonne-sw-jakuba-apostola"
"Parafia pw. św. Michała Archanioła","","","09-100 Płońsk, ul. Płocka 17","","plonsk.michal@diecezjaplocka.pl","","Marek Krzysztof Zawadzki","7:00 ; 8:30 ; 10:00 ; 11:30 ; 16:00 ; 18:00","7:00 ; 18:00","","52.62232,20.3740387","http://diecezjaplocka.pl/parafie/plonsk-sw-michala-archaniola"
"Parafia pw. św. Maksymiliana Kolbego","","","09-100 Płońsk, ul. ks. Romualda Jaworskiego 1","","plonsk.maksymilian@diecezjaplocka.pl","","Zbigniew Sajewski","7:00 ; 7:30 kaplica szpitalna; 8:45 ; 10:00 ; 11:15 ; 12:30 ; 17:30 ; 19:00","7:00 ; 18:00","","52.6325264,20.3670864","http://diecezjaplocka.pl/parafie/plonsk-sw-maksymiliana-kolbego"
"Parafia pw. św. Piotra i Pawła","","","07-214 Zatory, Pniewo","","pniewo@diecezjaplocka.pl","","Stanisław Mariański","9:00 ; 11:00 ; 16:00","7:30 ; 16:00 czas zimowy; 18:00 czas letni","","52.6499252,21.254879","http://diecezjaplocka.pl/parafie/pniewo-sw-piotra-i-pawla"
"Parafia pw. św. J&#243;zefa","","","06-121 Pokrzywnica, Al. Jana Pawła II 6","","pokrzywnica@diecezjaplocka.pl","","Wiesław Kosiński","9:30 ; 11:30","16:00 czas zimowy; 17:00 czas letni","","52.6198959,21.0197945","http://diecezjaplocka.pl/parafie/pokrzywnica-sw-jozefa"
"Parafia pw. św. Anny","","","05-180 Pomiechówek, ul. Kościelna 15 Pomiechowo","","pomiechowo@diecezjaplocka.pl","","Tomasz Zbigniew Cymerman","7:15 ; 9:00 r&#243;wnież kaplica; 10:30 ; 12:00 ; 16:00","7:00 ; 17:30 ; 18:00","","52.4651527,20.7364464","http://diecezjaplocka.pl/parafie/pomiechowo-sw-anny"
"Parafia pw. św. Floriana","","","09-300 Żuromin, ul. Rynek 22 Poniatowo","","poniatowo@diecezjaplocka.pl","","Krzysztof Stępniak","9:00 ; 11:00 ; 14:00 kaplica Dębsk; 17:00","16:30 ; 17:00","","53.04685,19.8702011","http://diecezjaplocka.pl/parafie/poniatowo-sw-floriana"
"Parafia pw. Narodzenia Najświętszej Marii Panny","","","07-203 Somianka, Popowo Kościelne","","</a></p> <p>Wszystkie aktualności z życia Parafii publikowane są na stronie internetowej oraz Facebooku.</p> <p><a href=mailto:popowo@diecezjaplocka.pl></a></p> <p>http://www.parafia-popowo.strefa.pl</p> <p><a href=mailto:popowo@diecezjaplocka.pl></a></p> <p>https://www.facebook.com/pages/Parafia-Narodzenia-Naj%C5%9Bwi%C4%99tszej-Maryi-Panny-w-Popowie-Ko%C5%9Bcielnym/178907645622336?ref=hl</p> <p><a href=mailto:popowo@diecezjaplocka.pl>popowo@diecezjaplocka.pl</a></p></div> </div> <div id=oznaczenia> </div> <a class=link zobacz-jak-dojechac href='http://maps.google.com/maps?daddr=52.53718484032142,21.186039232263283&amp;z=12' target=_blank >Zobacz jak dojechać</a> </div> <div id=ksieza> <div class=header>Księża pracujący w parafii</div> <ul> <li style=><a href='http://diecezjaplocka.pl/dla-wiernych/wyszukiwarka?tab=ksieza&amp;ksiadzId=14398' style=color:#0e346c;><img alt=ksiadz src=/InteliImage.ashx?image=/media/111512/r.stacherski.jpg.jpg&width=80&height=108&resizeMethod=crop /> <span>Remigiusz Stacherski</span><br/><span>proboszcz</span></a></li> </ul><div class=header>Księża mieszkający w parafii</div><ul style=padding-top:40px;> <li style=><a href='http://diecezjaplocka.pl/dla-wiernych/wyszukiwarka?tab=ksieza&amp;ksiadzId=14279' style=color:#0e346c;><img alt=ksiadz src=/InteliImage.ashx?image=/media/110912/ł.nowak.jpg.jpg&width=80&height=108&resizeMethod=crop /> <span>Łukasz Nowak</span><br/><span>kierownik Ośrodka Caritas</span></a></li> </ul> </div> </div> <div id=parafia-container-right> <div class=accordion> <a class=header href=javascript:void(0);>Msze Święte <img alt=arrow up src=/images/arrow-down.png /></a> <div class=content> Niedziele i święta: <b>9:00 ; 11:00 ; 16:00 czerwiec - wrzesień; 18:00 sobota kaplica Gąsiorowo</b> <br/> <br/> Dni powszednie: <b>16:00 </b> </div> </div> <div class=accordion> <a class=header href=javascript:void(0);>Nabożeństwa <img alt=arrow up src=/images/arrow-down.png /></a> <div class=content><p><em><strong><span style=font-size: medium;>Msze Święte w okresie letnim</span></strong></em><br /><span style=font-size: medium;>W niedziele o godz. 9.00, 11.00; 16.00 </span><br /><span style=font-size: medium;>W dni powszednie o godz. 17.00</span><br /><span style=font-size: medium;>W Kaplicy w Gąsiorowie o godz. 19.00</span></p> <p><span style=font-size: medium;> </span></p> <p><span style=font-size: medium;><em><strong>Msze Święte w okresie zimowym</strong></em><br />W niedziele o godz. 9.00 i 11.00<br />W dni powszednie o godz. 16.00<br />W Kaplicy w Gąsiorowie o godz. 18.00</span></p></div> </div> <div class=accordion> <a class=header href=javascript:void(0);>Spowiedź <img alt=arrow up src=/images/arrow-down.png /></a> <div class=content></div> </div> <div class=accordion> <a class=header href=javascript:void(0);>Kancelaria parafialna <img alt=arrow up src=/images/arrow-down.png /></a> <div class=content></div> </div> <div class=accordion> <a class=header href=javascript:void(0);>Ogłoszenia parafialne <img alt=arrow up src=/images/arrow-down.png /></a> <div class=content></div> </div> <div id=wspolnoty> <div class=header>Wspólnoty</div> </div> </div> <script type=text/javascript> $(document).ready(function(){ $('.accordion').first().addClass('selected'); $('.accordion').find('img').first().attr('src','/images/arrow-up-white.png'); $('.accordion .header').click(function(){ var selectedAccordion = $(this).parent(); var selectedContent = $(this).next(); if(selectedContent.is(:visible)){ selectedAccordion.find('img').attr('src','/images/arrow-down.png'); selectedAccordion.toggleClass('selected'); selectedContent.slideUp(500); } else{ selectedAccordion.find('img').attr('src','/images/arrow-up-white.png'); selectedAccordion.toggleClass('selected'); selectedContent.slideDown(500); } }); }); </script> <script type=text/javascript> $(document).ready(function(){ $('.wspolnota').find('.strzalka').first().attr('src','/images/arrow-up.png'); $('.wspolnota .header').click(function(){ var selectedAccordion = $(this).parent(); var selectedContent = $(this).next(); if(selectedContent.is(:visible)){ selectedAccordion.find('.strzalka').attr('src','/images/arrow-down.png'); selectedAccordion.toggleClass('selected'); selectedContent.slideUp(500); } else{ selectedAccordion.find('.strzalka').attr('src','/images/arrow-up.png'); selectedAccordion.toggleClass('selected'); selectedContent.slideDown(500); } }); }); </script> <script type=text/javascript> $(document).ready(function(){ var mapObject; var size = new google.maps.Size(31, 44); var startPoint = new google.maps.Point(0, 0); var hangPoint = new google.maps.Point(10, 30); var markerIcon = new google.maps.MarkerImage('/images/marker-icon.png', size, startPoint, hangPoint); var infowindow = new google.maps.InfoWindow(); var dlugoscGeograficzna = 52.53718484032142; var szerokoscGeograficzna = 21.186039232263283; function InicjalizujMape() { var mapDiv = document.getElementById('mapka'); var myOptions = { zoom: 11, maxZoom: 18, center: new google.maps.LatLng(dlugoscGeograficzna, szerokoscGeograficzna), mapTypeId: google.maps.MapTypeId.ROADMAP, streetViewControl: false, panControl: false }; mapObject = new google.maps.Map(mapDiv, myOptions); } function DodajPunkt(){ var latlng = new google.maps.LatLng(dlugoscGeograficzna, szerokoscGeograficzna); var marker = new google.maps.Marker({ position: latlng, map: mapObject }); marker.setIcon(markerIcon); } InicjalizujMape(); DodajPunkt(); }); </script> </div> </div> <footer> <div id=footer-center> <div id=footer-upper> <table border=0 cellpadding=0 style=width: 100px; margin-right: 30px;> <tbody> <tr> <td><a href=http://diecezjaplocka.pl/dla-wiernych title=Dla wiernych class=header>DLA WIERNYCH</a></td> </tr> <tr> <td><a href=http://diecezjaplocka.pl/dla-wiernych/aktualnosci title=Aktualności>Aktualności</a></td> </tr> <tr> <td><a href=http://diecezjaplocka.pl/dla-wiernych/blogi title=Blogi>Blogi</a></td> </tr> <tr> <td><a href=http://diecezjaplocka.pl/dla-wiernych/parafie title=Parafie>Parafie</a></td> </tr> <tr> <td><a href=http://diecezjaplocka.pl/dla-wiernych/znajdz-msze title=Znajdź Mszę>Znajdź Mszę św.</a></td> </tr> <tr> <td><a href=http://diecezjaplocka.pl/dla-wiernych/poradnik title=Poradnik>Poradnik</a></td> </tr> <tr> <td><a href=http://diecezjaplocka.pl/dla-wiernych/dzieci-i-mlodziez title=Dzieci i młodzież>Dzieci i młodzież</a></td> </tr> <tr> <td><a href=http://diecezjaplocka.pl/dla-wiernych/narzeczeni title=Narzeczeni>Narzeczeni</a></td> </tr> <tr> <td><a href=http://diecezjaplocka.pl/dla-wiernych/malzenstwo-i-rodzina title=Małżeństwo i rodzina>Małżeństwo i rodzina</a></td> </tr> <tr> <td><a href=http://diecezjaplocka.pl/dla-wiernych/serwis-dla-katechetow title=Serwis dla katechetów>Serwis dla katechetów</a></td> </tr> <tr> <td><a href=http://diecezjaplocka.pl/dla-wiernych/pomoc-duchowa title=Pomoc duchowa>Pomoc duchowa</a></td> </tr> <tr> <td><a href=http://diecezjaplocka.pl/dla-wiernych/zaangazuj-sie title=Zaangażuj się!>Zaangażuj się</a>a</td> </tr> <tr> <td><a href=/dla-wiernych/nowa-ewangelizacja-diecezji-plockiej title=Nowa Ewangelizacja Diecezji Płockiej>Nowa Ewangelizacja Diecezji Płockiej</a></td> </tr> </tbody> </table> <table border=0 cellpadding=0 style=width: 115px; margin-right: 20px;> <tbody> <tr> <td><a href=http://diecezjaplocka.pl/dla-ksiezy title=Dla księży class=header>DLA DUCHOWNYCH</a></td> </tr> <tr> <td><a href=http://diecezjaplocka.pl/dla-ksiezy/panel-ksiedza?tab=4 title=Panel księdza>Dekrety</a></td> </tr> <tr> <td><a href=http://diecezjaplocka.pl/dla-ksiezy/panel-ksiedza?tab=1 title=Panel księdza>Personalia</a></td> </tr> <tr> <td><a href=http://diecezjaplocka.pl/dla-ksiezy/panel-ksiedza?tab=5 title=Panel księdza>Oświadczenia</a></td> </tr> <tr> <td><a href=http://diecezjaplocka.pl/dla-ksiezy/panel-ksiedza?tab=2 title=Panel księdza>43. Synod Diecezji Płockiej</a></td> </tr> <tr> <td><a href=http://diecezjaplocka.pl/dla-ksiezy/panel-ksiedza?tab=6 title=Panel księdza>Zakony i zgromadzenia</a></td> </tr> <tr> <td><a href=http://diecezjaplocka.pl/dla-ksiezy/okolnik title=Okólnik>Okólnik</a></td> </tr> <tr> <td><a href=http://diecezjaplocka.pl/dla-ksiezy/panel-ksiedza?tab=3 title=Panel księdza>Powołania</a></td> </tr> </tbody> </table> <table border=0 cellpadding=0 style=width: 100px; margin-right: 25px;> <tbody> <tr> <td><a href=http://diecezjaplocka.pl/dla-turystow title=Dla turystów class=header>DLA TURYSTÓW</a></td> </tr> <tr> <td><a href=http://diecezjaplocka.pl/dla-turystow/katedra title=Katedra>Katedra</a></td> </tr> <tr> <td><a href=http://diecezjaplocka.pl/dla-turystow/drzwi-plockie title=Drzwi płockie>Drzwi Płockie</a></td> </tr> <tr> <td><a href=http://diecezjaplocka.pl/dla-turystow/muzeum title=Muzeum>Muzeum</a></td> </tr> <tr> <td><a href=http://diecezjaplocka.pl/dla-turystow/sw-faustyna title=Św. Faustyna>Św. Faustyna</a></td> </tr> <tr> <td><a href=http://diecezjaplocka.pl/dla-turystow/noclegi title=Noclegi>Noclegi</a></td> </tr> <tr> <td> </td> </tr> <tr> <td> </td> </tr> <tr> <td> </td> </tr> <tr> <td> </td> </tr> <tr> <td> </td> </tr> <tr> <td> </td> </tr> </tbody> </table> <table border=0 cellpadding=0 style=width: 70px; margin-right: 30px;> <tbody> <tr> <td><a href=http://diecezjaplocka.pl/biskup title=Biskup Płocki Piotr Libera class=header>BISKUP</a></td> </tr> <tr> <td><a href=http://diecezjaplocka.pl/biskup title=Biskup>Biskup płocki</a></td> </tr> <tr> <td><a href=http://diecezjaplocka.pl/biskup/biskup-pomocniczy title=Biskup pomocniczy>Biskup pomocniczy</a></td> </tr> <tr> <td> </td> </tr> <tr> <td> </td> </tr> <tr> <td> </td> </tr> <tr> <td> </td> </tr> <tr> <td> </td> </tr> <tr> <td> </td> </tr> <tr> <td> </td> </tr> <tr> <td> </td> </tr> <tr> <td> </td> </tr> </tbody> </table> <table border=0 cellpadding=0 style=width: 100px; margin-right: 10px;> <tbody> <tr> <td><a href=http://diecezjaplocka.pl/instytucje title=Instytucje class=header>INSTYTUCJE</a></td> </tr> <tr> <td><a href=http://diecezjaplocka.pl/instytucje/kuria title=Kuria>Kuria</a></td> </tr> <tr> <td><a href=http://diecezjaplocka.pl/instytucje/sad-biskupi title=Sąd biskupi>Sąd biskupi</a></td> </tr> <tr> <td><a href=http://diecezjaplocka.pl/instytucje/komisje-i-rady title=Komisje i rady>Komisje i rady</a></td> </tr> <tr> <td><a href=http://diecezjaplocka.pl/instytucje/ruchy-i-stowarzyszenia title=Ruchy i stowarzyszenia>Ruchy i stowarzyszenia</a></td> </tr> <tr> <td><a href=http://diecezjaplocka.pl/instytucje/rada-spoleczna title=Rada społeczna>Rada społeczna</a></td> </tr> <tr> <td><a href=http://diecezjaplocka.pl/instytucje/kapituly title=Kapituły>Kapituły</a></td> </tr> <tr> <td><a href=http://diecezjaplocka.pl/instytucje/seminarium title=Seminarium>Seminarium</a></td> </tr> <tr> <td><a href=http://diecezjaplocka.pl/instytucje/szkoly-i-uczelnie title=Szkoły i uczelnie>Szkoły i uczelnie</a></td> </tr> <tr> <td><a href=http://diecezjaplocka.pl/instytucje/caritas-diecezji-plockiej title=Caritas>Caritas</a></td> </tr> <tr> <td><a href=http://diecezjaplocka.pl/instytucje/biblioteka title=Biblioteka>Biblioteka</a></td> </tr> <tr> <td><a href=http://diecezjaplocka.pl/instytucje/wydawnictwo title=Wydawnictwo>Wydawnictwo</a></td> </tr> <tr> <td><a href=http://diecezjaplocka.pl/instytucje/archiwum title=Archiwum>Archiwum</a></td> </tr> </tbody> </table> <table border=0 cellpadding=0 style=width: 80px; margin-right: 20px;> <tbody> <tr> <td><a href=http://diecezjaplocka.pl/multimedia title=Multimedia class=header>MULTIMEDIA</a></td> </tr> <tr> <td><a href=http://diecezjaplocka.pl/multimedia/zdjecia title=Zdjęcia>Zdjęcia</a></td> </tr> <tr> <td><a href=http://diecezjaplocka.pl/multimedia/video title=Video>Video</a></td> </tr> <tr> <td><a href=http://diecezjaplocka.pl/multimedia/audio title=Audio>Audio</a></td> </tr> <tr> <td><a href=http://diecezjaplocka.pl/multimedia/radio title=Radio>Radio</a></td> </tr> <tr> <td><a href=http://diecezjaplocka.pl/blogi/blog-logowanie title=Słownik pojęć> </a></td> </tr> </tbody> </table> <table border=0 cellpadding=0 style=width: 90px; margin-right: 10px;> <tbody> <tr> <td><a href=http://diecezjaplocka.pl/kontakt title=Kontakt class=header>KONTAKT</a></td> </tr> <tr> <td><a href=http://diecezjaplocka.pl/kontakt/redakcja title=Redakcja>Redakcja</a></td> </tr> <tr> <td><a href=http://diecezjaplocka.pl/kontakt/znajdz-ksiedza title=Znajdź księdza>Znajdź księdza</a></td> </tr> <tr> <td><a href=http://diecezjaplocka.pl/kontakt/linki title=Linki>Linki</a></td> </tr> <tr> <td> </td> </tr> <tr> <td> </td> </tr> </tbody> </table> <table border=0 cellpadding=0 style=width: 120px;> <tbody> <tr> <td><a href=http://diecezjaplocka.pl/dla-dziennikarzy title=Dla dziennikarzy class=header>DLA DZIENNIKARZY</a></td> </tr> <tr> <td><a href=http://diecezjaplocka.pl/dla-dziennikarzy/komunikaty-prasowe title=Komunikaty prasowe>Komunikaty prasowe</a></td> </tr> <tr> <td><a href=http://diecezjaplocka.pl/dla-dziennikarzy/zapowiedzi-prasowe title=Zapowiedzi prasowe>Zapowiedzi prasowe</a></td> </tr> <tr> <td><a href=http://diecezjaplocka.pl/dla-dziennikarzy/materialy-prasowe title=Materiały prasowe>Materiały prasowe</a></td> </tr> <tr> <td><a href=http://diecezjaplocka.pl/dla-dziennikarzy/logotypy-i-herby title=Logotypy i herby>Logotypy i herby</a></td> </tr> <tr> <td><a href=http://diecezjaplocka.pl/dla-dziennikarzy/blog-rzecznika title=Blog rzecznika>Blog rzecznika</a> </td> </tr> <tr> <td> </td> </tr> </tbody> </table> <img id=footer-icon src=/images/footer-icon.jpg alt= /> </div> <img id=footer-line src=/images/footer-line.png alt= /> <div id=footer-bottom> &copy; 2014 Diecezja Płocka </div> </div> </footer> <div id=side-widget> <div id=fb-tab> <div class=fb-content> <iframe src=http://www.facebook.com/plugins/likebox.php?href=https://www.facebook.com/DiecezjaPlocka&amp;width=200&amp;colorscheme=light&amp;show_faces=true&amp;stream=false&amp;header=false&amp;height=335 scrolling=no frameborder=0 style=border:none; overflow:hidden; width:200px; height:335px;background:White;vertical-align:bottom; allowTransparency=false> </iframe> </div> <div class=fb-tab-button> </div> </div> <div id=intencja> <div id=intencja-container> <div class=intencja-header> Wyślij intencję </div> <form id=intencja-form data-bind=visible: !sended(), submit: sendIntention> <!-- errors --> <p class=error-info data-bind=visible: !isValid()> Wypełnij poprawnie wszystkie pola </p> <p class=error-info data-bind=visible: serverError()> Błąd serwera, spróbuj ponownie! </p> <!-- /errors --> <label for=intencja-imie-nazwisko>Imię i nazwisko: </label> <input type=text id=intencja-imie-nazwisko name=intencja-imie-nazwisko placeholder=Imię Nazwisko data-bind=value: name required/> <br/> <div class=clr></div> <label for=intencja-email>Adres e-mail: </label> <input type=email id=intencja-email name=intencja-email placeholder=E-mail pattern=^([0-9a-zA-Z]([-.\w]*[0-9a-zA-Z])*@([0-9a-zA-Z][-\w]*[0-9a-zA-Z]\.)+[a-zA-Z]{2,9})$ data-bind=value: email required/> <br/> <div class=clr></div> <label for=intencja-content>Intencja:</label> <textarea id=intencja-content name=intencja-content placeholder=Treść intencji data-bind=value: intentionContent required></textarea> <label for=recaptcha_response_field> <span data-bind=visible: !captchaError()>Uzupełnij kod:</span> <span class=input-label-error data-bind=visible: captchaError()>Popraw kod:</span> </label> <div id=captcha-container style=clear:both;></div> <p> Tu możesz wysłać intencję modlitewną. Otrzymają ją wybrane zgromadzenia zakonne i wspólnoty. </p> <button type=submit class=btn-wyslij>Wyślij intencję</button> </form> <div class=acknowledgements data-bind=visible: sended()> Dziękujemy za wysłanie intencji </div> </div> <script type=text/javascript> function IntencjeVM() { var self = this; self.name = ko.observable(''); self.email = ko.observable(''); self.intentionContent = ko.observable(''); self.isValid = ko.observable(true); self.serverError = ko.observable(false); self.captchaError = ko.observable(false); self.sended = ko.observable(false); self.sendIntention = function(){ if(!Modernizr.input.required){ if(self.name().length < 3 || self.email().length < 7 || self.intentionContent().length < 10 || !emailIsValid(self.email())) { self.isValid(false); return false; } } var intentionData = { name: self.name(), email: self.email(), content: self.intentionContent() }; checkCaptcha(function(result){ if(result){ send(intentionData, function(result){ result = $.trim(result); result = Number(result); if(result){ self.sended(result); self.serverError(false); setTimeout(resetForm, 5000); } else { self.serverError(true); } }); } }); return false; } var send = function(intentionData, callback) { $.post('/intencjesendemail', intentionData, function(result) { if(callback) { callback(result); } }); } var checkCaptcha = function(callback) { var challengeField = $(input#recaptcha_challenge_field).val() responseField = $(input#recaptcha_response_field).val(), privateKey = '6Ldy1eISAAAAAIJ4iduSSxRlr6LAFNntWHP9Wxak'; var captchaData = { privateKey: privateKey, challenge: challengeField, response: responseField, remoteIp: '192.168.1.10' }; $.post('/Recaptcha.ashx', captchaData, function(result) { result = result == True ? 1 : 0; if(result){ if(callback) { self.captchaError(false); callback (result); } } else{ Recaptcha.reload(); self.captchaError(true); } }); }; function resetForm() { // reset everything? self.name(''); self.email(''); self.intentionContent(''); Recaptcha.reload(); self.sended(false); } function emailIsValid(emailCandidate){ var patternResult = /^([0-9a-zA-Z]([-.\w]*[0-9a-zA-Z])*@([0-9a-zA-Z][-\w]*[0-9a-zA-Z]\.)+[a-zA-Z]{2,9})$/.test(emailCandidate); return patternResult; } } Recaptcha.create(6Ldy1eISAAAAAGxs0TXWOvP8fDJf6-6xKxOLHq3g, captcha-container, { theme: white, lang: pl } ); var intencjeVM = new IntencjeVM(); ko.applyBindings(intencjeVM, document.getElementById('intencja-container')); </script> <a href=# id=intencja-button> </a> </div> <div id=newsletter> <div id=newsletter-container> <div class=newsletter-header>Zapisz się do newslettera</div> <div id=newsletter-form> <p class=newsletter-email-label>Adres e-mail: </p><input type=text id=newsletter-input placeholder=Adres e-mail /> <a href=javascript:void(0); id=newsletter-button-wyslij>Zapisz</a> </div> <div id=newsletter-komunikat style=display:none;> </div> </div> <a href=# id=newsletter-button></a> </div> <a id=zamknij-button href=javascript:void(0);></a> </div> <!-- widget control --> <script type=text/javascript> $(document).ready(function(){ $(window).scroll(function () { var positionTop = $(window).scrollTop() + 100; if($('body').height() - $(window).scrollTop() > 700){ $('#side-widget').stop().animate({ top: positionTop },500,function(){ }); } }); $(#fb-tab).hover( function(){ $(this).stop(true, false).animate({left:0},medium); }, function(){ $(this).stop(true, false).animate({left:-200},medium); }, 500); $(#intencja).hover( function(){ $(#intencja).stop(true, false).animate({left:0},medium); }, function(){ $(#intencja).stop(true, false).animate({left:-348},medium); }, 500); $(#newsletter).hover( function(){ $(#newsletter).stop(true, false).animate({left:0},medium); }, function(){ $(#newsletter).stop(true, false).animate({left:-348},medium); }, 500); $('#zamknij-button').click(function(){ $('#side-widget').hide(); }); }); </script> <!-- /wiget control --> <script type=text/javascript> $(document).ready(function(){ var visible = false; $('#search-form').mouseover(function(){ if(!visible){ $('#search-form input[type=text]').css('border','1px solid #B2B2B2'); $('#search-form input[type=text]').animate({ width: '+=170' }, 1000, function() { }); visible=true; } }); }); </script> <div id=freshmail-response style=display:none;></div> <script type=text/javascript> $(document).ready(function () { $('#newsletter-button-wyslij').click(function(){ if($('#newsletter-input').val() != ''){ var url = 'http://diecezjaplocka.pl/newsletter?freshmail_email=' + $('#newsletter-input').val(); var komunikatOk = 'Dziękujemy za zapisanie się do newslettera. Na podany adres email zostanie wysłana wiadomość z prośbą o potwierdzenie rejestracji. Kliknij na link umieszczony w tej wiadomości aby potwierdzić rejestrację.'; var komunikatIstnieje = 'Podany adres email jest już w bazie danych'; var komunikatNiepoprawny = 'Podany adres email jest niepoprawny'; var komunikatBlad = 'Przepraszamy, wystąpił problem podczas zapisywania Cię do newslettera. Spróbuj później lub skontaktuj się z obsługą serwisu.'; $.ajax({ type: POST, url: url, success: function(data) { //$('#freshmail-response').empty(); //$('#freshmail-response').html(data); //$('#newsletter-komunikat').html($('#freshmail-response').find('.infobox-content p').html()); //$('#freshmail-response').empty(); if($.trim(data) == 0) $('#newsletter-komunikat').html(komunikatOk); else if($.trim(data) == 1304) $('#newsletter-komunikat').html(komunikatIstnieje); else if($.trim(data) == 1301) $('#newsletter-komunikat').html(komunikatNiepoprawny); else $('#newsletter-komunikat').html(komunikatBlad); $('#newsletter-form').hide(); $('#newsletter-komunikat').show(); setTimeout(function(){ $('#newsletter-form').show(); $('#newsletter-komunikat').hide(); }, 5000); }, error: function() { $('#newsletter-komunikat').html(komunikatBlad); $('#newsletter-form').hide(); $('#newsletter-komunikat').show(); setTimeout(function(){ $('#newsletter-form').show(); $('#newsletter-komunikat').hide(); }, 5000); } }); } $('#newsletter-input').val(''); }); }); </script> <!-- <script type=text/javascript> $(document).ready(function(){ var dlugoscMenu = $('#main-menu').outerWidth(); var dlugoscLi = 0; var liczbaElementowLi = 0; var li = $('#main-menu > li'); var a = $('#main-menu > li > a'); li.each(function(){ dlugoscLi += $(this).outerWidth(true); liczbaElementowLi++; window.console.log($(this).outerWidth(true)); }); var roznica = dlugoscLi - dlugoscMenu; var delta = Math.floor(roznica/(liczbaElementowLi*2)); var reszta = roznica - delta * 2 * liczbaElementowLi; a.each(function(){ //$(this).css('padding-left', '-=' + delta); //$(this).css('padding-right', '-=' + delta); //$(this).css('width',50); }); // $('#main-menu > li.ostatni > a').css('padding-left', '-=' + Math.floor(reszta/2)); //$('#main-menu > li.ostatni > a').css('padding-right', '-=' + (reszta - Math.floor(reszta/2))); }); </script> --> <div class=cookies_block> <p>Ta strona używa COOKIES. Z pomocą cookies zbieramy dane jedynie w celach statystycznych. Możesz usunąć pliki cookies z dysku twardego a także zablokować ich zapisywanie poprzez zmianę ustawień swojej przeglądarki.</p> <div id=ok_btn></div> </div> <script type=text/javascript> $(document).ready(function(){ if(!$.cookie('showcookie')) { $(.cookies_block).css('display',block); } $(#ok_btn).click(function(){ $(.cookies_block).animate({opacity:0},600,function(){ $(this).css(display,none); }); $.cookie('showcookie', 'on',{ expires: 364*10, path: '/'}); }); }); </script> <script> (function(i,s,o,g,r,a,m){i['GoogleAnalyticsObject']=r;i[r]=i[r]||function(){ (i[r].q=i[r].q||[]).push(arguments)},i[r].l=1*new Date();a=s.createElement(o), m=s.getElementsByTagName(o)[0];a.async=1;a.src=g;m.parentNode.insertBefore(a,m) })(window,document,'script','//www.google-analytics.com/analytics.js','ga'); ga('create', 'UA-48298254-1', 'diecezjaplocka.pl'); ga('send', 'pageview'); </script> </body> </html> ","","Remigiusz Stacherski","9:00 ; 11:00 ; 16:00 czerwiec - wrzesień; 18:00 sobota kaplica Gąsiorowo","16:00","","52.5371857,21.186039","http://diecezjaplocka.pl/parafie/popowo-narodzenia-najswietszej-marii-panny"
"Parafia pw. św. Floriana","","","09-412 Proboszczewice, ul. Floriańska 1","","proboszczewice@diecezjaplocka.pl","","Kazimierz Dziadak","8:30 ; 10:00 ; 11:30 ; 16:00","16:00 i 16:30 czas zimowy; 17:30 i 18:00 czas letni","","52.6592522,19.6964359","http://diecezjaplocka.pl/parafie/proboszczewice-sw-floriana"
"Parafia pw. Chrystusa Zbawiciela","","","06-300 Przasnysz, Al. Jana Pawła II","","przasnysz.zbawiciel@diecezjaplocka.pl","","Romuald Ciesielski","8:00 ; 10:00 ; 11:30 ; 15:00 (Karwacz); 17:00","17:00 ; 18:00","","53.0206871,20.9024124","http://diecezjaplocka.pl/parafie/przasnysz-chrystusa-zbawiciela"
"Parafia pw. św. Stanisława Kostki","","","06-300 Przasnysz, ul. 3 Maja 34","","przasnysz.kostka@diecezjaplocka.pl","","Wiesław Wiśniewski,CP","7:00 ; 8:30 ; 10:00 (Leszno); 11:30 ; 11:30 (Klasztor Klarysek Kapucynek); 13:00 ; 18:30","7:00 ; 8:30 ; 18:30","","53.020153,20.8758545","http://diecezjaplocka.pl/parafie/przasnysz-sw-stanislawa-kostki"
"Parafia pw. św. Wociecha","","","06-300 Przasnysz, ul. św. Wojciecha 1b","","przasnysz.wojciech@diecezjaplocka.pl","","Andrzej Maciejewski","7:30 ; 9:00 ; 10:30 ; 12:00 ; 16:00 ; 18:00","7:00 ; 18:00","","53.02216,20.881731","http://diecezjaplocka.pl/parafie/przasnysz-sw-wojciecha"
"Parafia pw. św. Rocha","","","06-126 Gzy, Przewodowo Poduchowne 16","","przewodowo@diecezjaplocka.pl","","Jan Romanowski","9:00 ; 11:00 ; 16:00","7:00 poniedziełek,wtorek środa; 18:00 czwartek, piątek, sobota","","52.7250824,20.9584541","http://diecezjaplocka.pl/parafie/przewodowo-sw-rocha"
"Parafia pw. św. J&#243;zefa","","","06-100 Pułtusk, ul. Stare Miasto 2","","pultusk.janpawel@diecezjaplocka.pl","","J&#243;zef Gawlik","8:00 ; 9:30 ; 11:00 ; 18:00","7:00 ; 18:00","","52.70298,21.0870419","http://diecezjaplocka.pl/parafie/pultusk-sw-jozefa"
"Parafia pw. św. Stanisława Kostki","","","06-102 Pułtusk, ul. kosciuszki 80","","pultusk.milosierdzie@diecezjaplocka.pl","","Janusz Bolesław Zdunkiewicz","8:00 ; 10:00 ; 17:00","17:00 czas zimowy; 18:00 czas letni","","52.7191544,21.0859737","http://diecezjaplocka.pl/parafie/pultusk-sw-stanislawa-kostki"
"Parafia pw. Świętego Jana Pawła II","","","06-100 Pułtusk, ul. Księdza Piotra Skragi 4a","","pultusk.janpawel@diecezjaplocka.pl","","Sławomir Andrzej Stefański","8:00 ; 10:00 Z udziałem dzieci; 11:30 Suma; 17:00 Młodzież","17:00","","52.7058258,21.088232","http://diecezjaplocka.pl/parafie/pultusk-swietego-jana-pawla-ii"
"Parafia pw. Miłosierdzia Bożego","","","06-100 Pułtusk, ul. Piaskowa 16","","pultusk.mateusz@diecezjaplocka.pl","","Tadeusz Roman Kowalczyk","8:00 ; 9:30 ; 11:30 ; 16:00","7:00 ; 17:15 ; 18:00","","52.69343,21.1110725","http://diecezjaplocka.pl/parafie/pultusk-milosierdzia-bozego"
"Parafia pw. św. Mateusza","","","06-100 Pułtusk, ul. Konopnickiej 1","","pultusk.kostka@diecezjaplocka.pl","","Wiesław Kosek","7:00 ; 9:00 ; 10:30 ; 12:00 ; 15:00 ; 18:00","6:30 ; 7:00 ; 9:00 wtorek, piątek; 18:00","","52.70766,21.0890541","http://diecezjaplocka.pl/parafie/pultusk-sw-mateusza"
"Parafia pw. św. Wojciecha","","","09-140 Raciąż, ul. Wolności 14","","raciaz@diecezjaplocka.pl","","Stanisław Jan Czyż","8:00 ; 10:00 ; 11:30 ; 14:30 ; 18:00","7:00 ; 18:00","","52.78212,20.1158333","http://diecezjaplocka.pl/parafie/raciaz-sw-wojciecha"
"Parafia pw. św. Mikołaja","","","87-404 Radomin, Radomin 19","","radomin@diecezjaplocka.pl","","Andrzej Majewski","7:30 ; 9:00 ; 11:30","17:00 czas zimowy; 18:00 czas letni","","53.0868034,19.19573","http://diecezjaplocka.pl/parafie/radomin-sw-mikolaja"
"Parafia pw. św. Floriana","","","09-451 Radzanowo k.Płocka, ul. Płocka 30","","radzanowo@diecezjaplocka.pl","","Franciszek Stepnowski","9:00 ; 11:30 ; 17:00","17:00","","52.5734253,19.8934612","http://diecezjaplocka.pl/parafie/radzanowo-sw-floriana"
"Parafia pw. św. Rocha","","","06-540 Radzanów n.Wkrą, ul. Poświętne 1a","","radzanow@diecezjaplocka.pl","","Jerzy Piątek","9:00 ; 10:30 kaplica w Sławęcinie i Dzieczewie; 12:00 ; 16:00","16:30 ; 17:00 czas zimowy; 17:30 ; 18:00 czas letni","","52.9430161,20.0896416","http://diecezjaplocka.pl/parafie/radzanow-sw-rocha"
"Parafia pw. św. Katarzyny Aleksandryjskiej","","","87-337 Wąpielsk, Radziki Duże 33","","radziki@diecezjaplocka.pl","","Jacek Janusz Dudkiewicz","7:30 ; 9:30 ; 11:30","17:00","","53.1679649,19.2757511","http://diecezjaplocka.pl/parafie/radziki-sw-katarzyny-aleksandryjskiej"
"Parafia pw. św. Jana Chrzciciela","","","09-105 Czerwińsk n. Wisłą, ul. Warszawska 1 Grodziec 5","","radzikowo@diecezjaplocka.pl","","Księża mieszkający w parafii","11:00","Nabożeństwa","","52.45915,20.35395","http://diecezjaplocka.pl/parafie/radzikowo-sw-jana-chrzciciela"
"Parafia pw. św. Piotra i Pawła","","","09-152 Naruszewo, Radzymin 76","","radzymin@diecezjaplocka.pl","","Zdzisław Kupiszewski","8:00 ; 10:00 ; 12:00","18:00","","52.5675964,20.3652916","http://diecezjaplocka.pl/parafie/radzymin-sw-piotra-i-pawla"
"Parafia pw. św. Jana Chrzciciela","","","09-450 Wyszogród, Rębowo 88","","rebowo@diecezjaplocka.pl","","Jan Waldemar Augustynowicz","9:00 ; 11:00 ; 16:00","16:00 lub 18:00","","52.4122658,20.1863117","http://diecezjaplocka.pl/parafie/rebowo-sw-jana-chrzciciela"
"Parafia pw. św. Wawrzyńca","","","09-210 Drobin, Rogotwórsk 2","","rogotworsk@diecezjaplocka.pl","","Krzysztof Wojciech Muzal","9:30 ; 12:00 ; 16:00","17:00","","52.69306,20.0502739","http://diecezjaplocka.pl/parafie/rogotworsk-sw-wawrzynca"
"Parafia pw. św. Bartłomieja","","","","","rogowo@diecezjaplocka.pl","","Marek Zacieski","8:00 ; 9:30 kaplica; 11:00 ; 16:00","7:00 ; 17:00 czas zimowy; 18:00 czas letni","","52.9774971,19.3868141","http://diecezjaplocka.pl/parafie/rogowo-sw-bartlomieja"
"Parafia pw. św. Faustyny","","","","","rogozino@diecezjaplocka.pl","","Janusz Wiśniewski","9:30 ; 11:30","18:00","","52.56869,19.8103981","http://diecezjaplocka.pl/parafie/rogozino-sw-faustyny"
"Parafia pw. św. Małgorzaty","","","09-414 Brudzeń, Rokicie","","rokicie@diecezjaplocka.pl","","Księża mieszkający w parafii","7:00 kaplica SS Służek Najświetszej Marii Panny; 9:00 ; 11:30","16:00 czas zimowy; 18:00 czas letni","","52.61405,19.4615784","http://diecezjaplocka.pl/parafie/rokicie-sw-malgorzaty"
"Parafia pw. św. Stanisława Kostki","","","06-415 Czernice Borowe, Rostkowo 20","","rostkowo@diecezjaplocka.pl","","Adam Chmielewski","9:00 ; 11:00","16:00 czas zimowy; 17:00 czas letni","","53.0033,20.8093319","http://diecezjaplocka.pl/parafie/rostkowo-sw-stanislawa-kostki"
"Parafia pw. św. J&#243;zefa","","","09-204 Rościszewo, ul. Jana Pawła II 18","","rosciszewo@diecezjaplocka.pl","","Jan Stanisław Peła","9:00 ; 11:30 ; 16:00","7:00 ; 7:30","","52.90121,19.7744942","http://diecezjaplocka.pl/parafie/rosciszewo-sw-jozefa"
"Parafia pw. św. Apostoł&#243;w Piotra i Pawła","","","87-645 Zbójno k.Rypina, Ruże 3","","ruze@diecezjaplocka.pl","","Henryk Stanisław Zag&#243;rowicz","8:20 kaplica Zb&#243;jno; 10:00 ; 11:30","17:00","","53.0317535,19.16914","http://diecezjaplocka.pl/parafie/ruze-sw-apostolow-piotra-i-pawla"
"Parafia pw. św. Stanisława Kostki","","","87-500 Rypin, ul. Ks. A. Podlesia 6","","rypin.kostka@diecezjaplocka.pl","","Marek Smogorzewski","7:00 ; 7:00 szpital; 9:00 ; 11:00 3:00; 16:00 ; 18:00 ; 18:00 sobota; 20:00","7:00 ; 9:00 sobota; 18:00","","53.07115,19.4221649","http://diecezjaplocka.pl/parafie/rypin-sw-stanislawa-kostki"
"Parafia pw. Tr&#243;jcy Świętej","","","87-500 Rypin, ul. Jana Pawła II 11","","rypin.trojca@diecezjaplocka.pl","","Tadeusz Zaborny","7:00 ; 8:30 ; 10:00 ; 11:30 ; 13:00 ; 17:00","7:00 ; 17:00 lub 18:00","","53.0682869,19.4050274","http://diecezjaplocka.pl/parafie/rypin-trojcy-swietej"
"Parafia pw. św. Jana Chrzciciela","","","87-500 Rypin, Sadłowo 9","","sadlowo@diecezjaplocka.pl","","Kazimierz Rostkowski","9:00 ; 10:30 kaplica; 12:00 ; 16:00","7:30 ; 17:00 lub 18:00","","53.08738,19.5137234","http://diecezjaplocka.pl/parafie/sadlowo-sw-jana-chrzciciela"
"Parafia pw. św. Antoniego","","","09-130 Baboszewo, Sarbiewo 28","","sarbiewo@diecezjaplocka.pl","","Janusz Jerzy Ziarko","9:00 ; 12:00 ; 16:00","17:00","","52.7002945,20.3577957","http://diecezjaplocka.pl/parafie/sarbiewo-sw-antoniego"
"Parafia pw. św. J&#243;zefa","","","09-310 Kuczbork, Sarnowo 9a","","sarnowo@diecezjaplocka.pl","","Krzysztof Zakrzewski (1)","8:30 ; 10:15 ; 12:00","17:00 czas zimowy; 18:00 czas letni","","0,0","http://diecezjaplocka.pl/parafie/sarnowo-sw-jozefa"
"Parafia pw. św. Anny","","","05-140 Serock, ul. Farna 7","","serock@diecezjaplocka.pl","","Dariusz Rojek","9:00 ; 11:00 ; 17:00 ; 18:00 sobota","18:00","","52.5128441,21.0738945","http://diecezjaplocka.pl/parafie/serock-sw-anny"
"Parafia pw. św. J&#243;zefa","","","09-411 Biała, Siecień 86","","siecien@diecezjaplocka.pl","","Jan Kurantowicz","8:00 ; 11:00","18:00","","52.61414,19.521","http://diecezjaplocka.pl/parafie/siecien-sw-jozefa"
"Parafia pw. św. Kazimierza","","","09-135 Siemiątkowo, ul. Kościelna 11","","siemiatkowo@diecezjaplocka.pl","","Marian Matusiak","8:00 ; 10:15 ; 12:00","16:00 czas zimowy; 18:00 czas letni","","52.87659,20.0285931","http://diecezjaplocka.pl/parafie/siemiatkowo-sw-kazimierza"
"Parafia pw. św. Benedykta","","","09-200 Sierpc, ul. Wojska Polskiego 28a","","sierpc.benedykt@diecezjaplocka.pl","","Andrzej Mucha SAC","8:00 ; 10:00 ; 12:00 ; 15:00 kaplica; 16:00","17:00 ; 18:00","","52.8622551,19.6685123","http://diecezjaplocka.pl/parafie/sierpc-sw-benedykta"
"Parafia pw. św. Maksymiliana Kolbego","","","09-200 Sierpc, ul. Płocka 26","","sierpc.maksymilian@diecezjaplocka.pl","","Tomasz Kadziński","7:00 ; 9:00 ; 10:15 kaplica; 11:30 ; 13:00 ; 18:00","7:00 ; 18:00","","52.8455,19.67138","http://diecezjaplocka.pl/parafie/sierpc-sw-maksymiliana-kolbego"
"Parafia pw. św. Wita, Modesta i Krescencji","","","09-200 Sierpc, Pl. Fryderyka Chopina 13","","sierpc.wit@diecezjaplocka.pl","","Andrzej Eugeniusz Więckowski","7:00 ; 8:00 ; 9:30 ; 11:00 ; 12:30 ; 16:00 ; 18:00","9:00 ; 18:00","","52.8581161,19.669075","http://diecezjaplocka.pl/parafie/sierpc-sw-wita,-modesta-i-krescencji"
"Parafia pw. św. Barbary","","","","","sikorz@diecezjaplocka.pl","","Zygmunt Ignatowski","9:00 ; 14:30","17:00","","52.637,19.5784473","http://diecezjaplocka.pl/parafie/sikorz-sw-barbary"
"Parafia pw. Zwiastowania Najświętszej Marii Panny","","","87-630 Skępe, ul. Kujawska 2a","","skepe.milosierdzie@diecezjaplocka.pl","","O. Dobromił Marek Godzik OFM","7:00 ; 8:30 ; 10:00 ; 11:30 ; 14:30 kaplica; 17:00 ; 17:30","7:00 ; 7:30 ; 17:00 ; 17:30","","52.86246,19.3544426","http://diecezjaplocka.pl/parafie/skepe-zwiastowania-najswietszej-marii-panny"
"Parafia pw. Miłosierdzia Bożego","","","87-630 Skępe, ul. Klasztorna 5","","skepe.zwiastowanie@diecezjaplocka.pl","","Cezary Maruszewski","7:30 ; 9:00 kaplica W&#243;lka; 9:30 kaplica Łąk; 10:30 ; 12:00 ; 17:00 czas zimowy; 18:00 czas letni","17:00","","52.86771,19.3405666","http://diecezjaplocka.pl/parafie/skepe-milosierdzia-bozego"
"Parafia pw. Skierkowizna św. Andrzeja Baboli","","","06-316 Krzynowłoga Mała, Skierkowizna 8","","sierkowizna@diecezjaplocka.pl","","Księża mieszkający w parafii","8:30 ; 10:00 ; 10:00 kaplica; 11:30","8:30 sobota; 15:30 ; 16:30","","53.1377678,20.9116879","http://diecezjaplocka.pl/parafie/skierkowizna-andrzeja-baboli"
"Parafia pw. św. Achacjusza","","","09-164 Dzierzążnia, Skołatowo","","skolatowo@diecezjaplocka.pl","","Wiesław Malinowski","8:00 ; 9:30 ; 11:30","17:00 czas zimowy; 18:00 czas letni","","52.6158,20.1996441","http://diecezjaplocka.pl/parafie/skolatowo-sw-achacjusza"
"Parafia pw. św. Anny","","","87-510 Skrwilno, ul. Kościelna 35","","skrwilno@diecezjaplocka.pl","","Władysław Jan Jagiełło","8:30 ; 10:00 ; 11:30 ; 14:00 kaplica; 16:00","7:30 ; 17:00 czas zimowy; 18:00 czas letni","","53.0131,19.6211529","http://diecezjaplocka.pl/parafie/skrwilno-sw-anny"
"Parafia pw. św. Jakuba Apostoła","","","09-226 Zawidz, Słupia","","slupia@diecezjaplocka.pl","","Księża mieszkający w parafii","9:00 ; 11:30 ; 15:00","16:00","","52.7609,19.8568668","http://diecezjaplocka.pl/parafie/slupia-sw-jakuba-apostola"
"Parafia pw. św. Marcina","","","09-472 Słupno, ul. Kościelna 1","","slupno@diecezjaplocka.pl","","Marek Jarosław Zaborowski","8:00 ; 10:00 ; 11:30 ; 16:00","18:00","","52.501152,19.8425255","http://diecezjaplocka.pl/parafie/slupno-sw-marcina"
"Parafia pw. św. Stanisława Kostki","","","09-110 Sochocin, Smardzewo 67","","smardzewo@diecezjaplocka.pl","","Henryk Tadeusz Dymek","9:00 ; 10:45 ; 16:00","16:00","","52.69957,20.3967438","http://diecezjaplocka.pl/parafie/smardzewo-sw-stanislawa-kostki"
"Parafia pw. Nawiedzenia Najświętszej Marii Panny","","","06-120 Winnica, Błędostowo","","smogorzewo@diecezjaplocka.pl","","Jarosław Bukowski","9:00 ; 11:30","16:00 ; 17:00","","52.5787621,20.9445744","http://diecezjaplocka.pl/parafie/smogorzewo-nawiedzenia-najswietszej-marii-panny"
"Parafia pw. św. Mateusza","","","05-170 Zakroczym, Smoszewo 2","","smoszewo@diecezjaplocka.pl","","Jarosław Ferenc","9:00 ; 11:00 ; 14:30 kaplica czas zimowy; 15:00 kaplica czas letni","17:00 czas zimowy; 18:00 czas letni","","52.4284668,20.501173","http://diecezjaplocka.pl/parafie/smoszewo-sw-mateusza"
"Parafia pw. św. Hieronima","","","09-414 Brudzeń, Sobowo 40","","sobowo@diecezjaplocka.pl","","Jacek Daszkowski","9:00 ; 11:30","17:00","","52.6594849,19.42515","http://diecezjaplocka.pl/parafie/sobowo-sw-hieronima"
"Parafia pw. św. Jana Chrzciciela","","","09-110 Sochocin, ul. Stary Rynek 17","","sochocin@diecezjaplocka.pl","","Czesław Stolarczyk","9:00 ; 10:30 kaplica; 12:00 ; 17:00","7:00 ; 18:00","","52.68988,20.471756","http://diecezjaplocka.pl/parafie/sochocin-sw-jana-chrzciciela"
"Parafia pw. Matki Bożej Częstochowskiej","","","09-506 Soczewka, ul. ks. Pawła Kwiatkowskiego 7","","soczewka@diecezjaplocka.pl","","Księża mieszkający w parafii","9:00 ; 11:00 ; 19:00 czas letni","18:00","","52.54467,19.5725651","http://diecezjaplocka.pl/parafie/soczewka-matki-bozej-czestochowskiej"
"Parafia pw. Niepokalanego Poczęcia Najświętszej Marii Panny","","","07-215 Obryte, Sokołowo Włościańskie 57","","sokolowo@diecezjaplocka.pl","","Księża mieszkający w parafii","9:00 ; 11:30 ; 15:00","8:00 zamiennie; 16:00","","52.7626343,21.3064518","http://diecezjaplocka.pl/parafie/sokolowo-niepokalanego-poczecia-najswietszej-marii-panny"
"Parafia pw. św. Anny","","","09-500 Gostynin, Sokołów 15","","sokolow@diecezjaplocka.pl","","Marek Topolewski","9:00 ; 11:30","17:00","","52.38381,19.3427124","http://diecezjaplocka.pl/parafie/sokolow-sw-anny"
"Parafia pw. św. Wojciecha","","","09-500 Gostynin, Solec 5","","solec@diecezjaplocka.pl","","Adam Zaborowski","9:00 ; 11:30","18:00","","52.4386635,19.3703938","http://diecezjaplocka.pl/parafie/solec-sw-wojciecha"
"Parafia pw. św. Wita, Modesta i Krescencji","","","06-430 Sońsk, ul. Ciechanowska 3","","sonsk@diecezjaplocka.pl","","Janusz Kochański","9:00 ; 10:30 ; 12:00 ; 14:30 kaplica; 16:00","17:00 ; 17:30","","52.7797775,20.6981125","http://diecezjaplocka.pl/parafie/sonsk-sw-wita,-modesta-i-krescencji"
"Parafia pw. św. Onufrego","","","09-440 Staroźreby, ul. Kościelna 31","","starozreby@diecezjaplocka.pl","","Bogusław Sabat","8:30 ; 10:00 ; 12:00 ; 16:00","7:00 ; 17:00","","52.6359749,19.9933338","http://diecezjaplocka.pl/parafie/starozreby-sw-onufrego"
"Parafia pw. Matki Bożej Szkaplerznej","","","06-150 Świercze, Strzegocin 39","","strzegocin@diecezjaplocka.pl","","Księża mieszkający w parafii","9:00 ; 11:00","16:00 ; 18:00","","52.6861839,20.8415356","http://diecezjaplocka.pl/parafie/strzegocin-matki-bozej-szkaplerznej"
"Parafia pw. św. Anny","","","06-445 Strzegowo, ul. Mickiewicza 15","","strzegowo@diecezjaplocka.pl","","J&#243;zef Błaszczak","8:30 ; 10:00 ; 12:00","18:00","","52.894062,20.2792282","http://diecezjaplocka.pl/parafie/strzegowo-sw-anny"
"Parafia pw. św. Stanisława Biskupa i Męczennika","","","","","strzygi@diecezjaplocka.pl","","Zdzisław Jan Bartosik","8:00 ; 9:30 ; 11:00","8:00 zamiennie; 18:00","","53.1217842,19.3840771","http://diecezjaplocka.pl/parafie/strzygi-sw-stanislawa-biskupa-i-meczennika"
"Parafia pw. św. Wojciecha","","","","","<span><span><span><span><span><span><span><span><span><span><span><span><span><span><span><span><span><span><span><span><span><span><span><span><span><span><span><span><span><span><span><span><span><span><span><span><span><span><span><span><span><span><span><span><span><span><span><span><span><span><span><span><span><span>stupsk@diecezjaplocka.pl</span></span></span></span></span></span></span></span></span></span></span></span></span></span></span></span></span></span></span></span></span></span></span></span></span></span></span></span></span></span></span></span></span></span></span></span></span></span></span></span></span></span></span></span></span></span></span></span></span></span></span></span></span></span></a></p> <p><span><span><span><span><span><span><span><span><span><span><span><span><span><span><span><span><span><span><span><span><span><span><span><span><span><span><span><span><span><span><span><span><span><span><span><span><span><span><span><span><span><span><span><span><span><span><span><span><span><span><span><span><span><span>parafiastupsk@gmail.com</span></span></span></span></span></span><br /></span></span></span></span></span></span></span></span></span></span></span></span></span></span></span></span></span></span></span></span></span></span></span></span></span></span></span></span></span></span></span></span></span></span></span></span></span></span></span></span></span></span></span></span></span></span></span></span></p> <p><span><span><span><span><span><span><span><span><span><span><span><span><span><span><span><span><span><span><span><span><span><span><span><span><span><span><span><span><span><span><span><span><span><span><span><span><span><span><span><span><span><span><span><span><span><span><span><span> </span></span></span></span></span></span></span></span></span></span></span></span></span></span></span></span></span></span></span></span></span></span></span></span></span></span></span></span></span></span></span></span></span></span></span></span></span></span></span></span></span></span></span></span></span></span></span></span></p> <p><span><span><span><span><span><span><span><span><span><span><span><span><span><span><span><span><span><span><span><span><span><span><span><span><span><span><span><span><span><span><span><span><span><span><span><span><span><span><span><span><span><span><span><span><span><span><span><span> </span></span></span></span></span></span></span></span></span></span></span></span></span></span></span></span></span></span></span></span></span></span></span></span></span></span></span></span></span></span></span></span></span></span></span></span></span></span></span></span></span></span></span></span></span></span></span></span></p> <p><span><span><span><span><span><span><span><span><span><span><span><span><span><span><span><span><span><span><span><span><span><span><span><span><span><span><span><span><span><span><span><span><span><span><span><span><span><span><span><span><span><span><span><span><span><span><span><span> </span></span></span></span></span></span></span></span></span></span></span></span></span></span></span></span></span></span></span></span></span></span></span></span></span></span></span></span></span></span></span></span></span></span></span></span></span></span></span></span></span></span></span></span></span></span></span></span></p></div> </div> <div id=oznaczenia> </div> <a class=link zobacz-jak-dojechac href='http://maps.google.com/maps?daddr=53.02214600000001,20.438612000000035&amp;z=12' target=_blank >Zobacz jak dojechać</a> </div> <div id=ksieza> <div class=header>Księża pracujący w parafii</div> <ul> <li style=><a href='http://diecezjaplocka.pl/dla-wiernych/wyszukiwarka?tab=ksieza&amp;ksiadzId=14284' style=color:#0e346c;><img alt=ksiadz src=/InteliImage.ashx?image=/media/111657/s.obrębski.jpg.jpg&width=80&height=108&resizeMethod=crop /> <span>Sławomir Obrębski</span><br/><span>proboszcz</span></a></li> </ul> </div> </div> <div id=parafia-container-right> <div class=accordion> <a class=header href=javascript:void(0);>Msze Święte <img alt=arrow up src=/images/arrow-down.png /></a> <div class=content> Niedziele i święta: <b>9:00 ; 11:00 (Kaplica w Konopkach); 12:30 </b> <br/> <br/> Dni powszednie: <b>17:00 w miesiącach październik - kwiecień; 18:00 w miesiącach maj - wrzesień</b> </div> </div> <div class=accordion> <a class=header href=javascript:void(0);>Nabożeństwa <img alt=arrow up src=/images/arrow-down.png /></a> <div class=content><p><span><span><span><span><span><span><span><span><span><span><span><span><span><span><span><span><span><span><span><span><span><span><span><span><strong><span><span><span><span><span><span><span><span><span><span><span><span><span><span><span><span><span><span>Gorzkie Żale</span></span></span></span></span></span></span></span></span></span></span></span></span></span></span></span></span></span></strong><span><span><span><span><span><span><span><span><span><span><span><span><span><span><span><span><span><span> - niedziele Wielkiego Postu - po mszy św. </span></span></span></span></span></span></span></span></span></span></span></span></span></span></span></span></span></span></span></span></span></span></span></span></span></span></span></span></span></span></span></span></span></span></span></span></span></span></span></span></span><span><span><span><span><span><span><span><span><span><span><span><span><span><span><span><span><span><span><span><span><span><span><span><span><span><span><span><span><span><span><span><span><span><span><span><span><span><span><span><span><span>o godz. </span></span></span></span></span></span></span></span></span></span></span></span></span></span></span></span></span></span></span></span></span></span></span></span></span></span></span></span></span></span></span></span></span></span></span></span></span></span></span></span></span><span><span><span><span><span><span><span><span><span><span><span><span><span><span><span><span><span><span><span><span><span><span><span><span><span><span><span><span><span><span><span><span><span><span><span><span><span><span><span><span><span>9.00</span></span></span></span></span></span></span></span></span></span></span></span></span></span></span></span></span></span></span></span></span></span></span></span></span></span></span></span></span></span></span></span></span></span></span></span></span></span></span></span></span></span></p> <p><span><span><span><span><span><span><span><span><span><span><span><span><span><span><span><span><span><span><span><span><span><span><span><span><strong><span><span><span><span><span><span><span><span><span><span><span><span><span><span><span><span><span><span>Droga Krzyżowa</span></span></span></span></span></span></span></span></span></span></span></span></span></span></span></span></span></span></strong><span><span><span><span><span><span><span><span><span><span><span><span><span><span><span><span><span><span> - piatki  </span></span></span></span></span></span></span></span></span></span></span></span></span></span></span></span></span></span></span></span></span></span></span></span></span></span></span></span></span></span></span></span></span></span></span><span><span><span><span><span><span><span><span><span><span><span><span><span><span><span><span><span><span><span><span><span><span><span><span><span><span><span><span><span><span><span><span><span><span><span>Wielkiego Postu o godz  </span></span></span></span></span></span></span></span></span></span></span></span></span></span></span></span></span></span></span></span></span></span></span></span></span></span></span></span></span></span></span></span></span></span></span></span></span></span></span></span></span><span><span><span><span><span><span><span><span><span><span><span><span><span><span><span><span><span><span><span><span><span><span><span><span><span><span><span><span><span><span><span><span><span><span><span><span><span><span><span><span><span>16.30</span></span></span></span></span></span></span></span></span></span></span></span></span></span></span></span></span></span></span></span></span></span></span></span></span></span></span></span></span></span></span></span></span></span></span></span></span></span></span></span></span></span></p> <p><span><span><span><span><span><span><span><span><span><span><span><span><span><span><span><span><span><span><span><span><span><span><span><span><span><span><span><span><span><span><span><span><span><span><span><span><span><span><span><span><span><span>Okres <strong>Wielkiego Postu</strong> i <strong>Wielkanocny</strong> - środy adoracja Najświętszego Sakramentu i modlitwy Kół Żywego Różańca o godz. 16.30<br /></span></span></span></span></span></span></span></span></span></span></span></span></span></span></span></span></span></span></span></span></span></span></span></span></span></span></span></span></span></span></span></span></span></span></span></span></span></span></span></span></span></span></p> <p><span><span><span><span><span><span><span><span><span><span><span><span><span><span><span><span><span><span><span><span><span><span><span><span><span><span><span><span><span><span><span><span><span><span><span><span><span><span><span><span><span><span>Nabożeństwa </span></span></span></span></span></span></span></span></span></span></span></span></span></span></span></span></span></span><strong><span><span><span><span><span><span><span><span><span><span><span><span><span><span><span><span><span><span>Majowe</span></span></span></span></span></span></span></span></span></span></span></span></span></span></span></span></span></span></strong><span><span><span><span><span><span><span><span><span><span><span><span><span><span><span><span><span><span> , </span></span></span></span></span></span></span></span></span></span></span></span></span></span></span></span></span></span><strong><span><span><span><span><span><span><span><span><span><span><span><span><span><span><span><span><span><span>Czerwcowe</span></span></span></span></span></span></span></span></span></span></span></span></span></span></span></span></span></span></strong><span><span><span><span><span><span><span><span><span><span><span><span><span><span><span><span><span><span> i październikowy </span></span></span></span></span></span></span></span></span></span></span></span></span></span></span></span></span></span><strong><span><span><span><span><span><span><span><span><span><span><span><span><span><span><span><span><span><span>Różaniec</span></span></span></span></span></span></span></span></span></span></span></span></span></span></span></span></span></span></strong><span><span><span><span><span><span><span><span><span><span><span><span><span><span><span><span><span><span> bezpośrednio przed lub po mszach św.  </span></span></span></span></span></span></span></span></span></span></span></span></span></span></span></span></span></span></span></span></span></span></span></span></span></span></span></span></span></span></span></span></span></span></span></span></span></span></span></span></span></span></p> <p><span><span><span><span><span><span><span><span><span><span><span><span><span><span><span><span><span><span><span><span><span><span><span><span><span><span><span><span><span><span><span><span><span><span><span><span><span><span><span><span><span><span>Uroczystość <strong>Wszystkich Świętych</strong> - msza św. w kościele parafialnym o godz. 9.00; na cmentarzu parafialnym o godz. 12.00</span></span></span></span></span></span></span></span></span></span></span></span></span></span></span></span></span></span></span></span></span></span></span></span></span></span></span></span></span></span></span></span></span></span></span></span></span></span></span></span></span></span></p> <p><span><span><span><span><span><span><span><span><span><span><span><span><span><span><span><span><span><span><span><span><span><span><span><span><span><span><span><span><span><span><span><span><span><span><span><span><span><span><span><span><span><span>(<strong>Aktualne informacje</strong> zawsze na s</span></span></span></span></span></span><a href=http://parafiastupsk.pl/><span><span><span><span><span><span>tronie parafialnej</span></span></span></span></span></span></a></span></span></span></span></span></span></span></span></span></span></span></span></span></span></span></span></span></span></span></span></span></span></span></span></span></span></span></span></span></span></span></span></span></span></span></span><span><span><span><span><span><span><span><span><span><span><span><span><span><span><span><span><span><span><span><span> )</span></span></span></span></span></span></span></span></span></span></span></span></span></span></span></span></span></span></span></span></p> <p> </p></div> </div> <div class=accordion> <a class=header href=javascript:void(0);>Spowiedź <img alt=arrow up src=/images/arrow-down.png /></a> <div class=content><p><span><span><span><span><span><span><span><span><span><span><span><span><span><span><span><span><span><span><span><span><span><span><span><span><span><span><span><span><span><span><span><span><span><span><span><span><span><span><span><span>Przed każdą mszą św.</span></span></span></span></span></span></span></span></span></span></span></span></span></span></span></span></span></span></span></span></span></span></span></span></span></span></span></span></span></span></span></span></span></span></span></span></span></span></span></span></p> <p><span><span><span><span><span><span><span><span><span><span><span><span><span><span><span><span><span><span><span><span><span><span><span><span><span><span><span><span><span><span><span><span><span><span><span><span><span><span><span><span>(Jak również po mszach w dni powszednie)</span></span><br /></span></span></span></span></span></span></span></span></span></span></span></span></span></span></span></span></span></span></span></span></span></span></span></span></span></span></span></span></span></span></span></span></span></span></span></span></span></span></p> <p><span><span><span><span><span><span><span><span><span><span><span><span><span><span><span><span><span><span><span><span><span><span><span><span><span><span><span><span><span><span><span><span><span><span><span><span><span><span><span><span>W pierwsze piatki miesiąca - przez godzinę poprzedzającą mszę św.</span></span></span></span></span></span></span></span></span></span></span></span></span></span></span></span></span></span></span></span></span></span></span></span></span></span></span></span></span></span></span></span></span></span></span></span></span></span></span></span></p></div> </div> <div class=accordion> <a class=header href=javascript:void(0);>Kancelaria parafialna <img alt=arrow up src=/images/arrow-down.png /></a> <div class=content><p><span><span><span><span><span><span><span><span><span><span><span><span><span><span><span><span><span><span><span><span><span><span><span><span><span><span><span><span><span><span><span><span><span><span><span><span><span><span><span><span><span><span><span><span>Czynna w dni robocze na godzinę przed mszą św.</span></span></span></span></span></span></span></span></span></span></span></span></span></span></span></span></span></span></span></span></span></span></span></span></span></span></span></span></span></span></span></span></span></span></span></span></span></span></span></span></span></span></span></span></p> <p> </p> <p><span><span><span><span><span><span>Istnieje możliwość przesłania zapytania / informacji przez </span></span></span></span></span></span><span><span><span><span><span><span>Formularz kontaktowy (w przygotowaniu)</span></span></span></span></span></span></p></div> </div> <div class=accordion> <a class=header href=javascript:void(0);>Ogłoszenia parafialne <img alt=arrow up src=/images/arrow-down.png /></a> <div class=content><p><span><span><span><span><span><span><span><span><span><span><span>Aktualne <a href=http://www.parafiastupsk.pl/kategoria/ogloszenia-parafialne/>Ogłoszenia parafialne</a></span></span></span></span></span></span></span></span></span></span></span></p></div> </div> <div id=wspolnoty> <div class=header>Wspólnoty</div> <div class=wspolnota> <a class=header href=javascript:void(0);> <img class=ikona alt=wspolnota src=/media/32139/inne.png /> <div class=nazwa>Liturgiczna Służba Ołtarza i Nadzwyczajni Szafarze Komunii św.</div> <img class=strzalka alt=arrow down src=/images/arrow-down.png /> </a> <div class=content style=display:block;><p>Liturgiczna Służba Ołtarza czyli Ministranci to grupa trzydziestu młodych chłopców, którzy posługują w naszej parafialnej wspólnocie. Najstarsi to już studenci, którzy przychodzą służyć kiedy przyjeżdżają z uczelni do rodzinnych domów,  część to uczniowie szkół średnich i gimnazjum, oraz ze szkoły podstawowej. Część z nich posługuje w Kaplicy w Konopkach.</p> <p>Warto też wspomnieć o Nadzwyczajnych Szafarzach Komunii świętej, czyli dwóch dorosłych mężczyznach, którzy zostali ustanowieni przez ks. Biskupa i służą rozdzielając komunię świętą w czasie mszy świętych i różnych nabożeństw. Są to p. Sławomir Kaczerski i p. Piotr Jarosz.</p> <p><a href=http://parafiastupsk.pl/grupy-parafialne/ministranci/>więcej informacji</a></p></div> </div> <div class=wspolnota> <a class=header href=javascript:void(0);> <img class=ikona alt=wspolnota src=/media/32139/inne.png /> <div class=nazwa>Akcja Katolicka</div> <img class=strzalka alt=arrow down src=/images/arrow-down.png /> </a> <div class=content ><p>Do Akcji Katolickiej należy kilkanaście osób, w różnym wieku. Członkowie tej grupy to aktywni ludzie, którzy podejmują szereg ciekawych przedsięwzięć związanych z naszą parafią. Można na nich liczyć i są zawsze gotowi do współpracy.</p> <p>Celem Akcji Katolickiej jest pogłębianie formacji chrześcijańskiej oraz organizowanie bezpośredniej współpracy katolików świeckich z hierarchią kościelną w prowadzeniu misji apostolskiej Kościoła.</p> <p><a href=http://parafiastupsk.pl/grupy-parafialne/akcja-katolicka/>więcej informacji</a></p></div> </div> <div class=wspolnota> <a class=header href=javascript:void(0);> <img class=ikona alt=wspolnota src=/media/32139/inne.png /> <div class=nazwa>Koła Żywego R&#243;żańca</div> <img class=strzalka alt=arrow down src=/images/arrow-down.png /> </a> <div class=content ><p>W naszej wspólnocie parafialnej istnieją trzy żeńskie Róże Różańcowe. Dwie w Stupsku i jedna w Konopkach. To najliczniejsza Grupa istniejąca przy parafii, gdyż liczy sześćdziesiąt członkiń, które modlą się w intencjach własnych i Kościoła polecając Panu Bogu przez pośrednictwo Królowej Różańca Świętego.</p> <p><a href=http://www.parafiastupsk.pl/grupy-parafialne/kola-zywego-rozanca/>więcej informacji</a></p></div> </div> <div class=wspolnota> <a class=header href=javascript:void(0);> <img class=ikona alt=wspolnota src=/media/32139/inne.png /> <div class=nazwa>Ruch Światło-Życie</div> <img class=strzalka alt=arrow down src=/images/arrow-down.png /> </a> <div class=content ><p>Znakiem Ruchu Światło-Życie jest symbol i słowa ΦΩΣ ΖΩΗ (czyt. fos-zoe) – greckie słowa „światło” i „życie”, krzyżujące się na literze „omega”, która tutaj jest symbolem Ducha Świętego (jako Tego, który jest wszystkim) i ułożone w kształt krzyża. Popularna nazwa tego symbolu to foska. Struktura Ruchu jest zgodna ze strukturą Kościoła. Małe grupy, do których należą uczestnicy Ruchu, zasadniczo tworzą jego wspólnotę w parafii. Wspólnoty Ruchu utrzymują ze sobą łączność spotykając się na Dniach Wspólnoty</p> <p><a href=http://parafiastupsk.pl/grupy-parafialne/ruch-swiatlo-zycie/>więcej informacji</a></p></div> </div> <div class=wspolnota> <a class=header href=javascript:void(0);> <img class=ikona alt=wspolnota src=/media/32139/inne.png /> <div class=nazwa>Asysta procesyjna</div> <img class=strzalka alt=arrow down src=/images/arrow-down.png /> </a> <div class=content ><p>Do asysty przynależą zarówno parafianie dorośli, młodzież i dzieci. To grupa, która posługuje przy różnych uroczystościach a zwłaszcza w każdą pierwszą niedzielę miesiąca, kiedy po mszy świętej odbywa się procesja Eucharystyczna.</p> <p><a href=http://parafiastupsk.pl/grupy-parafialne/asysta-procesyjna/>więcej informacji</a></p></div> </div> <div class=wspolnota> <a class=header href=javascript:void(0);> <img class=ikona alt=wspolnota src=/media/32139/inne.png /> <div class=nazwa>Schola dziecięca</div> <img class=strzalka alt=arrow down src=/images/arrow-down.png /> </a> <div class=content ><p>Uczestniczkami tej grupy są dziewczynki, które śpiewają w naszym kościele uwielbiając Pana Boga przez piękny śpiew i swoje gorące zaangażowanie. Opiekunem tej Grupy jest pan Lech Zaręba, który systematycznie się spotyka z dziewczynkami na próbach w każdą sobotę o godz.16<sup>00</sup>.</p> <p><a href=http://parafiastupsk.pl/grupy-parafialne/schola-dziecieca/>więcej informacji</a></p></div> </div> <div class=wspolnota> <a class=header href=javascript:void(0);> <img class=ikona alt=wspolnota src=/media/32139/inne.png /> <div class=nazwa>Media</div> <img class=strzalka alt=arrow down src=/images/arrow-down.png /> </a> <div class=content ><p><span><span><span><span><span><span>strona internetowa </span></span></span></span></span></span><a href=http://parafiastupsk.pl/><span><span><span><span><span><span>www.parafiastupsk.pl</span></span></span></span></span></span></a></p> <p><span><span><span><span><span>profil na portalu społecznościowym <a href=https://www.facebook.com/parafiastupsk>f</a></span></span></span><a href=https://www.facebook.com/parafiastupsk><span><span><span><span>acebook</span></span></span></span></a></span></span></p> <p><span><span><span><span><span><span>parafialny kanał <a href=https://www.youtube.com/user/parafiastupsk target=_blank>youtube</a><br /></span></span></span></span></span></span></p></div> </div> </div> </div> <script type=text/javascript> $(document).ready(function(){ $('.accordion').first().addClass('selected'); $('.accordion').find('img').first().attr('src','/images/arrow-up-white.png'); $('.accordion .header').click(function(){ var selectedAccordion = $(this).parent(); var selectedContent = $(this).next(); if(selectedContent.is(:visible)){ selectedAccordion.find('img').attr('src','/images/arrow-down.png'); selectedAccordion.toggleClass('selected'); selectedContent.slideUp(500); } else{ selectedAccordion.find('img').attr('src','/images/arrow-up-white.png'); selectedAccordion.toggleClass('selected'); selectedContent.slideDown(500); } }); }); </script> <script type=text/javascript> $(document).ready(function(){ $('.wspolnota').find('.strzalka').first().attr('src','/images/arrow-up.png'); $('.wspolnota .header').click(function(){ var selectedAccordion = $(this).parent(); var selectedContent = $(this).next(); if(selectedContent.is(:visible)){ selectedAccordion.find('.strzalka').attr('src','/images/arrow-down.png'); selectedAccordion.toggleClass('selected'); selectedContent.slideUp(500); } else{ selectedAccordion.find('.strzalka').attr('src','/images/arrow-up.png'); selectedAccordion.toggleClass('selected'); selectedContent.slideDown(500); } }); }); </script> <script type=text/javascript> $(document).ready(function(){ var mapObject; var size = new google.maps.Size(31, 44); var startPoint = new google.maps.Point(0, 0); var hangPoint = new google.maps.Point(10, 30); var markerIcon = new google.maps.MarkerImage('/images/marker-icon.png', size, startPoint, hangPoint); var infowindow = new google.maps.InfoWindow(); var dlugoscGeograficzna = 53.02214600000001; var szerokoscGeograficzna = 20.438612000000035; function InicjalizujMape() { var mapDiv = document.getElementById('mapka'); var myOptions = { zoom: 11, maxZoom: 18, center: new google.maps.LatLng(dlugoscGeograficzna, szerokoscGeograficzna), mapTypeId: google.maps.MapTypeId.ROADMAP, streetViewControl: false, panControl: false }; mapObject = new google.maps.Map(mapDiv, myOptions); } function DodajPunkt(){ var latlng = new google.maps.LatLng(dlugoscGeograficzna, szerokoscGeograficzna); var marker = new google.maps.Marker({ position: latlng, map: mapObject }); marker.setIcon(markerIcon); } InicjalizujMape(); DodajPunkt(); }); </script> </div> </div> <footer> <div id=footer-center> <div id=footer-upper> <table border=0 cellpadding=0 style=width: 100px; margin-right: 30px;> <tbody> <tr> <td><a href=http://diecezjaplocka.pl/dla-wiernych title=Dla wiernych class=header>DLA WIERNYCH</a></td> </tr> <tr> <td><a href=http://diecezjaplocka.pl/dla-wiernych/aktualnosci title=Aktualności>Aktualności</a></td> </tr> <tr> <td><a href=http://diecezjaplocka.pl/dla-wiernych/blogi title=Blogi>Blogi</a></td> </tr> <tr> <td><a href=http://diecezjaplocka.pl/dla-wiernych/parafie title=Parafie>Parafie</a></td> </tr> <tr> <td><a href=http://diecezjaplocka.pl/dla-wiernych/znajdz-msze title=Znajdź Mszę>Znajdź Mszę św.</a></td> </tr> <tr> <td><a href=http://diecezjaplocka.pl/dla-wiernych/poradnik title=Poradnik>Poradnik</a></td> </tr> <tr> <td><a href=http://diecezjaplocka.pl/dla-wiernych/dzieci-i-mlodziez title=Dzieci i młodzież>Dzieci i młodzież</a></td> </tr> <tr> <td><a href=http://diecezjaplocka.pl/dla-wiernych/narzeczeni title=Narzeczeni>Narzeczeni</a></td> </tr> <tr> <td><a href=http://diecezjaplocka.pl/dla-wiernych/malzenstwo-i-rodzina title=Małżeństwo i rodzina>Małżeństwo i rodzina</a></td> </tr> <tr> <td><a href=http://diecezjaplocka.pl/dla-wiernych/serwis-dla-katechetow title=Serwis dla katechetów>Serwis dla katechetów</a></td> </tr> <tr> <td><a href=http://diecezjaplocka.pl/dla-wiernych/pomoc-duchowa title=Pomoc duchowa>Pomoc duchowa</a></td> </tr> <tr> <td><a href=http://diecezjaplocka.pl/dla-wiernych/zaangazuj-sie title=Zaangażuj się!>Zaangażuj się</a>a</td> </tr> <tr> <td><a href=/dla-wiernych/nowa-ewangelizacja-diecezji-plockiej title=Nowa Ewangelizacja Diecezji Płockiej>Nowa Ewangelizacja Diecezji Płockiej</a></td> </tr> </tbody> </table> <table border=0 cellpadding=0 style=width: 115px; margin-right: 20px;> <tbody> <tr> <td><a href=http://diecezjaplocka.pl/dla-ksiezy title=Dla księży class=header>DLA DUCHOWNYCH</a></td> </tr> <tr> <td><a href=http://diecezjaplocka.pl/dla-ksiezy/panel-ksiedza?tab=4 title=Panel księdza>Dekrety</a></td> </tr> <tr> <td><a href=http://diecezjaplocka.pl/dla-ksiezy/panel-ksiedza?tab=1 title=Panel księdza>Personalia</a></td> </tr> <tr> <td><a href=http://diecezjaplocka.pl/dla-ksiezy/panel-ksiedza?tab=5 title=Panel księdza>Oświadczenia</a></td> </tr> <tr> <td><a href=http://diecezjaplocka.pl/dla-ksiezy/panel-ksiedza?tab=2 title=Panel księdza>43. Synod Diecezji Płockiej</a></td> </tr> <tr> <td><a href=http://diecezjaplocka.pl/dla-ksiezy/panel-ksiedza?tab=6 title=Panel księdza>Zakony i zgromadzenia</a></td> </tr> <tr> <td><a href=http://diecezjaplocka.pl/dla-ksiezy/okolnik title=Okólnik>Okólnik</a></td> </tr> <tr> <td><a href=http://diecezjaplocka.pl/dla-ksiezy/panel-ksiedza?tab=3 title=Panel księdza>Powołania</a></td> </tr> </tbody> </table> <table border=0 cellpadding=0 style=width: 100px; margin-right: 25px;> <tbody> <tr> <td><a href=http://diecezjaplocka.pl/dla-turystow title=Dla turystów class=header>DLA TURYSTÓW</a></td> </tr> <tr> <td><a href=http://diecezjaplocka.pl/dla-turystow/katedra title=Katedra>Katedra</a></td> </tr> <tr> <td><a href=http://diecezjaplocka.pl/dla-turystow/drzwi-plockie title=Drzwi płockie>Drzwi Płockie</a></td> </tr> <tr> <td><a href=http://diecezjaplocka.pl/dla-turystow/muzeum title=Muzeum>Muzeum</a></td> </tr> <tr> <td><a href=http://diecezjaplocka.pl/dla-turystow/sw-faustyna title=Św. Faustyna>Św. Faustyna</a></td> </tr> <tr> <td><a href=http://diecezjaplocka.pl/dla-turystow/noclegi title=Noclegi>Noclegi</a></td> </tr> <tr> <td> </td> </tr> <tr> <td> </td> </tr> <tr> <td> </td> </tr> <tr> <td> </td> </tr> <tr> <td> </td> </tr> <tr> <td> </td> </tr> </tbody> </table> <table border=0 cellpadding=0 style=width: 70px; margin-right: 30px;> <tbody> <tr> <td><a href=http://diecezjaplocka.pl/biskup title=Biskup Płocki Piotr Libera class=header>BISKUP</a></td> </tr> <tr> <td><a href=http://diecezjaplocka.pl/biskup title=Biskup>Biskup płocki</a></td> </tr> <tr> <td><a href=http://diecezjaplocka.pl/biskup/biskup-pomocniczy title=Biskup pomocniczy>Biskup pomocniczy</a></td> </tr> <tr> <td> </td> </tr> <tr> <td> </td> </tr> <tr> <td> </td> </tr> <tr> <td> </td> </tr> <tr> <td> </td> </tr> <tr> <td> </td> </tr> <tr> <td> </td> </tr> <tr> <td> </td> </tr> <tr> <td> </td> </tr> </tbody> </table> <table border=0 cellpadding=0 style=width: 100px; margin-right: 10px;> <tbody> <tr> <td><a href=http://diecezjaplocka.pl/instytucje title=Instytucje class=header>INSTYTUCJE</a></td> </tr> <tr> <td><a href=http://diecezjaplocka.pl/instytucje/kuria title=Kuria>Kuria</a></td> </tr> <tr> <td><a href=http://diecezjaplocka.pl/instytucje/sad-biskupi title=Sąd biskupi>Sąd biskupi</a></td> </tr> <tr> <td><a href=http://diecezjaplocka.pl/instytucje/komisje-i-rady title=Komisje i rady>Komisje i rady</a></td> </tr> <tr> <td><a href=http://diecezjaplocka.pl/instytucje/ruchy-i-stowarzyszenia title=Ruchy i stowarzyszenia>Ruchy i stowarzyszenia</a></td> </tr> <tr> <td><a href=http://diecezjaplocka.pl/instytucje/rada-spoleczna title=Rada społeczna>Rada społeczna</a></td> </tr> <tr> <td><a href=http://diecezjaplocka.pl/instytucje/kapituly title=Kapituły>Kapituły</a></td> </tr> <tr> <td><a href=http://diecezjaplocka.pl/instytucje/seminarium title=Seminarium>Seminarium</a></td> </tr> <tr> <td><a href=http://diecezjaplocka.pl/instytucje/szkoly-i-uczelnie title=Szkoły i uczelnie>Szkoły i uczelnie</a></td> </tr> <tr> <td><a href=http://diecezjaplocka.pl/instytucje/caritas-diecezji-plockiej title=Caritas>Caritas</a></td> </tr> <tr> <td><a href=http://diecezjaplocka.pl/instytucje/biblioteka title=Biblioteka>Biblioteka</a></td> </tr> <tr> <td><a href=http://diecezjaplocka.pl/instytucje/wydawnictwo title=Wydawnictwo>Wydawnictwo</a></td> </tr> <tr> <td><a href=http://diecezjaplocka.pl/instytucje/archiwum title=Archiwum>Archiwum</a></td> </tr> </tbody> </table> <table border=0 cellpadding=0 style=width: 80px; margin-right: 20px;> <tbody> <tr> <td><a href=http://diecezjaplocka.pl/multimedia title=Multimedia class=header>MULTIMEDIA</a></td> </tr> <tr> <td><a href=http://diecezjaplocka.pl/multimedia/zdjecia title=Zdjęcia>Zdjęcia</a></td> </tr> <tr> <td><a href=http://diecezjaplocka.pl/multimedia/video title=Video>Video</a></td> </tr> <tr> <td><a href=http://diecezjaplocka.pl/multimedia/audio title=Audio>Audio</a></td> </tr> <tr> <td><a href=http://diecezjaplocka.pl/multimedia/radio title=Radio>Radio</a></td> </tr> <tr> <td><a href=http://diecezjaplocka.pl/blogi/blog-logowanie title=Słownik pojęć> </a></td> </tr> </tbody> </table> <table border=0 cellpadding=0 style=width: 90px; margin-right: 10px;> <tbody> <tr> <td><a href=http://diecezjaplocka.pl/kontakt title=Kontakt class=header>KONTAKT</a></td> </tr> <tr> <td><a href=http://diecezjaplocka.pl/kontakt/redakcja title=Redakcja>Redakcja</a></td> </tr> <tr> <td><a href=http://diecezjaplocka.pl/kontakt/znajdz-ksiedza title=Znajdź księdza>Znajdź księdza</a></td> </tr> <tr> <td><a href=http://diecezjaplocka.pl/kontakt/linki title=Linki>Linki</a></td> </tr> <tr> <td> </td> </tr> <tr> <td> </td> </tr> </tbody> </table> <table border=0 cellpadding=0 style=width: 120px;> <tbody> <tr> <td><a href=http://diecezjaplocka.pl/dla-dziennikarzy title=Dla dziennikarzy class=header>DLA DZIENNIKARZY</a></td> </tr> <tr> <td><a href=http://diecezjaplocka.pl/dla-dziennikarzy/komunikaty-prasowe title=Komunikaty prasowe>Komunikaty prasowe</a></td> </tr> <tr> <td><a href=http://diecezjaplocka.pl/dla-dziennikarzy/zapowiedzi-prasowe title=Zapowiedzi prasowe>Zapowiedzi prasowe</a></td> </tr> <tr> <td><a href=http://diecezjaplocka.pl/dla-dziennikarzy/materialy-prasowe title=Materiały prasowe>Materiały prasowe</a></td> </tr> <tr> <td><a href=http://diecezjaplocka.pl/dla-dziennikarzy/logotypy-i-herby title=Logotypy i herby>Logotypy i herby</a></td> </tr> <tr> <td><a href=http://diecezjaplocka.pl/dla-dziennikarzy/blog-rzecznika title=Blog rzecznika>Blog rzecznika</a> </td> </tr> <tr> <td> </td> </tr> </tbody> </table> <img id=footer-icon src=/images/footer-icon.jpg alt= /> </div> <img id=footer-line src=/images/footer-line.png alt= /> <div id=footer-bottom> &copy; 2014 Diecezja Płocka </div> </div> </footer> <div id=side-widget> <div id=fb-tab> <div class=fb-content> <iframe src=http://www.facebook.com/plugins/likebox.php?href=https://www.facebook.com/DiecezjaPlocka&amp;width=200&amp;colorscheme=light&amp;show_faces=true&amp;stream=false&amp;header=false&amp;height=335 scrolling=no frameborder=0 style=border:none; overflow:hidden; width:200px; height:335px;background:White;vertical-align:bottom; allowTransparency=false> </iframe> </div> <div class=fb-tab-button> </div> </div> <div id=intencja> <div id=intencja-container> <div class=intencja-header> Wyślij intencję </div> <form id=intencja-form data-bind=visible: !sended(), submit: sendIntention> <!-- errors --> <p class=error-info data-bind=visible: !isValid()> Wypełnij poprawnie wszystkie pola </p> <p class=error-info data-bind=visible: serverError()> Błąd serwera, spróbuj ponownie! </p> <!-- /errors --> <label for=intencja-imie-nazwisko>Imię i nazwisko: </label> <input type=text id=intencja-imie-nazwisko name=intencja-imie-nazwisko placeholder=Imię Nazwisko data-bind=value: name required/> <br/> <div class=clr></div> <label for=intencja-email>Adres e-mail: </label> <input type=email id=intencja-email name=intencja-email placeholder=E-mail pattern=^([0-9a-zA-Z]([-.\w]*[0-9a-zA-Z])*@([0-9a-zA-Z][-\w]*[0-9a-zA-Z]\.)+[a-zA-Z]{2,9})$ data-bind=value: email required/> <br/> <div class=clr></div> <label for=intencja-content>Intencja:</label> <textarea id=intencja-content name=intencja-content placeholder=Treść intencji data-bind=value: intentionContent required></textarea> <label for=recaptcha_response_field> <span data-bind=visible: !captchaError()>Uzupełnij kod:</span> <span class=input-label-error data-bind=visible: captchaError()>Popraw kod:</span> </label> <div id=captcha-container style=clear:both;></div> <p> Tu możesz wysłać intencję modlitewną. Otrzymają ją wybrane zgromadzenia zakonne i wspólnoty. </p> <button type=submit class=btn-wyslij>Wyślij intencję</button> </form> <div class=acknowledgements data-bind=visible: sended()> Dziękujemy za wysłanie intencji </div> </div> <script type=text/javascript> function IntencjeVM() { var self = this; self.name = ko.observable(''); self.email = ko.observable(''); self.intentionContent = ko.observable(''); self.isValid = ko.observable(true); self.serverError = ko.observable(false); self.captchaError = ko.observable(false); self.sended = ko.observable(false); self.sendIntention = function(){ if(!Modernizr.input.required){ if(self.name().length < 3 || self.email().length < 7 || self.intentionContent().length < 10 || !emailIsValid(self.email())) { self.isValid(false); return false; } } var intentionData = { name: self.name(), email: self.email(), content: self.intentionContent() }; checkCaptcha(function(result){ if(result){ send(intentionData, function(result){ result = $.trim(result); result = Number(result); if(result){ self.sended(result); self.serverError(false); setTimeout(resetForm, 5000); } else { self.serverError(true); } }); } }); return false; } var send = function(intentionData, callback) { $.post('/intencjesendemail', intentionData, function(result) { if(callback) { callback(result); } }); } var checkCaptcha = function(callback) { var challengeField = $(input#recaptcha_challenge_field).val() responseField = $(input#recaptcha_response_field).val(), privateKey = '6Ldy1eISAAAAAIJ4iduSSxRlr6LAFNntWHP9Wxak'; var captchaData = { privateKey: privateKey, challenge: challengeField, response: responseField, remoteIp: '192.168.1.10' }; $.post('/Recaptcha.ashx', captchaData, function(result) { result = result == True ? 1 : 0; if(result){ if(callback) { self.captchaError(false); callback (result); } } else{ Recaptcha.reload(); self.captchaError(true); } }); }; function resetForm() { // reset everything? self.name(''); self.email(''); self.intentionContent(''); Recaptcha.reload(); self.sended(false); } function emailIsValid(emailCandidate){ var patternResult = /^([0-9a-zA-Z]([-.\w]*[0-9a-zA-Z])*@([0-9a-zA-Z][-\w]*[0-9a-zA-Z]\.)+[a-zA-Z]{2,9})$/.test(emailCandidate); return patternResult; } } Recaptcha.create(6Ldy1eISAAAAAGxs0TXWOvP8fDJf6-6xKxOLHq3g, captcha-container, { theme: white, lang: pl } ); var intencjeVM = new IntencjeVM(); ko.applyBindings(intencjeVM, document.getElementById('intencja-container')); </script> <a href=# id=intencja-button> </a> </div> <div id=newsletter> <div id=newsletter-container> <div class=newsletter-header>Zapisz się do newslettera</div> <div id=newsletter-form> <p class=newsletter-email-label>Adres e-mail: </p><input type=text id=newsletter-input placeholder=Adres e-mail /> <a href=javascript:void(0); id=newsletter-button-wyslij>Zapisz</a> </div> <div id=newsletter-komunikat style=display:none;> </div> </div> <a href=# id=newsletter-button></a> </div> <a id=zamknij-button href=javascript:void(0);></a> </div> <!-- widget control --> <script type=text/javascript> $(document).ready(function(){ $(window).scroll(function () { var positionTop = $(window).scrollTop() + 100; if($('body').height() - $(window).scrollTop() > 700){ $('#side-widget').stop().animate({ top: positionTop },500,function(){ }); } }); $(#fb-tab).hover( function(){ $(this).stop(true, false).animate({left:0},medium); }, function(){ $(this).stop(true, false).animate({left:-200},medium); }, 500); $(#intencja).hover( function(){ $(#intencja).stop(true, false).animate({left:0},medium); }, function(){ $(#intencja).stop(true, false).animate({left:-348},medium); }, 500); $(#newsletter).hover( function(){ $(#newsletter).stop(true, false).animate({left:0},medium); }, function(){ $(#newsletter).stop(true, false).animate({left:-348},medium); }, 500); $('#zamknij-button').click(function(){ $('#side-widget').hide(); }); }); </script> <!-- /wiget control --> <script type=text/javascript> $(document).ready(function(){ var visible = false; $('#search-form').mouseover(function(){ if(!visible){ $('#search-form input[type=text]').css('border','1px solid #B2B2B2'); $('#search-form input[type=text]').animate({ width: '+=170' }, 1000, function() { }); visible=true; } }); }); </script> <div id=freshmail-response style=display:none;></div> <script type=text/javascript> $(document).ready(function () { $('#newsletter-button-wyslij').click(function(){ if($('#newsletter-input').val() != ''){ var url = 'http://diecezjaplocka.pl/newsletter?freshmail_email=' + $('#newsletter-input').val(); var komunikatOk = 'Dziękujemy za zapisanie się do newslettera. Na podany adres email zostanie wysłana wiadomość z prośbą o potwierdzenie rejestracji. Kliknij na link umieszczony w tej wiadomości aby potwierdzić rejestrację.'; var komunikatIstnieje = 'Podany adres email jest już w bazie danych'; var komunikatNiepoprawny = 'Podany adres email jest niepoprawny'; var komunikatBlad = 'Przepraszamy, wystąpił problem podczas zapisywania Cię do newslettera. Spróbuj później lub skontaktuj się z obsługą serwisu.'; $.ajax({ type: POST, url: url, success: function(data) { //$('#freshmail-response').empty(); //$('#freshmail-response').html(data); //$('#newsletter-komunikat').html($('#freshmail-response').find('.infobox-content p').html()); //$('#freshmail-response').empty(); if($.trim(data) == 0) $('#newsletter-komunikat').html(komunikatOk); else if($.trim(data) == 1304) $('#newsletter-komunikat').html(komunikatIstnieje); else if($.trim(data) == 1301) $('#newsletter-komunikat').html(komunikatNiepoprawny); else $('#newsletter-komunikat').html(komunikatBlad); $('#newsletter-form').hide(); $('#newsletter-komunikat').show(); setTimeout(function(){ $('#newsletter-form').show(); $('#newsletter-komunikat').hide(); }, 5000); }, error: function() { $('#newsletter-komunikat').html(komunikatBlad); $('#newsletter-form').hide(); $('#newsletter-komunikat').show(); setTimeout(function(){ $('#newsletter-form').show(); $('#newsletter-komunikat').hide(); }, 5000); } }); } $('#newsletter-input').val(''); }); }); </script> <!-- <script type=text/javascript> $(document).ready(function(){ var dlugoscMenu = $('#main-menu').outerWidth(); var dlugoscLi = 0; var liczbaElementowLi = 0; var li = $('#main-menu > li'); var a = $('#main-menu > li > a'); li.each(function(){ dlugoscLi += $(this).outerWidth(true); liczbaElementowLi++; window.console.log($(this).outerWidth(true)); }); var roznica = dlugoscLi - dlugoscMenu; var delta = Math.floor(roznica/(liczbaElementowLi*2)); var reszta = roznica - delta * 2 * liczbaElementowLi; a.each(function(){ //$(this).css('padding-left', '-=' + delta); //$(this).css('padding-right', '-=' + delta); //$(this).css('width',50); }); // $('#main-menu > li.ostatni > a').css('padding-left', '-=' + Math.floor(reszta/2)); //$('#main-menu > li.ostatni > a').css('padding-right', '-=' + (reszta - Math.floor(reszta/2))); }); </script> --> <div class=cookies_block> <p>Ta strona używa COOKIES. Z pomocą cookies zbieramy dane jedynie w celach statystycznych. Możesz usunąć pliki cookies z dysku twardego a także zablokować ich zapisywanie poprzez zmianę ustawień swojej przeglądarki.</p> <div id=ok_btn></div> </div> <script type=text/javascript> $(document).ready(function(){ if(!$.cookie('showcookie')) { $(.cookies_block).css('display',block); } $(#ok_btn).click(function(){ $(.cookies_block).animate({opacity:0},600,function(){ $(this).css(display,none); }); $.cookie('showcookie', 'on',{ expires: 364*10, path: '/'}); }); }); </script> <script> (function(i,s,o,g,r,a,m){i['GoogleAnalyticsObject']=r;i[r]=i[r]||function(){ (i[r].q=i[r].q||[]).push(arguments)},i[r].l=1*new Date();a=s.createElement(o), m=s.getElementsByTagName(o)[0];a.async=1;a.src=g;m.parentNode.insertBefore(a,m) })(window,document,'script','//www.google-analytics.com/analytics.js','ga'); ga('create', 'UA-48298254-1', 'diecezjaplocka.pl'); ga('send', 'pageview'); </script> </body> </html> ","","Sławomir Obrębski","9:00 ; 11:00 (Kaplica w Konopkach); 12:30","17:00 w miesiącach październik - kwiecień; 18:00 w miesiącach maj - wrzesień","","53.0221443,20.438612","http://diecezjaplocka.pl/parafie/stupsk-sw-wojciecha"
"Parafia pw. św. Maksymiliana Kolbego","","","09-200 Sierpc, ul. Szkolna 9 Sudragi","","sudragi@diecezjaplocka.pl","","Tomasz W&#243;jtowicz","9:00 ; 11:30","16:00 czas zimowy; 17:00","","52.8453674,19.5507088","http://diecezjaplocka.pl/parafie/sudragi-sw-maksymiliana-kolbego"
"Parafia pw. św. Mikołaja","","","06-452 Ościsłowo, Sulerzyż 48","","sulerzyz@diecezjaplocka.pl","","Janusz Leon Rumiński","9:00 ; 12:00","17:00 czas zimowy; 18:00","","52.8543434,20.45201","http://diecezjaplocka.pl/parafie/sulerzyz-sw-mikolaja"
"Parafia pw. św. J&#243;zefa","","","09-304 Lubowidz, Syberia","","syberia@diecezjaplocka.pl","","Ireneusz Sztankowski","9:00 ; 11:00 ; 15:00","7:00 zamiennie; 17:00","","53.0863533,19.7075062","http://diecezjaplocka.pl/parafie/syberia-sw-jozefa"
"Parafia pw. Nawiedzenia Najświętszej Marii Panny","","","09-550 Szczawin Kościelny, ul. Jana Pawła II 5","","szczawin@diecezjaplocka.pl","","Tadeusz Stanisław Kwaśniewski","9:00 ; 11:00 ; 16:00","17:00","","52.3683357,19.6131287","http://diecezjaplocka.pl/parafie/szczawin-nawiedzenia-najswietszej-marii-panny"
"Parafia pw. św. Marii Magdaleny","","","09-227 Szczutowo, ul. 3 Maja 25","","szczutowo@diecezjaplocka.pl","","Marian Antoni Orzechowski","9:00 ; 11:30 ; 16:00 czas letni","16:00 czas zimowy; 18:00 czas letni","","52.9403534,19.5740089","http://diecezjaplocka.pl/parafie/szczutowo-sw-marii-magdaleny"
"Parafia pw. św. Wojciecha","","","06-550 Szreńsk, ul. Wikariacka 1","","szrensk@diecezjaplocka.pl","","Piotr Brzezik","9:00 ; 10:45 ; 12:15 ; 16:00 czas letni","7:30 ; 17:00","","53.0128441,20.1200771","http://diecezjaplocka.pl/parafie/szrensk-sw-wojciecha"
"Parafia pw. św. Jana Chrzciciela","","","06-100 Pułtusk, Szwelice 85A","","szwelice@diecezjaplocka.pl","","Jan Lucjan Włoczewski","9:00 ; 11:30 ; 15:00","7:30 maj,czerwiec,październik; 18:00","","52.79205,21.03286","http://diecezjaplocka.pl/parafie/szwelice-sw-jana-chrzciciela"
"Parafia pw. św. Marii Magdaleny i św. Kazimierza","","","","","szydlowo@diecezjaplocka.pl","","Andrzej Jan Skorłutowski","8:30 ; 10:00 Msza św. z udziałem dzieci; 11:30","17:00","","53.08049,20.4471226","http://diecezjaplocka.pl/parafie/szydlowo-sw-marii-magdaleny"
"Parafia pw. św. Bartłomieja Apostoła","","","06-126 Gzy, Szyszki 23","","szyszki@diecezjaplocka.pl","","Bogdan Adamowicz","9:00 ; 11:00 ; 16:00","16:00 czas zimowy; 18:00 czas letni","","52.7294121,20.8418961","http://diecezjaplocka.pl/parafie/szyszki-sw-bartlomieja-apostola"
"Parafia pw. św. Bartłomieja","","","","","swiedziebnia@diecezjaplocka.pl","","Jerzy Franciszek Wielechowski","7:30 ; 9:00 ; 10:15 kaplica; 11:30 ; 16:00","7:30 ; 17:30 ; 18:00","","53.1524124,19.5539","http://diecezjaplocka.pl/parafie/swiedziebnia-sw-bartlomieja"
"Parafia pw. św. Wincentego i Anastazego","","","09-472 Słupno, Święcieniec 7","","swiecieniec@diecezjaplocka.pl","","Waldemar Obrębski","9:00 ; 11:30","16:00 ; 18:00","","52.5240974,19.9111347","http://diecezjaplocka.pl/parafie/swiecieniec-sw-wincentego-i-anastazego"
"Parafia pw. św. Stanisława Biskupa i Męczennika","","","06-300 Przasnysz, Święte Miejsce","","swietemiejsce@diecezjaplocka.pl","","Marek Makowski","8:30 ; 10:00 kaplica; 11:30","17:00 czas zimowy; 18:00 czas letni","","53.05272,20.9716682","http://diecezjaplocka.pl/parafie/swiete-miejsce-sw-stanislawa-biskupa-i-meczennika"
"Parafia pw. Wniebowzięcia Najświętszej Marii Panny","","","87-605 Tłuchowo, ul. 3 Maja 24","","tluchowo@diecezjaplocka.pl","","Andrzej Aleksander Zakrzewski","8:00 ; 9:30 ; 11:00 ; 16:00","7:30 ; 17:00 zamiennie; 18:00","","52.749012,19.46586","http://diecezjaplocka.pl/parafie/tluchowo-wniebowziecia-najswietszej-marii-panny"
"Parafia pw. św. Antoniego","","","","","trabin@diecezjaplocka.pl","","Andrzej Bytner","9:00 ; 11:30","17:00","","53.09191,19.269434","http://diecezjaplocka.pl/parafie/trabin-sw-antoniego"
"Parafia pw. św. Leonarda","","","09-522 Dobrzyków, Troszyn Polski 3","","troszyn@diecezjaplocka.pl","","Stanisław Kruszewski","9:00 ; 16:00","17:00 czas zimowy; 18:00","","52.44776,19.8330345","http://diecezjaplocka.pl/parafie/troszyn-sw-leonarda"
"Parafia pw. św. Jakuba Apostoła","","","09-140 Raciąż, Unieck 81","","unieck@diecezjaplocka.pl","","Wojciech Iwanowski","7:50 ; 9:30 ; 12:00 ; 14:00","16:00 ; 16:30","","52.8689346,20.1994781","http://diecezjaplocka.pl/parafie/unieck-sw-jakuba-apostola"
"Parafia pw. św. Walentego","","","06-445 Strzegowo, ul. Kościelna 42","","unierzyz@diecezjaplocka.pl","","Tomasz Kazmierz Milewski","9:00 ; 11:30","17:00 czas zimowy; 18:00 czas letni","","52.86256,20.2928028","http://diecezjaplocka.pl/parafie/unierzyz-sw-walentego"
"Parafia pw. św. Jana Chrzciciela","","","06-415 Czernice Borowe, Węgra 20","","wegra@diecezjaplocka.pl","","Księża mieszkający w parafii","8:00 kaplica; 10:00 ; 12:00","15:00 czas zimowy; 16:00 czas letni","","53.05233,20.76762","http://diecezjaplocka.pl/parafie/wegra-sw-jana-chrzciciela"
"Parafia pw. Ducha Świętego","","","06-210 Płoniawy Bramura, Węgrzynowo","","wegrzynowo@diecezjaplocka.pl","","Włodzimierz Dariusz Gawlikowski","9:00 ; 11:00 ; 15:00","7:00 zamiennie; 17:00","","52.92726,21.0272827","http://diecezjaplocka.pl/parafie/wegrzynowo-ducha-swietego"
"Parafia pw. św. Stanisława Biskupa i Męczennika","","","06-513 Wieczfnia Kościelna, Wieczfnia Kościelna 97","","wieczfnia@diecezjaplocka.pl","","Sławomir Krasiński","8:30 ; 10:00 kaplica; 11:30 ; 16:00","7:30 ; 17:00","","53.19474,20.4765034","http://diecezjaplocka.pl/parafie/wieczfnia-koscielna-sw-stanislawa-biskupa-i-meczennika"
"Parafia pw. Matki Bożej Pocieszycielki Strapionych","","","06-120 Winnica, Pl. Jana Pawła II 3","","winnica@diecezjaplocka.pl","","Zbigniew Paweł Maciejewski","7:30 ; 9:15 ; 12:00 ; 15:00","7:30 ; 17:00 czas zimowy; 18:00","","52.64318,20.94095","http://diecezjaplocka.pl/parafie/winnica-matki-bozej-pocieszycielki-strapionych"
"Parafia pw. św. Stanisława Kostki","","","06-521 Wiśniewo k.Mławy, Wojnówka 13","","wojnowka@diecezjaplocka.pl","","Księża mieszkający w parafii","9:00 ; 11:00 ; 15:00 kaplica","9:00 zamiennie; 16:00 czas zimowy; 18:00","","53.083416,20.3172588","http://diecezjaplocka.pl/parafie/wojnowka-sw-stanislawa-kostki"
"Parafia pw. św. Michała Archanioła","","","09-451 Radzanowo k.Płocka, Woźniki","","wozniki@diecezjaplocka.pl","","Księża mieszkający w parafii","9:00 ; 11:30 ; 15:00","17:00","","52.5924644,19.9048615","http://diecezjaplocka.pl/parafie/wozniki-sw-michala-archaniola"
"Parafia pw. św. Stanisława Biskupa i Męczennika","","","09-131 Joniec, Stara Wrona 27","","wrona@diecezjaplocka.pl","","Sławomir Karłowicz","8:00 ; 10:00","17:00 czas zimowy; 18:00 czas letni","","52.54271,20.59648","http://diecezjaplocka.pl/parafie/wrona-sw-stanislawa-biskupa-i-meczennika"
"Parafia pw. Tr&#243;jcy Świętej","","","09-450 Wyszogród, ul. Rębowska 41","","wyszogrod@diecezjaplocka.pl","","Grzegorz Sławomir Przybyłek","8:30 ; 10:00 ; 12:00 ; 14:00 kaplica; 16:00","7:00 ; 17:00 zamiennie; 18:00","","52.3881645,20.1904049","http://diecezjaplocka.pl/parafie/wyszogrod-trojcy-swietej"
"Parafia pw. Matki Boskiej R&#243;żańcowej","","","06-561 Stupsk, Wyszyny Kościelne 46","","wyszyny@diecezjaplockaa.pl","","Stanisław Gąsiorowski","9:00 ; 11:30 ; 14:00 kaplica","7:00 ; 18:00 maj - wrzesień","","53.0464172,20.3926773","http://diecezjaplocka.pl/parafie/wyszyny-matki-boskiej-rozancowej"
"Parafia pw. św. Wojciecha","","","09-230 Bielsk, Zagroba","","zagroba@diecezjaplocka.pl","","Wiesław Piątek","9:00 ; 11:30 ; 15:00","17:00","","52.63901,19.8909531","http://diecezjaplocka.pl/parafie/zagroba-sw-wojciecha"
"Parafia pw. św. J&#243;zefa","","","05-170 Zakroczym, ul. 18-go Stycznia 1","","zakroczym@diecezjaplocka.pl","","Witold Godleś","9:00 ; 10:30 ; 12:00 ; 18:00","17:00 ; 18:00","","52.43134,20.60804","http://diecezjaplocka.pl/parafie/zakroczym-sw-jozefa"
"Parafia pw. św. Apostoł&#243;w Piotra i Pawła","","","09-470 Bodzanów, Kępa Polska 43 Zakrzewo","","zakrzewo@diecezjaplocka.pl","","Krzysztof Jerzy Kosewski","10:00 ; 12:00","17:00","","52.43297,19.9643822","http://diecezjaplocka.pl/parafie/zakrzewo-sw-apostolow-piotra-i-pawla"
"Parafia pw. św. Wojciecha","","","07-215 Obryte, Zambski Kościelne 81","","zambski@diecezjaplocka.pl","","Dariusz Multon","9:00 ; 11:00","7:00 zamiennie; 16:00","","52.7574,21.21847","http://diecezjaplocka.pl/parafie/zambski-sw-wojciecha"
"Parafia pw. św. Małgorzaty","","","07-217 Zatory, ul. Jana Pawła II 99","","zatory@diecezjaplocka.pl","","Mirosław Jerzy Danielski","9:00 ; 11:00 ; 16:00 czas letni","9:00 zamiennie; 16:00","","52.61055,21.1850872","http://diecezjaplocka.pl/parafie/zatory-sw-malgorzaty"
"Parafia pw. św. Marcina","","","09-226 Zawidz Kościelny, ul. Zacisze 2","","zawidz@diecezjaplocka.pl","","J&#243;zef Roman Łozecki","9:00 ; 11:30 ; 16:00","16:30 ; 17:00","","52.8267746,19.8737125","http://diecezjaplocka.pl/parafie/zawidz-sw-marcina"
"Parafia pw. św. Antoniego","","","05-140 Serock, Wola Kiełpińska 6 Zegrze","","zegrze@diecezjaplocka.pl","","Andrzej Marchlewski","8:30 ; 10:15 ; 12:00 ; 16:00","18:00 ; 18:30","","52.50407,20.99011","http://diecezjaplocka.pl/parafie/zegrze-sw-antoniego"
"Parafia pw. św. Bartłomieja","","","06-461 Zeńbok, Zeńbok 59","","zenbok@diecezjaplocka.pl","","Andrzej Romuald Chmieliński","9:00 ; 12:00","16:00 czas zimowy; 17:00 czas letni","","52.97518,20.5828152","http://diecezjaplocka.pl/parafie/zenbok-sw-bartlomieja"
"Parafia pw. św. Marcina","","","09-310 Kuczbork Osada, ul. Broniewskiego 1 Zielona k.Mławy","","zielona@diecezjaplocka.pl","","Andrzej Rosiak","9:00 ; 11:00 ; 16:00","7:00 ; 17:00 czas zimowy; 18:00 czas letni","","53.0916748,19.9754372","http://diecezjaplocka.pl/parafie/zielona-sw-marcina"
"Parafia pw. św. Mateusza Apostoła","","","06-408 Krasne, Zielona k.Ciechanowa","","zielonaciechanowska@diecezjaplocka.pl","","Zbigniew Kurkiewicz","8:00 ; 10:00 ; 12:00","7:30 ; 17:00 środa, piatek","","52.93558,20.8509178","http://diecezjaplocka.pl/parafie/zielona-ciechanowska-sw-mateusza-apostola"
"Parafia pw. św. Jana Nepomucena","","","09-305 Zieluń, ul. Świętojańska 7","","zielun@diecezjaplocka.pl","","Sławomir Rosiński","9:00 ; 11:00","17:00 czas zimowy; 18:00","","53.1757355,19.8541985","http://diecezjaplocka.pl/parafie/zielun-sw-jana-nepomucena"
"Parafia pw. św. Anny","","","87-517 Brzuze, Żałe 28","","zale@diecezjaplocka.pl","","Grzegorz Mazurkiewicz","7:30 kaplica lipiec-sierpień; 9:00 ; 11:00 ; 12:30","17:00 czas zimowy; 18:00 czas letni","","53.0261078,19.3101311","http://diecezjaplocka.pl/parafie/zale-sw-anny"
"Parafia pw. Matki Bożej Szkaplerznej","","","06-561 Stupsk, Żmijewo Kościelne 24","","zmijewo@diecezjaplocka.pl","","Wiesław Piotr Mordon","9:00 ; 11:30","16:00 czas zimowy; 17:00 czas letni","","53.021656,20.4885426","http://diecezjaplocka.pl/parafie/zmiejewo-matki-bozej-szkaplerznej"
"Parafia pw. św. Wawrzyńca","","","","","zukowo@diecezjaplocka.pl","","Janusz Mackiewicz","9:00 ; 11:30 ; 16:00","17:00 czas zimowy; 18:00 czas letni","","52.50258,20.2600651","http://diecezjaplocka.pl/parafie/zukowo-sw-wawrzynca"
"Parafia pw. św. Antoniego z Padwy","","","09-300 Żuromin, ul. Kościuszki 4","","zuromin@diecezjaplocka.pl","","Kazimierz Kowalski","7:00 ; 7:00 kaplica szpitalna; 9:00 ; 10:30 ; 12:00 ; 15:00 ; 18:00","7:00 ; 18:00","","53.06849,19.913599","http://diecezjaplocka.pl/parafie/zuromin-sw-antoniego-z-padwy"
"Parafia pw. św. Stanisława Biskupa i Męczennika","","","06-521 Wiśniewo, Żurominek Kapitulny 66","","zurominek@diecezjaplocka.pl","","Księża mieszkający w parafii","8:45 ; 10:00 kaplica; 11:45 ; 16:00","16:00 czas zimowy; 18:00","","52.9972,20.32877","http://diecezjaplocka.pl/parafie/zurominek-kapitulny-sw-stanislawa-biskupa-i-meczennika"
