"name","postal","city","address","www","email","phone","rector","sun","week","fest","latlng","url"
"Narodzenia NMP","37-122","ALBIGOWA","37-122 ALBIGOWA, Albigowa 844","","","17 226 71 93","","7.30; 9.00; 11.00; 17.00","","","",""
"Trójcy Przenajświętszej","37-754","BABICE","37-754 BABICE, Babice 54","","","16 671 12 12","","7.30; 11.45","","","",""
"św. Wojciecha","36-068","BACHÓRZ","36-068 BACHÓRZ, Bachórz 72","","","16 652 24 00","","7.30; 11.00","","","",""
"św. Katarzyny ","37-750","DUBIECKO","37-750 DUBIECKO, Bachórzec 72","","","16 651 24 90","","7.30; 11.00","","","",""
"Niepokalanego Poczęcia NMP","38-606","BALIGRÓD","38-606 BALIGRÓD, ul. Kazimierza Wielkiego 27","","","13 468 45 50","","7.30; 10.30; 16.00 (lipiec i sierpień. 7.00; 11.00; 16.00)","","","",""
"św. Bartłomieja","36-065","DYNÓW","36-065 DYNÓW, Bartkówka 113a","","","16 652 19 06","","8.00; 10.30","","","",""
"św. Józefa","36-230","DOMARADZ","36-230 DOMARADZ, Barycz 196","","","13 434 73 81","","7.30; 10.30; 15.30","","","",""
"Wniebowzięcia NMP","38-610","POLAŃCZYK","38-610 POLAŃCZYK, Berezka 41 B","","","13 493 08 15","","11.00","","","",""
"Podwyższenia Krzyża Świętego","38-524","BESKO","38-524 BESKO, ul. Kościelna 4","","","13 467 30 17","","7.30; 9.15; 11.00; 16.30","","","",""
"Narodzenia NMP","38-600","LESKO","38-600 LESKO, Bezmiechowa Górna 20","","","13 469 13 13","","7.30; 11.00","","","",""
"Najświętszego Serca Pana Jezusa","37-114","BIAŁOBRZEGI","37-114 BIAŁOBRZEGI, Białobrzegi 30","","","17 224 52 21","","7.00; 9.00; 10.30; 16.00","","","",""
"św. Stanisława Kostki","37-740","BIRCZA","37-740 BIRCZA, ul. Jana Pawła II 12","","","16 672 50 23","","8.00; 9.30; 11.00; 16.00","","","",""
"Wszystkich Świętych","36-221","BLIZNE","36-221 BLIZNE, Blizne 436","","","13 430 56 00","","7.00; 9.00; 11.00; 15.00","","","",""
"Narodzenia NMP","37-722","WYSZATYCE","37-722 WYSZATYCE, Bolestraszyce 157","","","16 671 64 81","","7.30; 9.00; 11.00","","","",""
"św. Marcina","37-561","CHŁOPICE","37-561 CHŁOPICE, Boratyn 64","","","16 622 22 56","","8.00; 11.00","","","",""
"św. Piotra i Pawła","36-020","TYCZYN","36-020 TYCZYN, Borek Stary 337","","","17 229 80 87","","7.00; 9.00; 11.00; 16.00","","","",""
"Najświętszego Serca Pana Jezusa","37-751","ŻOHATYN","37-751 ŻOHATYN, Borownica 32","","","16 672 57 44","","12.00","","","",""
"Matki Bożej Różańcowej","38-700","USTRZYKI DOLNE","38-700 USTRZYKI DOLNE, Brzegi Dolne 139","","","13 461 13 44","","7.30; 11.00","","","",""
"Przemienienia Pańskiego","36-200","BRZOZÓW","36-200 BRZOZÓW, Plac Grunwaldzki 2","","","13 434 16 34","","6.30; 8.00; 9.30; 11.00; 12.15; 16.00; 18.00","","","",""
"Matki Bożej Pocieszenia","37-304","BRZYSKA WOLA","37-304 BRZYSKA WOLA, Brzyska Wola 202","","","17 242 91 37","","8.00; 11.00","","","",""
"św. Jana Chrzciciela","37-307","BRZÓZA KRÓLEWSKA","37-307 BRZÓZA KRÓLEWSKA, Brzóza Królewska 493","","","17 242 90 74","","7.00; 9.00; 11.00; 17.00","","","",""
"Najświętszego Serca Pana Jezusa","37-110","ŻOŁYNIA","37-110 ŻOŁYNIA, Brzóza Stadnicka 147","","","17 224 80 26","","7.30; 10.30","","","",""
"Niepokalanego Serca NMP","37-114","BIAŁOBRZEGI","37-114 BIAŁOBRZEGI, Budy Łańcuckie 216","","","502 034 899","","6.30; 8.00; 10.30; 15.00","","","",""
"Podwyższenia Krzyża Świętego","38-505","BUKOWSKO","38-505 BUKOWSKO, Bukowsko","","","13 467 44 52","","7.30; 11.00; 15.00","","","",""
"NMP Królowej","37-710","ŻURAWICA","37-710 ŻURAWICA, Buszkowice 134","","","16 671 63 21","","8.00; 10.30; 16.00","","","",""
"Najświętszego Serca Pana Jezusa","38-458","CHORKÓWKA","38-458 CHORKÓWKA, Bóbrka 151","","","13 431 31 51","","7.30; 11.30","","","",""
"Najświętszego Serca Pana Jezusa","36-623","UHERCE MINERALNE","36-623 UHERCE MINERALNE, Bóbrka 57","","","13 469 18 95","","8.30; 12.30","","","",""
"św. Marcina","36-030","BŁAŻOWA","36-030 BŁAŻOWA, ul. Armii Krajowej 1","","","17 229 70 38","","7.00; 9.00; 11.00; 17.00","","","",""
"św. Andrzeja","37-306","GRODZISKO DOLNE","37-306 GRODZISKO DOLNE, Grodzisko Nowe 273","","","17 243 62 10","","8.00; 10.30; 17.00","","","",""
"Matki Bożej Nieustającej Pomocy","37-306","GRODZISKO DOLNE","37-306 GRODZISKO DOLNE, Chodaczów 112","","","17 243 53 01","","8.00; 10.30","","","",""
"Narodzenia NMP","37-552","MŁYNY","37-552 MŁYNY, Chotyniec 28","","","16 628 36 52","","7.30; 11.00","","","",""
"Wniebowzięcia NMP","37-561","CHŁOPICE","37-561 CHŁOPICE, Chłopice 102","","","16 622 24 94","","8.00; 11.00; 16.00","","","",""
"św. Piotra i Pawła","37-534","ADAMÓWKA","37-534 ADAMÓWKA, Cieplice Jarosławskie 213","","","16 622 93 04","","11.00","","","",""
"św. Jana Chrzciciela","37-124","KRACZKOWA","37-124 KRACZKOWA, Cierpisz 109","","","17 741 58 14","","8.00; 10.30","","","",""
"Niepokalanego Poczęcia NMP","37-500","JAROSŁAW","37-500 JAROSŁAW, Cieszacin 202","","","16 621 97 52","","7.30; 10.30","","","",""
"św. Stanisława","38-607","CISNA","38-607 CISNA, Cisna 29","","","13 468 63 19","","niedziele i święta. 8.00; 11.15; (wakacje od VI do VIII 17.00)","","","",""
"Podwyższenia Krzyża Świętego","38-710","CZARNA","38-710 CZARNA, Czarna Górna 110","","","13 461 94 40","","7.30; 11.30; 16.00","","","",""
"Imienia NMP","37-125","CZARNA","37-125 CZARNA, Czarna 618","","","17 226 22 16","","7.30; 10.30; 15.00","","","",""
"Podwyższenia Krzyża Świętego","38-516","TARNAWA DOLNA","38-516 TARNAWA DOLNA, Czaszyn 34","","","13 466 14 40","","8.00; 10.30","","","",""
"Matki Bożej Nieustającej Pomocy","38-460","JEDLICZE","38-460 JEDLICZE, Dobieszyn 122 a","","","13 438 23 11","","8.00; 11.00; 16.00","","","",""
"Matki Bożej Nieustającej Pomocy","37-554","ŁOWCE","37-554 ŁOWCE, Dobkowice 198","","","16 622 23 13","","8.00; 10.30","","","",""
"Najświętszego Serca Pana Jezusa","37-530","SIENIAWA","37-530 SIENIAWA, Dobra 85","","","16 622 73 83","","7.30; 11.00","","","",""
"św. Mikołaja i Matki Bożej Nieustającej Pomocy","36-230","DOMARADZ","36-230 DOMARADZ, Domaradz 436","","","13 434 74 61","","7.00; 9.00; 11.00; 16.00","","","",""
"Matki Bożej Szkaplerznej","37-750","DUBIECKO","37-750 DUBIECKO, Drohobyczka 58","","","16 651 13 91","","8.00; 11.00","","","",""
"Matki Bożej Częstochowskiej","37-716","ORŁY","37-716 ORŁY, Drohojów 14","","","16 671 20 71","","10.30","","","",""
"Niepokalanego Serca NMP","37-750","DUBIECKO","37-750 DUBIECKO, ul. Krasickiego 20","","","16 651 23 70","","7.00; 9.00; 11.15; 15.30","","","",""
"Wszystkich Świętych","38-505","BUKOWSKO","38-505 BUKOWSKO, Dudyńce 1","","","13 467 52 99","","8.00; 11.00","","","",""
"św. Marii Magdaleny","38-450","DUKLA","38-450 DUKLA, ul. Trakt Węgierski 18","","","13 433 00 38","","6.30; 8.00; 9.30; 11.00; 15.00; 18.00","","","",""
"św. Jana z Dukli","38-450","DUKLA","38-450 DUKLA, ul. Pocztowa 5","","","13 433 00 61","","w niedziele i święta. 7.30; 9.00; 10.30; 15.00; 17.00 (1 IV - 30 IX); 18.30 (1 X - 31 III)","","","",""
"św. Michała Archanioła","38-713","LUTOWISKA","38-713 LUTOWISKA, Dwernik 22","","","13 461 08 15","","08.30 (wakacje 19.00)","","","",""
"św. Michała Archanioła i św. Anny","36-204","DYDNIA","36-204 DYDNIA, Dydnia 145","","","13 430 35 70","","7.30; 11.00; 16.00","","","",""
"św. Zofii","36-069","DYLĄGOWA","36-069 DYLĄGOWA, Dylągowa 176","","","16 652 35 02","","7.30; 11.00","","","",""
"Niepokalanego Serca NMP","36-025","DYLĄGÓWKA","36-025 DYLĄGÓWKA, Dylągówka 270","","","17 229 53 09","","7.30; 10.30; 15.00","","","",""
"św. Wawrzyńca","36-065","DYNÓW","36-065 DYNÓW, ul. ks. J. Ożoga 8","","","16 677 44 94","","6.30; 8.00; 9.30; 11.00; 16.00 (wakacje. 18.00)","","","",""
"NMP Królowej Polski","37-100","ŁAŃCUT","37-100 ŁAŃCUT, Dąbrówki 227","","","17 225 13 40","","8.00; 10.30; 15.00","","","",""
"Podwyższenia Krzyża Świętego","37-305","DĘBNO","37-305 DĘBNO, Dębno 197","","","17 242 90 42","","8.00; 10.30","","","",""
"NMP Królowej Polski","37-200","PRZEWORSK","37-200 PRZEWORSK, Dębów 122","","","16 648 16 92","","7.30; 10.30","","","",""
"św. Jadwigi Królowej","38-530","ZARSZYN","38-530 ZARSZYN, Długie 349","","","13 467 10 70","","8.00; 10.30.17.00","","","",""
"Podwyższenia Krzyża Świętego","38-507","JUROWCE","38-507 JUROWCE, Falejówka 120","","","13 462 62 03","","8.00; 11.00","","","",""
"św. Walentego","36-030","BŁAŻOWA","36-030 BŁAŻOWA, Futoma 106","","","17 229 70 94","","8.00; 10.30","","","",""
"Wniebowzięcia NMP","37-207","GAĆ","37-207 GAĆ, Gać 599","","","16 641 14 25","","7.30; 10.30; 15.00","","","",""
"św. Michała Archanioła","37-300","LEŻAJSK","37-300 LEŻAJSK, Giedlarowa 1148","","","17 242 51 51","","7.30; 9.00; 11.00; 16.00","","","",""
"św. Mateusza ","37-203","GNIEWCZYNA","37-203 GNIEWCZYNA, Gniewczyna 530","","","16 642 73 78","","7.15; 9.00; 11.00; 15.30","","","",""
"św. Barbary","36-230","DOMARADZ","36-230 DOMARADZ, Golcowa 1","","","13 434 71 03","","7.30; 10.30; 15.15","","","",""
"Najświętszego Serca Pana Jezusa","37-204","TRYŃCZA","37-204 TRYŃCZA, Gorzyce 314","","","16 642 11 78","","8.00; 10.30; 15.00","","","",""
"św. Mikołaja i św. Józefa","36-207","GRABOWNICA","36-207 GRABOWNICA, Grabownica 767","","","13 439 50 11","","8.00; 10.30; 16.00","","","",""
"Nawiedzenia NMP","36-207","GRABOWNICA","36-207 GRABOWNICA, Grabówka 93","","","13 430 49 05","","7.30; 11.00","","","",""
"Nawiedzenia NMP","37-733","PIKULICE","37-733 PIKULICE, Grochowce 28","","","16 672 03 55","","7.00; 11.30","","","",""
"św. Barbary","37-306","GRODZISKO DOLNE","37-306 GRODZISKO DOLNE, Grodzisko Dolne 248","","","17 243 60 19","","7.00; 9.00; 11.00; 17.00","","","",""
"Matki Bożej Bolesnej","36-025","DYLĄGÓWKA","36-025 DYLĄGÓWKA, Wólka Hyżneńska 89","","","17 229 53 02","","8.00; 10.30; 15.00","","","",""
"Podwyższenia Krzyża Świętego","37-200","PRZEWORSK","37-200 PRZEWORSK, Grzęska 477","","","16 648 79 12","","7.30; 10.30; 15.00","","","",""
"Matki Bożej Pocieszenia","37-110","ŻOŁYNIA","37-110 ŻOŁYNIA, Gwizdów 49","","","17 242 56 98","","8.00; 10.30","","","",""
"Matki Bożej Wspomożycielki Wiernych","36-200","BRZOZÓW","36-200 BRZOZÓW, Górki 74","","","13 434 56 81","","8.00; 11.00; 16.00","","","",""
"Wniebowstąpienia Pańskiego","38-613","WOŁKOWYJA","38-613 WOŁKOWYJA, Górzanka 50","","","13 469 25 81","","8.00; 11.00","","","",""
"św. Maksymiliana Kolbego","38-455","GŁOWIENKA","38-455 GŁOWIENKA, Głowienka 39","","","13 421 97 20","","7.00; 9.00; 11.00; 17.00","","","",""
"Wniebowstąpienia Pańskiego","37-100","ŁAŃCUT","37-100 ŁAŃCUT, Głuchów 95","","","17 225 33 93","","8.00; 11.00; 16.00","","","",""
"św. Marii Magdaleny","38-480","RYMANÓW","38-480 RYMANÓW, Głębokie 39","","","13 435 90 39","","7.30; 11.30","","","",""
"Wniebowzięcia NMP","38-213","HACZÓW","38-213 HACZÓW, Haczów 605","","","13 439 10 12","","7.30; 9.30; 11.00; 16.00 (lato - kościół zabytkowy; zima - kościół nowy)","","","",""
"Niepokalanego Serca NMP","37-232","JAWORNIK POLSKI","37-232 JAWORNIK POLSKI, Hadle Szklarskie 344","","","16 651 41 63","","8.00; 11.00","","","",""
"św. Piotra i Pawła","37-123","Handzlówka","37-123 Handzlówka, Handzlówka 107","","","17 226 42 13","","7.30; 10.30; 15.00","","","",""
"św. Mikołaja","36-067","HARTA","36-067 HARTA, Harta 431","","","16 652 17 65","","7.30; 11.00","","","",""
"NMP Królowej Polski","37-733","PIKULICE","37-733 PIKULICE, Hermanowice 61","","","16 675 18 47","","7.00; 10.30","","","",""
"św. Anny","38-604","HOCZEW","38-604 HOCZEW, Hoczew 71","","","13 469 42 26","","8.30; 12.00","","","",""
"Matki Bożej Wspomożenia Wiernych","37-230","MANASTERZ","37-230 MANASTERZ, Hucisko Jawornickie 257","","","16 651 44 32","","8.00; 10.30; 15.00","","","",""
"św. Stanisława","36-206","HUMNISKA","36-206 HUMNISKA, Humniska 664","","","13 434 69 10","","8.00; 10.30; 16.00","","","",""
"Niepokalanego Poczęcia NMP","36-206","HUMNISKA","36-206 HUMNISKA, Humniska 851","","","13 434 18 17","","8.00; 10.30; 15.00","","","",""
"św. Jadwigi Śląskiej","37-705","PRZEMYŚL","37-705 PRZEMYŚL, Hurko 58","","","16 675 11 98","","7.30; 11.00","","","",""
"św. Andrzeja","37-121","HUSÓW","37-121 HUSÓW, Husów 7","","","17 226 92 10","","7.30; 9.00; 11.00; 16.00","","","",""
"Narodzenia NMP","36-024","HYŻNE","36-024 HYŻNE, Hyżne 154","","","17 229 50 29","","7.30; 10.30; 16.00","","","",""
"św. Klary","36-245","NOZDRZEC","36-245 NOZDRZEC, Hłudno 83","","","13 439 80 74","","8.00; 11.00","","","",""
"Matki Bożej Częstochowskiej","38-422","KROŚCIENKO WYŻNE","38-422 KROŚCIENKO WYŻNE, Iskrzynia, ul. Podkarpacka 30","","","13 431 55 95","","8.00; 10.15","","","",""
"św. Jana Chrzciciela","38-450","DUKLA","38-450 DUKLA, Iwla 55a","","","13 433 05 15","","7.30; 11.00","","","",""
"Wszystkich Świętych","38-440","IWONICZ ZDRÓJ","38-440 IWONICZ ZDRÓJ, Iwonicz, ul. Długa 6","","","13 435 06 25","","7.30; 9.00; 11.00; 16.30","","","",""
"św. Iwony","38-440","IWONICZ ZDRÓJ","38-440 IWONICZ ZDRÓJ, ul. Kwiatowa 10","","","13 435 07 42","","","","","",""
"Zwiastowania Pańskiego","36-203","IZDEBKI","36-203 IZDEBKI, Izdebki 355","","","13 439 90 15","","8.00; 11.00; 16.00","","","",""
"Zwiastowania NMP","36-213","HACZÓW","36-213 HACZÓW, Jabłonica Polska 65","","","13 439 11 01","","7.30; 9.00; 11.00","","","",""
"Matki Bożej Częstochowskiej","36-204","DYDNIA","36-204 DYDNIA, Jabłonka 232","","","13 430 30 61","","7.30; 11.00; 16.00","","","",""
"bł. Jadwigi Królowej","37-203","GNIEWCZYNA","37-203 GNIEWCZYNA, Jagiełła, ul. św. Królowej Jadwigi 103","","","16 648 74 49","","7.30; 10.30","","","",""
"Narodzenia NMP","37-705","PRZEMYŚL","37-705 PRZEMYŚL, Jaksmanice 96 b","","","16 678 04 23","","8.00; 11.00","","","",""
"bł. Jadwigi","38-600","LESKO","38-600 LESKO, Jankowce 117","","","13 469 85 80","","","","","",""
"Chrystusa Króla","37-500","JAROSŁAW","37-500 JAROSŁAW, ul. 3 Maja 49","","","16 621 27 03","","8.00; 9.30; 11.00; 12.15; 16.00; 18.00","","","",""
"Miłosierdzia Bożego","37-500","JAROSŁAW","37-500 JAROSŁAW, ul. Grottgera 1","","","16 621 45 13","","8.00; 9.30; 11.00; 14.00; 18.00","","","",""
"NMP Królowej Polski","37-500","JAROSŁAW","37-500 JAROSŁAW, ul. 3 Maja 12","","","16 621 62 56","","6.45; 8.00; 9.30; 11.00; 12.15. 16.00; 18.00","","","",""
"św. Teresy od Dzieciątka Jezus","37-500","JAROSŁAW","37-500 JAROSŁAW, ul. Dolnoleżajska 65","","","16 621 63 25","","7.15; 10.00; 12.00","","","",""
"Bożego Ciała","37-500","JAROSŁAW","37-500 JAROSŁAW, Plac ks. Piotra Skargi 2","","","16 621 24 60","","6.30; 8.00; 9.30; 11.00; 12.30; 16.00; 18.00; 20.00","","","",""
"Matki Bożej Bolesnej","37-500","JAROSŁAW","37-500 JAROSŁAW, ul. Dominikańska 25","","","16 624 55 25","","6.30; 8.00; 9.30; 11.00; 12.30; 14.00; 18.00; 19.15","","","",""
"Trójcy Przenajświętszej","37-500","JAROSŁAW","37-500 JAROSŁAW, ul. Jana Pawła II 16","","","16 621 22 45","","6.00; 7.30; 9.00; 10.30; 12.00; 15.00; 17.30; 19.00","","","",""
"Ducha Świętego","37-500","JAROSŁAW","37-500 JAROSŁAW, ul. Sienkiewicza 1","","","16 623 21 14","","6.30; 8.00; 9.30; 18.00","","","",""
"św. Stanisława","37-500","JAROSŁAW","37-500 JAROSŁAW, ul. Benedyktyńska 5","","","16 621 52 24","","7.30; 10.00; 11.30; 17.00","","","",""
"Najświętszego Serca Pana Jezusa","37-500","JAROSŁAW","37-500 JAROSŁAW, ul. Łazy Kostkowskie 10","","","16 621 35 26","","7.30; 11.00","","","",""
"św. Brata Alberta","37-500","JAROSŁAW","37-500 JAROSŁAW, Zamojska 6","","","16 621 29 58","","8.00; 11.00","","","",""
"Niepokalanego Poczęcia NMP","36-220","JASIENICA","36-220 JASIENICA, Jasienica Rosielna 37","","","13 430 60 14","","7.30; 10.30; 15.30","","","",""
"Wniebowzięcia NMP","38-450","DUKLA","38-450 DUKLA, Jasionka 40 a","","","13 433 56 50","","7.00; 9.00; 11.00","","","",""
"św. Katarzyny","36-211","JASIONÓW","36-211 JASIONÓW, Jasionów 24","","","13 439 30 08","","7.30; 10.30; 16.00","","","",""
"św. Andrzeja","37-232","JAWORNIK POLSKI","37-232 JAWORNIK POLSKI, Jawornik Polski 13","","","16 651 40 27","","7.30; 9.30; 11.00; 15.00","","","",""
"Wniebowzięcia NMP","37-530","ZARSZYN","37-530 ZARSZYN, Jaćmierz 65","","","13 467 13 16","","7.30; 11.00; 16.00","","","",""
"św. Katarzyny Aleksandryjskiej","38-485","JAŚLISKA","38-485 JAŚLISKA, Jaśliska 20","","","13 431 02 17","","8.00; 11.00; 16.00","","","",""
"św. Antoniego","38-460","JEDLICZE","38-460 JEDLICZE, ul. Wł. Dubisa 3","","","13 435 20 27","","","","","",""
"św. Franciszka z Asyżu","37-310","NOWA SARZYNA","37-310 NOWA SARZYNA, Jelna 85 A","","","17 241 34 27","","8.00; 11.00; 18.00 (zima 17.00)","","","",""
"Matki Bożej Pocieszenia","37-564","JODŁÓWKA","37-564 JODŁÓWKA, Jodłówka 307","","","16 628 83 06","","7.00; 9.00; 11.00; 17.00 (w okresie zimowym 16.00)","","","",""
"św. Piotra i Pawła","38-500","SANOK","38-500 SANOK, Jurowce 6","","","13 462 64 07","","8.00; 10.30","","","",""
"św. Andrzeja","37-724","KALNIKÓW","37-724 KALNIKÓW, Kalników 178","","","16 671 42 04","","7.00; 11.00","","","",""
"Znalezienia Krzyża Świętego","37-743","NOWOSIÓŁKI","37-743 NOWOSIÓŁKI, Kalwaria Pacławska 40","","","16 671 95 44","","7.30; 9.30;11.00; 16.00; 18.00","","","",""
"św. Piotra i Pawła","37-716","ORŁY","37-716 ORŁY, Kaszyce 139","","","16 672 23 19","","8.00; 11.00","","","",""
"św. Michała Archanioła","37-220","KAŃCZUGA","37-220 KAŃCZUGA, ul. Szkolna 1","","","16 642 38 01","","7.30; 9.30; 11.00; 17.00 (zima 16.00)","","","",""
"św. Michała Archanioła","38-480","RYMANÓW","38-480 RYMANÓW, Klimkówka, ul. Zdrojowa 301","","","13 435 57 83","","7.30; 9.15; 11.00; 15.30","","","",""
"Narodzenia NMP","38-462","KOBYLANY","38-462 KOBYLANY, Kobylany 60","","","13 431 48 41","","7.00; 11.30; 16.00","","","",""
"św. Stanisława","37-303","KURYŁÓWKA","37-303 KURYŁÓWKA, Kolonia Polska 2","","","17 242 91 17","","7.30; 11.00","","","",""
"św. Józefa","38-543","KOMAŃCZA","38-543 KOMAŃCZA, Komańcza 88","","","13 467 70 81","","7.00; 11.00","","","",""
"Matki Bozej Pocieszenia","38-420","KORCZYNA","38-420 KORCZYNA, Kombornia 59","","","13 435 48 10","","","","","",""
"św. Maksymiliana Kolbego","38-459","KOPYTOWA","38-459 KOPYTOWA, Kopytowa 304","","","13 431 41 50","","8.00; 11.00; 16.00 (w okresie świąt Bożego Narodzenia i Wielkanocy 8.00; 10.00; 11.30; 16.00)","","","",""
"św. Jakuba","37-552","MŁYNY","37-552 MŁYNY, Korczowa 53","","","16 628 44 22","","7.30; 12.00","","","",""
"NMP Królowej Polski","38-420","KORCZYNA","38-420 KORCZYNA, ul. św. J. S. Pelczara 11","","","13 435 40 19","","7.30; 9.00; 11.00; 16.00","","","",""
"Narodzenia NMP","37-734","FREDROPOL","37-734 FREDROPOL, Kormanice 134","","","16 671 98 81","","7.00; 10.00","","","",""
"NMP Różańcowej","37-114","BIAŁOBRZEGI","37-114 BIAŁOBRZEGI, Korniaktów Południowy 2 B","","","17 224 50 00","","9.00; 11.00","","","",""
"Matki Bożej Bolesnej","37-713","MAĆKOWICE","37-713 MAĆKOWICE, Kosienice 99","","","16 672 24 41","","7.30; 11.00","","","",""
"św. Stanisława","37-112","KOSINA","37-112 KOSINA, Kosina 1017","","","725 112 119","","7.00; 9.00; 11.00; 16.00","","","",""
"Narodzenia NMP","38-508","JUROWCE","38-508 JUROWCE, Strachocina 7","","","13 462 60 58","","","","","",""
"Przemienienia Pańskiego","36-204","DYDNIA","36-204 DYDNIA, Końskie 38","","","600 699 204","","7.30; 11.00","","","",""
"św. Mikołaja","37-124","KRACZKOWA","37-124 KRACZKOWA, Kraczkowa 216","","","17 226 67 00","","7.30; 9.00; 11.00; 17.00","","","",""
"św. Klemensa","37-560","PRUCHNIK","37-560 PRUCHNIK, Kramarzówka 176","","","16 628 80 05","","7.30; 11.00","","","",""
"św. Marcina","37-741","KRASICZYN","37-741 KRASICZYN, Krasiczyn 181","","","16 671 84 14","","8.00; 11.00; 17.00","","","",""
"św. Judy Tadeusza","37-534","ADAMÓWKA","37-534 ADAMÓWKA, Krasne k. Sieniawy 31","","","16 622 91 28","","7.30; 11.00","","","",""
"św. Piotra i Jana z Dukli","38-400","KROSNO","38-400 KROSNO, ul. Kard. Wyszyńskiego 30","","","13 432 01 80","","6.45; 8.00; 10.00; 11.30; 16.00; 18.00","","","",""
"św. Wojciecha i Matki Bożej Częstochowskiej","38-400","KROSNO","38-400 KROSNO, ul. Zielona 10d","","","13 493 04 62","","7.30; 9.00; 11.00; 17.00","","","",""
"Miłosierdzia Bożego","38-400","KROSNO","38-400 KROSNO, ul. Moniuszki 72","","","13 436 23 56","","7.30; 9.00; 10.30; 12.00; 18.30 (zima 17.30)","","","",""
"Ducha Świętego","38-400","KROSNO","38-400 KROSNO, ul. Wieniawskiego 22","","","13 436 64 81","","7.00; 8.30; 10.00; 11.30; 13.00; 18.00; 1 niedziela miesiaca - grupa różańcowa (15.00); 2 niedziela miesiąca - dzieci pierwszokomunijne z rodzicami (15.00); 3 niedziela miesiąca - dzieci niepełnosprawne z rodzicami i opiekunami (15.00)","","","",""
"Nawiedzenia NMP","38-400","KROSNO","38-400 KROSNO, ul. Franciszkańska 5","","","13 436 80 88","","6.45; 8.00; 9.30; 11.00; 12.30; 15.00; 17.00","","","",""
"Podwyższenia Krzyża Świętego","38-400","KROSNO","38-400 KROSNO, Plac Konstytucji 3 Maja 2","","","13 436 54 10","","6.00; 7.30; 9.00; 10.30; 12.00; 13.30; 18.30; 20.00","","","",""
"NMP Królowej Polski","38-401","KROSNO","38-401 KROSNO, ul. ks. Decowskiego 2","","","13 436 80 32","","7.00; 8.30; 10.00; 11.30; 17.00","","","",""
"Najświętszego Serca Pana Jezusa","38-400","KROSNO","38-400 KROSNO, ul. Wyspiańskiego 27","","","13 436 55 08","","7.30; 9.30; 11.30; 17.00","","","",""
"Trójcy Przenajświętszej","38-400","KROSNO","38-400 KROSNO, ul. Piłsudskiego 5","","","13 432 05 65","","6.30; 7.30; 9.00; 10.30; 12.00; 15.30; 18.00","","","",""
"Narodzenia NMP","38-700","USTRZYKI DOLNE","38-700 USTRZYKI DOLNE, Krościenko 173","","","13 461 24 25","","8.00; 11.00","","","",""
"św. Marcina","38-422","KROŚCIENKO WYŻNE","38-422 KROŚCIENKO WYŻNE, ul. Brzozowska 1","","","13 431 50 15","","7.30; 9.00; 11.00; 16.00","","","",""
"św. Andrzeja Boboli","37-220","KAŃCZUGA","37-220 KAŃCZUGA, Krzeczowice 91","","","16 642 39 22","","8.00; 10.30","","","",""
"Matki Bożej Pocieszenia","37-127","KRZEMIENICA","37-127 KRZEMIENICA, Krzemienica 685","","","17 224 77 66","","7.30; 9.00; 10.30; 17.00","","","",""
"Narodzenia NMP","37-755","KRZYWCZA","37-755 KRZYWCZA, Krzywcza 1","","","16 671 14 25","","8.00; 11.00; 16.00","","","",""
"Narodzenia NMP","38-481","RYMANÓW ZDRÓJ","38-481 RYMANÓW ZDRÓJ, Królik Polski, ul. Bieszczadzka 129","","","13 435 73 08","","8.15; 11.15","","","",""
"Matki Bożej Częstochowskiej","37-700","PRZEMYŚL","37-700 PRZEMYŚL, Krówniki 16","","","16 678 03 81","","","","","",""
"Matki Bożej Częstochowskiej","37-700","PRZEMYŚL","37-700 PRZEMYŚL, Kuńkowce 147","","","16 671 00 38","","7.30; 11.00","","","",""
"Matki Bożej Nieustającej Pomocy","37-740","BIRCZA","37-740 BIRCZA, Kuźmina 115","","","16 672 54 40","","7.30; 11.30","","","",""
"Matki Bożej Szkaplerznej","36-030","BŁAŻOWA","36-030 BŁAŻOWA, Kąkolówka 465","","","17 229 77 73","","7.30; 10.30","","","",""
"św. Zofii i św. Szczepana","37-543","LASZKI","37-543 LASZKI, Laszki 173","","","16 628 50 40","","8.00; 11.00; 15.00","","","",""
"Najświętszego Serca Pana Jezusa","36-030","BŁAŻOWA","36-030 BŁAŻOWA, Lecka 232","","","17 229 00 55","","8.00; 10.30","","","",""
"Nawiedzenia NMP","38-600","LESKO","38-600 LESKO, ul. Kościuszki 10","","","13 469 65 33","","7.00; 8.30; 10.00; 11.30; 13.00 (z wyjątkiem wakacji); 18.00","","","",""
"Narodzenia św. Jana Chrzciciela","37-740","BIRCZA","37-740 BIRCZA, Leszczawa 33","","","16 672 54 16","","8.00; 11.30","","","",""
"Niepokalanego Poczęcia NMP","37-723","STUBNO","37-723 STUBNO, Leszno 173","","","16 671 52 17","","7.30; 11.30","","","",""
"Zwiastowania Pańskiego","37-300","LEŻAJSK","37-300 LEŻAJSK, Plac Mariacki 8","","","17 242 00 06","","6.00; 8.00; 9.30; 11.00; 13.00; 15.30; 18.00","","","",""
"Świętej Trójcy","37-300","LEŻAJSK","37-300 LEŻAJSK, Rynek 35","","","17 242 63 00","","7.00; 8.30; 10.00; 11.30; 16.00; 18.00","","","",""
"Wniebowstąpienia Pańskiego","37-740","BIRCZA","37-740 BIRCZA, Lipa 36","","","16 672 53 68","","11.30.00","","","",""
"św. Stanisława","38-440","IWONICZ ZDRÓJ","38-440 IWONICZ ZDRÓJ, Lubatowa 292","","","13 425 10 04","","7.30; 10.30; 17.00","","","",""
"NMP Matki Kościoła","38-440","IWONICZ ZDRÓJ","38-440 IWONICZ ZDRÓJ, Lubatówka 92F","","","13 435 12 06","","8.30; 11.00; 15.00","","","",""
"św. Stanisława","38-713","LUTOWISKA","38-713 LUTOWISKA, Lutowiska 85","","","13 461 03 40","","7.30; 11.00","","","",""
"św. Michała Archanioła","37-100","ŁAŃCUT","37-100 ŁAŃCUT, Górne 1","","","725 999 535","","7.30; 10.00; 12.00; 19.00","","","",""
"Chrystusa Króla","37-100","ŁAŃCUT","37-100 ŁAŃCUT, ul. Skotnik 19","","","17 225 32 74","","8.00; 9.30; 11.00; 18.00","","","",""
"św. Stanisława","37-100","ŁAŃCUT","37-100 ŁAŃCUT, ul. Farna 20","","","17 225 28 73","","6.30; 8.00; 9.30; 11.00; 13.00; 18.00","","","",""
"św. Józefa","37-100","ŁAŃCUT","37-100 ŁAŃCUT, ul. Dąbrowskiego 11","","","17 225 40 55","","8.00; 9.30; 11.00; 18.00","","","",""
"Najświętszego Serca Pana Jezusa","38-700","USTRZYKI DOLNE","38-700 USTRZYKI DOLNE, Łobozew 14","","","13 461 48 46","","8.00; 11.00","","","",""
"Najświętszego Serca Pana Jezusa","37-220 ","KAŃCZUGA","37-220  KAŃCZUGA, Łopuszka Mała 64","","","16 642 47 60","","8.00; 10.30","","","",""
"NMP Królowej Polski","37-222","KAŃCZUGA","37-222 KAŃCZUGA, Łopuszka Wielka 28","","","16 642 49 33","","7.15; 9.00; 11.00","","","",""
"św. Jana Chrzciciela i św. Marcina","37-554","ŁOWCE","37-554 ŁOWCE, Łowce 100","","","16 622 28 42","","7.30; 9.00; 11.00","","","",""
"św. Szymona i Judy Tadeusza","38-204","TARNOWIEC","38-204 TARNOWIEC, Łubienko 34","","","13 442 30 43","","8.00; 10.30","","","",""
"św. Jana Chrzciciela","36-065","DYNÓW","36-065 DYNÓW, Łubno 90","","","16 652 10 34","","7.30; 11.00","","","",""
"Chrystusa Króla i NMP Królowej","38-204","TARNOWIEC","38-204 TARNOWIEC, Łubno Opace 5","","","13 438 09 58","","7.30; 10.30; 16.00","","","",""
"NMP Królowej Polski","38-516","TARNAWA DOLNA","38-516 TARNAWA DOLNA, Łukowe 77","","","13 466 20 78","","7.30; 11.00","","","",""
"Najświętszego Serca Pana Jezusa","38-450","DUKLA","38-450 DUKLA, Łęki Dukielskie 45","","","13 431 75 52","","8.00; 10.00; 16.00","","","",""
"Matki Bożej Częstochowskiej","38-423","TARGOWISKA","38-423 TARGOWISKA, Łężany, ul. Jana Pawła II 21","","","13 435 37 10","","8.00; 10.00; 15.00","","","",""
"św. Mikołaja","37-534","ADAMÓWKA","37-534 ADAMÓWKA, Majdan Sieniawski 196","","","16 622 91 09","","7.30; 11.00; 16.00","","","",""
"Trójcy Przenajświętszej","37-500","JAROSŁAW","37-500 JAROSŁAW, Makowisko 126","","","16 622 48 86","","8.30; 11.00","","","",""
"Najświętszego Serca Pana Jezusa","36-213","HACZÓW","36-213 HACZÓW, Malinówka 77","","","13 439 14 14","","8.00; 10.30","","","",""
"św. Katarzyny","37-230","MANASTERZ","37-230 MANASTERZ, Manasterz 84","","","16 651 51 54","","8.30; 10.30","","","",""
"Matki Bozej Pocieszenia","37-522","WIĄZOWNICA","37-522 WIĄZOWNICA, Manasterz k. Wiązownicy 56","","","16 622 31 37","","","","","",""
"św. Doroty","37-120","MARKOWA","37-120 MARKOWA, Markowa 1429","","","17 226 53 82","","7.00; 9.00; 11.00; 15.00","","","",""
"Matki Bożej Nieustającej Pomocy","37-713","MAĆKOWICE","37-713 MAĆKOWICE, Maćkowice 185","","","16 671 70 84","","7.30; 11.30","","","",""
"Nawiedzenia NMP","36-213","ORŁY","36-213 ORŁY, Małkowice 64","","","16 671 24 29","","8.00; 11.00","","","",""
"Podwyższenia Krzyża Świętego","38-606","BALIGRÓD","38-606 BALIGRÓD, Mchawa 114","","","601 096 002","","8.00; 11.30","","","",""
"św. Piotra i Pawła","37-732","MEDYKA","37-732 MEDYKA, Medyka 232","","","16 671 53 66","","7.30; 11.00; 17.00","","","",""
"św. Michała Archanioła","37-550","DUŃKOWICE","37-550 DUŃKOWICE, Michałówka 13","","","16 628 19 33","","7.30; 11.00","","","",""
"Nawiedzenia NMP","38-430","MIEJSCE PIASTOWE","38-430 MIEJSCE PIASTOWE, ul. Dukielska 27","","","13 435 30 82","","7.00; 9.30; 11.00; 18.00","","","",""
"Niepokalanego Serca NMP","38-483","WRÓBLIK SZLACHECKI","38-483 WRÓBLIK SZLACHECKI, Szkolna 3","","","13 435 81 26","","8.00; 10.30","","","",""
"św. Judy Tadeusza","37-200","PRZEWORSK","37-200 PRZEWORSK, Mirocin 55","","","16 648 81 78","","8.00; 11.30; 17.00","","","",""
"Matki Bożej Śnieżnej","37-543","LASZKI","37-543 LASZKI, Miękisz Nowy 103","","","16 628 50 89","","7.30; 11.00","","","",""
"Matki Bożej Częstochowskiej","37-543","LASZKI","37-543 LASZKI, Miękisz Stary 119","","","16 628 51 31","","8.00; 11.00","","","",""
"Niepokalanego Serca NMP","37-514","MUNINA","37-514 MUNINA, Morawsko 254","","","16 621 63 17","","8.00; 11.00","","","",""
"św. Wincentego a Paulo","37-543","LASZKI","37-543 LASZKI, Moszczany 1","","","16 628 33 70","","8.00; 10.30","","","",""
"Niepokalanego Serca NMP","37-523","RADAWA","37-523 RADAWA, Mołodycz 40","","","16 622 30 14","","11.00.00","","","",""
"Rozesłania Apostołów","38-503","MRZYGŁÓD","38-503 MRZYGŁÓD, Mrzygłód 93","","","13 462 72 05","","7.30; 11.00","","","",""
"św. Józefa","37-514","MUNINA","37-514 MUNINA, Szkolna 1","","","16 623 12 77","","niedziele. 8.00; 10.30; 16.00","","","",""
"Matki Bożej Częstochowskiej","38-623","UHERCE MINERALNE","38-623 UHERCE MINERALNE, Myczkowce 114","","","13 469 18 65","","7.30; 11.00","","","",""
"Matki Bożej Nieustającej Pomocy","38-610","POLAŃCZYK","38-610 POLAŃCZYK, Myczków 47","","","13 469 20 68","","7.30; 11.00; 15.00","","","",""
"Niepokalanego Poczęcia NMP","37-733","PIKULICE","37-733 PIKULICE, Nehrybka 94","","","16 678 76 21","","8.00; 10.30; 15.00","","","",""
"św. Mikołaja","38-500","SANOK","38-500 SANOK, Niebieszczany 154A","","","13 467 58 99","","8.00; 10.30; 15.00","","","",""
"św. Jana Kantego","36-200","BRZOZÓW","36-200 BRZOZÓW, Niebocko 152","","","13 439 55 61","","8.00; 10.30; 16.00","","","",""
"Matki Bożej Nieustającej Pomocy","37-750","DUBIECKO","37-750 DUBIECKO, Nienadowa 369","","","16 651 14 30","","8.00; 11.00","","","",""
"Najświętszego Serca Pana Jezusa","37-750","DUBIECKO","37-750 DUBIECKO, Nienadowa 165","","","16 651 22 90","","7.30; 11.00","","","",""
"św. Józefa","37-550","RADYMNO","37-550 RADYMNO, Nienowice 33","","","16 628 33 29","","7.30; 11.00","","","",""
"Matki Bożej Nieustającej Pomocy","37-716","ORŁY","37-716 ORŁY, Niziny 193","","","16 671 27 57","","7.30; 10.30; 14.00","","","",""
"NMP Królowej Polski","37-310","NOWA SARZYNA","37-310 NOWA SARZYNA, ul. Kościuszki 19","","","17 241 35 86","","7.00; 9.00; 11.00; 16.30","","","",""
"NMP Nieustającej Pomocy","38-530","ZARSZYN","38-530 ZARSZYN, Nowosielce 16","","","13 467 20 06","","8.00; 10.30","","","",""
"św. Marii Magdaleny","37-200","PRZEWORSK","37-200 PRZEWORSK, Nowosielce 67","","","16 640 41 06","","7.30; 10.30; 15.00","","","",""
"św. Mikołaja","38-505","BUKOWSKO","38-505 BUKOWSKO, Nowotaniec 46","","","13 466 41 52","","8.00; 11.15; 15.00","","","",""
"św. Józefa","38-540","Zagórz","38-540 Zagórz, Nowy Zagórz, ul. Krucza 110","","","13 462 20 09","","7.30; 10.30; 18.00","","","",""
"św. Piotra i Pawła","38-543","KOMAŃCZA","38-543 KOMAŃCZA, Nowy Łupków 21","","","13 467 72 42","","7.30; 12.00","","","",""
"św. Stanisława","36-245","NOZDRZEC","36-245 NOZDRZEC, Nozdrzec 72","","","13 439 80 05","","8.00; 11.00 16.00","","","",""
"św. Jana Chrzciciela","38-530","ZARSZYN","38-530 ZARSZYN, ul. Jana 2","","","13 467 00 78","","7.30; 10.00","","","",""
"św. Katarzyny","38-406","ODRZYKOŃ","38-406 ODRZYKOŃ, Odrzykoń, ul. Jana Pawła 28","","","13 431 17 70","","7.30; 9.30; 11.00; 16.00","","","",""
"Matki Bożej Pocieszenia","38-722","OLSZANICA","38-722 OLSZANICA, Olszanica 203","","","13 461 76 30","","7.30; 10.30","","","",""
"Narodzenia NMP","37-741","KRASICZYN","37-741 KRASICZYN, Olszany 31a","","","16 671 84 46","","11.00","","","",""
"Matki Bożej Różańcowej","37-712","ORZECHOWCE","37-712 ORZECHOWCE, Orzechowce 86","","","16 671 77 27","","7.00; 11.00","","","",""
"św. Rodziny","36-220","JASIENICA ROSIELNA","36-220 JASIENICA ROSIELNA, Orzechówka 27","","","13 430 61 61","","7.30; 10.30","","","",""
"NMP Matki Kościoła","37-716","ORŁY","37-716 ORŁY, Orły, ul. Jana Pawła II 10","","","16 672 46 00","","7.30; 11.30; (od października do czerwca. 16.00)","","","",""
"św. Marii Magdaleny","37-700","PRZEMYŚL","37-700 PRZEMYŚL, Ostrów 105","","","16 671 05 89","","7.30 10.30; 17.00","","","",""
"św. Fabiana i Sebastiana","37-207","GAĆ","37-207 GAĆ, Ostrów k. Przeworska 77","","","16 641 14 94","","8.00; 11.00; 16.30","","","",""
"Matki Bożej Królowej Polski","37-550","RADYMNO","37-550 RADYMNO, Ostrów 131","","","16 628 12 94","","8.00; 11.00; 17.00 (zima 16.00)","","","",""
"św. Jana Chrzciciela","38-507","JUROWCE","38-507 JUROWCE, Pakoszówka 181","","","13 462 61 58","","","","","",""
"Niepokalanego Pocz. NMP","37-224","PANTALOWICE","37-224 PANTALOWICE, Pantalowice 146","","","16 642 38 77","","","","","",""
"Niepokalanego Serca NMP","37-500","JAROSŁAW","37-500 JAROSŁAW, Pawłosiów 317","","","16 621 39 97","","8.00; 10.30; 15.00","","","",""
"NMP Królowej Polski","37-511","WÓLKA PEŁKIŃSKA","37-511 WÓLKA PEŁKIŃSKA, Pełkinie 178","","","16 622 40 16","","7.30; 10.30; 16.00","","","",""
"Matki Bożej Nieustającej Pomocy","37-500","JAROSŁAW","37-500 JAROSŁAW, Pełkinie 305","","","16 622 40 74","","8.00; 11.00","","","",""
"Ofiarowania NMP","37-205","ZARZECZE","37-205 ZARZECZE, Pełnatycze 203","","","16 640 18 35","","7.00; 9.00; 11.00","","","",""
"Matki Bożej Wspomożenia Wiernych","38-530","ZARSZYN","38-530 ZARSZYN, Pielnia 187","","","13 467 25 39","","8.00; 10.30","","","",""
"Najświętszego Serca Pana Jezusa","37-733","PIKULICE","37-733 PIKULICE, Pikulice 31","","","16 678 20 32","","8.00; 11.00; 18.00 (okres zimowy. 17.00)","","","",""
"NMP Królowej Polski","38-533","NOWOSIELCE GNIEWOSZ","38-533 NOWOSIELCE GNIEWOSZ, Pisarowce 200","","","13 467 21 60","","8.00; 10.30","","","",""
"św. Karola Boromeusza","37-300","LEŻAJSK","37-300 LEŻAJSK, Piskorowice 123","","","17 242 91 28","","8.00; 11.00; 16.00","","","",""
"Matki Bożej Częstochowskiej","37-522","WIĄZOWNICA","37-522 WIĄZOWNICA, Piwoda 217","","","16 622 39 29","","8.00; 11.00; okresowo w Wielkim Poście, w maju i październiku 15.30","","","",""
"NMP Królowej Polski","36-030","BŁAŻOWA","36-030 BŁAŻOWA, Piątkowa 437","","","17 229 74 97","","7.30; 10.00","","","",""
"Przemienienia Pańskiego","38-709","POLANA","38-709 POLANA, Polana 26 A","","","13 493 95 95","","8.00; 11.00 (wakacje Chrewt 15.00)","","","",""
"NMP Królowej Polski","38-610","POLAŃCZYK","38-610 POLAŃCZYK, ul. ks. Stopy 3","","","13 469 20 06","","9.30; 11.00; 16.00 (wakacje 8.00; 9.30; 11.00; 19.00)","","","",""
"Matki Bożej Gromnicznej","38-540","Zagórz","38-540 Zagórz, Poraż 192","","","13 462 81 22","","7.30; 9.00; 11.00","","","",""
"św. Andrzeja Boboli","38-404","KROSNO","38-404 KROSNO, Potok 413","","","13 436 01 22","","8.00; 10.30; 17.00","","","",""
"Matki Bożej Zbaraskiej","37-700","PRZEMYŚL","37-700 PRZEMYŚL, Prałkowce 240","","","506 054 096","","8.00; 10.30; 18.00","","","",""
"św. Mikołaja","37-560","PRUCHNIK","37-560 PRUCHNIK, ul. Kościelna 8","","","16 628 80 38","","7.00; 9.00; 11.00; 16.00","","","",""
"NMP Królowej Polski","38-500","SANOK","38-500 SANOK, Prusiek 130","","","13 467 53 50","","8.30; 11.30","","","",""
"św. Jana z Dukli","37-700","PRZEMYŚL","37-700 PRZEMYŚL, ul. Zaciszna 11","","","16 676 97 60","","7.30; 9.00; 10.30; 12.00; 17.00","","","",""
"św. Józefa Sebastiana Pelczara","37-700","PRZEMYŚL","37-700 PRZEMYŚL, ul. B. Chrobrego 64","","","16 670 15 22","","9.00; 11.00","","","",""
"św. Brata Alberta","37-700","PRZEMYŚL","37-700 PRZEMYŚL, ul. św. Brata Alberta 6","","","16 677 94 20","","8.00; 10.00; 11.30; 15.30; 18.00","","","",""
"Świętej Trójcy","37-700","PRZEMYŚL","37-700 PRZEMYŚL, Plac Konstytucji 8","","","16 679 03 34","","7.00; 8.30; 10. 11.30; 15.00; 18.00","","","",""
"św. Jana Chrzciciela","37-700","PRZEMYŚL","37-700 PRZEMYŚL, ul. Zamkowa 3","","","16 678 27 66","","7.00; 8.30; 10.00; 11.30; 15.30; 18.00","","","",""
"NMP Nieustającej Pomocy","37-700","PRZEMYŚL","37-700 PRZEMYŚL, ul. Zielińskiego 23","","","16 675 06 70","","7.00; 8.30; 10.00; 11.30; 13.00 (z wyjątkiem lipca i sierpnia); 15.00; 18.00","","","",""
"św. Stanisława","37-700","PRZEMYŚL","37-700 PRZEMYŚL, ul. Z. Chrzanowskiej 11","","","16 670 17 10","","8.30; 11.30; 17.00","","","",""
"św. Marii Magdaleny","37-700","PRZEMYŚL","37-700 PRZEMYŚL, ul. Franciszkańska 2 a","","","16 678 24 60","","7.00; 8.30; 10.00; 11.15; 12.30; 18.30","","","",""
"Najświętszego Serca Pana Jezusa","37-700","PRZEMYŚL","37-700 PRZEMYŚL, ul. Karmelicka 1","","","16 678 60 14","","7.00; 10.00; 11.30; 17.00; 19.00","","","",""
"św. Antoniego z Padwy","37-700","PRZEMYŚL","37-700 PRZEMYŚL, ul. Jagiellońska 2","","","16 678 57 40","","6.00; 7.30; 9.00; 10.30; 11.45; 13.30; 15.00; 19.00","","","",""
"św. Jana","37-700","PRZEMYŚL","37-700 PRZEMYŚL, ul. Przejazdowa 11","","","16 670 70 50","","","","","",""
"św. Michała Archanioła ","37-700","PRZEMYŚL","37-700 PRZEMYŚL, ul. Bakończycka 5","","","607 784 404","","9.00; 11.00","","","",""
"Bożego Miłosierdzia","37-700","PRZEMYŚL","37-700 PRZEMYŚL, ul. Bielskiego 78","","","16 679 03 66","","7.30; 9.30; 11.00; 12.30; 15.45; 18.00","","","",""
"św. Józefa","37-700","PRZEMYŚL","37-700 PRZEMYŚL, ul. św. Jana Nepomucena 3","","","16 670 25 25","","7.00; 8.30; 10.00; 11.30; 13.00; 16.00; 18.00","","","",""
"św. Benedykta, Cyryla i Metodego","37-700","PRZEMYŚL","37-700 PRZEMYŚL, ul. Opalińskiego 7","","","16 670 73 12","","6.30; 8.00; 9.30; 10.45; 12.00; 18.00","","","",""
"Matki Bożej Królowej Polski","37-700","PRZEMYŚL","37-700 PRZEMYŚL, ul. Grunwaldzka 70","","","16 670 66 68","","6.30; 8.00; 9.30; 11.00; 12.15; 18.00","","","",""
"Chrystusa Króla","37-200","PRZEWORSK","37-200 PRZEWORSK, ul. Misiągiewicza 42","","","16 648 40 02","","7.00; 8.30; 10.00; 11.30; 16.00; 18.00","","","",""
"św. Józefa Sebastiana Pelczara ","37-200","PRZEWORSK","37-200 PRZEWORSK, ul. Jedności 7","","","16 648 51 82","","","","","",""
"Ducha Świętego","37-200","PRZEWORSK","37-200 PRZEWORSK, ul. Kościelna 7","","","16 648 70 16","","6.30; 8.00; 9.15; 10.30; 12.00; 15.00; 18.30","","","",""
"św. Barbary","37-200","PRZEWORSK","37-200 PRZEWORSK, ul. Bernardyńska 22","","","16 648 76 20","","6.30; 8.00; 9.30; 11.00; 12.15; 15.30; 18.00","","","",""
"Dobrego Pasterza","37-300","LEŻAJSK","37-300 LEŻAJSK, Przychojec 159/1","","","603,117,110","","7.30; 11.00","","","",""
"św. Marcina","36-200","BRZOZÓW","36-200 BRZOZÓW, Przysietnica 855","","","13 434 90 10","","7.30; 11.00; 16.30","","","",""
"Niepokalanego Serca NMP","38-422","KROŚCIENKO WYŻNE","38-422 KROŚCIENKO WYŻNE, Pustyny, ul. Kościelna 8","","","13 431 60 65","","8.00; 10.00; 15.00","","","",""
"św. Anny","37-523","RADAWA","37-523 RADAWA, Radawa 40","","","16 622 30 18","","8.00; 11.00","","","",""
"św. Wawrzyńca","37-550","RADYMNO","37-550 RADYMNO, ul. Chopina 1","","","16 628 10 59","","7.00; 9.00; 11.00; 17.00","","","",""
"Podwyższenia Krzyża Świętego","37-111","RAKSZAWA","37-111 RAKSZAWA, Rakszawa 350 ","","","16 224 93 50","","7.00; 9.00; 11.00; 16.00","","","",""
"NMP Matki Kościoła","37-111","RAKSZAWA","37-111 RAKSZAWA, Rakszawa Górna 941a","","","694 862 324","","7.30; 10.30","","","",""
"św. Bartłomieja ","38-430","MIEJSCE PIASTOWE","38-430 MIEJSCE PIASTOWE, ul. Kościelna 5","","","13 435 31 90","","8.00; 9.30; 11.00; 17.00","","","",""
"św. Józefa","37-113","ROGÓŻNO","37-113 ROGÓŻNO, Rogóżno 318","","","17 225 05 35","","7.30; 10.30; 15.00","","","",""
"św. Mikołaja i Matki Bożej Częstochowskiej","37-562","ROKIETNICA","37-562 ROKIETNICA, Rokietnica 109","","","16 622 13 96","","7.30; 10.30; 16.00","","","",""
"św. Barbary","38-722","OLSZANICA","38-722 OLSZANICA, Ropienka 21","","","13 460 10 39","","7.30; 10.30","","","",""
"Matki Bożej Fatimskiej","37-200","PRZEWORSK","37-200 PRZEWORSK, Rozbórz 293","","","16 648 18 11","","8.00; 11.00; 16.00","","","",""
"Matki Bożej Szkaplerznej","37-560","PRUCHNIK","37-560 PRUCHNIK, Rozbórz Okrągły 104","","","16 628 81 64","","8.00; 10.30","","","",""
"Matki Bożej Różańcowej","37-733","PIKULICE","37-733 PIKULICE, Rożubowice 13 ","","","16 672 05 58","","8.00; 11.00; 17.00 (maj i październik)","","","",""
"św. Mikołaja","37-565","ROŹWIENICA","37-565 ROŹWIENICA, Rudołowice 196","","","16 622 58 20","","7.30; 11.15","","","",""
"św. Tomasza","37-742","FREDROPOL","37-742 FREDROPOL, Rybotycze 109","","","16 671 93 74","","7.30; 12.00","","","",""
"św. Wawrzyńca","38-480","RYMANÓW","38-480 RYMANÓW, ul. Wola 5","","","13 435 50 57","","7.30; 9.00; 10.30; 12.00; 18.00 (zima 17.00)","","","",""
"św. Stanisława","38-481","RYMANÓW ZDRÓJ","38-481 RYMANÓW ZDRÓJ, ul. Zdrojowa 10","","","13 435 58 99","","7.30; 9.00; 10.30; 16.00","","","",""
"św. Piotra i Pawła","37-544","ZAPAŁÓW","37-544 ZAPAŁÓW, Ryszkowa Wola 80","","","16 628 63 05","","7.30; 11.00","","","",""
"św. Maksymiliana Kolbego","38-542","RZEPEDŹ","38-542 RZEPEDŹ, Rzepedź 61","","","13 467 84 60","","7.30; 10.30; 12.00","","","",""
"św. Mikołaja","38-451","RÓWNE","38-451 RÓWNE, Równe, ul. Długa 4","","","13 433 32 60","","8.00; 11.00; 16.00","","","",""
"Nawiedzenia NMP","37-223","RĄCZYNA","37-223 RĄCZYNA, Rączyna 191A","","","16 642 56 89","","8.00; 10.30","","","",""
"Chrystusa Króla","38-500","SANOK","38-500 SANOK, ul. Jana Pawła II 55","","","13 463 05 94","","7.00; 8.30; 10.00; 11.30; 17.00","","","",""
"św. Maksymiliana Kolbego","38-500","SANOK","38-500 SANOK, ul. Zagrody 10","","","503,357,476","","9.00; 10.30","","","",""
"Narodzenia NMP","38-500","SANOK","38-500 SANOK, Aleja NMP 18","","","13 464 90 02","","7.30; 9.30; 11.00; 18.00","","","",""
"Przemienienia Pańskiego","38-500","SANOK","38-500 SANOK, ul. Grzegorza z Sanoka 5","","","13 463 19 98","","6.30; 8.00; 9.30; 11.00; 12.30; 16.00; 18.00","","","",""
"Wniebowstąpienia Pańskiego","38-500","SANOK","38-500 SANOK, ul. Kółkowa 5","","","13 463 34 04","","7.15; 10.00; 16.30","","","",""
"Podwyższenia Krzyża Świętego","38-500","SANOK","38-500 SANOK, ul. Franciszkańska 7","","","13 463 23 52","","6.45; 8.00; 9.15; 10.30; 12.00; 15.00; 19.00","","","",""
"Najświętszego Serca Pana Jezusa","38-500","SANOK","38-500 SANOK, ul. Lipińskiego 54","","","13 463 23 98","","7.00; 8.30; 10.00; 11.30; 17.00","","","",""
"św. Sebastiana","37-310","NOWA SARZYNA","37-310 NOWA SARZYNA, Sarzyna 375","","","17 241 55 77","","8.00; 10.30; 17.00","","","",""
"św. Piotra i Pawła","37-220","KAŃCZUGA","37-220 KAŃCZUGA, Siedleczka 130","","","16 642 42 83","","8.00; 11.00","","","",""
"NMP Królowej Polski","36-245","NOZDRZEC","36-245 NOZDRZEC, Siedliska 29","","","13 439 80 39","","11.00","","","",""
"Wniebowzięcia NMP","37-530","SIENIAWA","37-530 SIENIAWA, ul. Kościuszki 6","","","16 622 70 22","","7.00; 9.00; 11.00; 16.00","","","",""
"Wszystkich Świętych","37-205","ZARZECZE","37-205 ZARZECZE, Siennów 70","","","16 640 15 76","","8.00; 9.30; 11.00","","","",""
"Trójcy Przenajświętszej","37-743","FREDROPOL","37-743 FREDROPOL, Sierakośce 101","","","783 620 565","","7.30; 11.00","","","",""
"św. Antoniego z Padwy","37-206","SIETESZ","37-206 SIETESZ, Sietesz 126","","","16 642 60 49","","","","","",""
"Miłosierdzia Bożego i Matki Bożej Wspomożenia Wiernych","37-550","RADYMNO","37-550 RADYMNO, Skołoszów, ul. Floriańska 1 ","","","16 628 22 10","","7.30; 10.30; 16.30","","","",""
"św. Stanisława Kostki","37-110","ŻOŁYNIA","37-110 ŻOŁYNIA, Smolarzyny 147","","","17 226 18 60","","8.00; 10.30","","","",""
"św. Jana Chrzciciela","37-100","ŁAŃCUT","37-100 ŁAŃCUT, Sonina 177","","","17 224 15 39","","7.30; 10.00; 14.00","","","",""
"św. Antoniego z Padwy","37-555","SOŚNICA","37-555 SOŚNICA, Sośnica 63","","","13 493 20 04","","7.30; 11.00; 16.30","","","",""
"Wniebowzięcia NMP","36-200","BRZOZÓW","36-200 BRZOZÓW, Stara Wieś 778","","","13 434 11 13","","6.00; 7.30; 9.00; 10.30; 17.00","","","",""
"św. Andrzeja Boboli","37-300","LEŻAJSK","37-300 LEŻAJSK, Stare Miasto 228a","","","17 242 04 34","","8.00; 11.00; 16.00","","","",""
"św. Katarzyny","38-508","JUROWCE","38-508 JUROWCE, Strachocina 1","","","13 462 63 06","","7.00; 10.30; 15.30","","","",""
"Matki Bożej Szkaplerznej","37-723","STUBNO","37-723 STUBNO, Stubno 12","","","16 671 41 28","","7.00; 11.00; 15.00 - Wielki Post, maj i październik","","","",""
"św. Jadwigi Śląskiej","37-740","BIRCZA","37-740 BIRCZA, Sufczyna 59","","","16 672 56 20","","8.00; 11.00","","","",""
"św. Michała Archanioła","37-500","JAROSŁAW","37-500 JAROSŁAW, Surochów 65","","","16 622 47 96","","7.30; 11.30","","","",""
"św. Rafała Kalinowskiego","38-457","SZCZEPAŃCOWA","38-457 SZCZEPAŃCOWA, ul. Kościelna 10","","","13 422 07 12","","7.30; 9.30; 11.00","","","",""
"Nawiedzenia NMP","36-025","HYŻNE","36-025 HYŻNE, Szklary 167","","","17 229 54 15","","8.00; 11.00","","","",""
"Najświętszego Serca Pana Jezusa","37-522","WIĄZOWNICA","37-522 WIĄZOWNICA, Szówsko, ul. Kościelna 16","","","16 623 37 00","","7.15; 9.00; 11.00; 17.00","","","",""
"Narodzenia NMP","38-604","HOCZEW","38-604 HOCZEW, Średnia Wieś 122 a","","","13 469 42 10","","8.00; 11.30; 16.00","","","",""
"Narodzenia NMP","37-555","SOŚNICA","37-555 SOŚNICA, Święte 44","","","16 628 20 67","","8.00; 10.00; 12.00","","","",""
"Matki Bożej Nieustającej Pomocy","37-200","PRZEWORSK","37-200 PRZEWORSK, Świętoniowa 78","","","16 648 77 05","","7.30; 10.30; 15.00","","","",""
"Wspomożenia Wiernych NMP","37-562","ROKIETNICA","37-562 ROKIETNICA, Tapin 10","","","16 622 24 08","","8.00; 11.00","","","",""
"św. Małgorzaty","38-430","MIEJSCE PIASTOWE","38-430 MIEJSCE PIASTOWE, Targowiska, ul. Suchodolskiego 61","","","13 435 32 57","","8.00; 10.30; 16.00","","","",""
"św. Wojciecha","38-516","TARNAWA DOLNA","38-516 TARNAWA DOLNA, Tarnawa Górna 69","","","13 462 06 00","","7.30; 9.00; 12.00","","","",""
"św. Aniołów","37-741","KRASICZYN","37-741 KRASICZYN, Zalesie - kościół","","","696 508 821","","11.00","","","",""
"św. Józefa","37-303","KURYŁÓWKA","37-303 KURYŁÓWKA, Kuryłówka 347","","","17 242 90 74 ","","11.00; 15.00","","","",""
"św. Jana Kantego","37-750","DUBIECKO","37-750 DUBIECKO, Tarnawka 19","","","720 013 791","","7.30; 11.00","","","",""
"Nawiedzenia NMP","37-121","HUSÓW","37-121 HUSÓW, Tarnawka 238","","","17 247 25 92","","8.00; 11.00","","","",""
"św. Stanisława","37-310","NOWA SARZYNA","37-310 NOWA SARZYNA, Tarnogóra 28a","","","17 241 36 43","","8.00; 10.00","","","",""
"Wniebowzięcia NMP","37-732","MEDYKA","37-732 MEDYKA, Torki 24","","","605 252 583","","8.00; 11.00","","","",""
"Wniebowzięcia NMP","38-500","SANOK","38-500 SANOK, Trepcza, ul. Środkowa 41","","","13 464 99 83","","8.00; 11.30","","","",""
"św. Kazimierza","37-204","TRYŃCZA","37-204 TRYŃCZA, Tryńcza 101","","","16 642 12 10","","8.00; 11.00; 16.00","","","",""
"Chrystusa Króla","38-450","DUKLA","38-450 DUKLA, Trzciana, ul. Pocztowa 5","","","13 433 00 61","","08.30 (1 V - 31 X); 9.00 (1 XI - 30 IV)","","","",""
"św. Stanisława","36-212","TRZEŚNIÓW","36-212 TRZEŚNIÓW, Trześniów 147","","","13 439 40 95","","7.30; 9.00; 10.30; 16.00","","","",""
"Nawiedzenia NMP","37-514","MUNINA","37-514 MUNINA, Sportowa 1","","","16 621 77 37","","8.00; 10.30; 16.00","","","",""
"św. Mikołaja","37-562","ROKIETNICA","37-562 ROKIETNICA, Tuligłowy 133","","","16 622 13 84","","7.00; 10.30; 16.00","","","",""
"Miłosierdzia Bożego","36-200","BRZOZÓW","36-200 BRZOZÓW, Turze Pole 238","","","13 434 26 24","","8.00; 10.30","","","",""
"Wniebowzięcia NMP","38-454","TYLAWA","38-454 TYLAWA, Tylawa 69","","","13 433 06 38","","08.00.00","","","",""
"Niepokalanego Poczęcia NMP","37-565","ROŹWIENICA","37-565 ROŹWIENICA, Tyniowice 100","","","16 622 67 03","","7.30; 11.00","","","",""
"św. Mikołaja","38-535","TYRAWA WOŁOSKA","38-535 TYRAWA WOŁOSKA, Tyrawa Wołoska 134","","","13 462 11 54","","7.30; 11.30; 16.30","","","",""
"św. Stanisława Kostki","37-500","JAROSŁAW","37-500 JAROSŁAW, Tywonia 45","","","16 621 90 96","","8.00; 10.30","","","",""
"św. Stanisława","38-623","UHERCE MINERALNE","38-623 UHERCE MINERALNE, Uherce Mineralne 155","","","13 461 80 48","","7.30; 11.00; 16.00","","","",""
"Matki Bożej Królowej Nieba i Ziemi","36-233","WESOŁA","36-233 WESOŁA, Ujazdy 608","","","17 229 03 90","","7.30; 10.30","","","",""
"Matki Bożej Pocieszenia","37-200","PRZEWORSK","37-200 PRZEWORSK, Ujezna 155","","","16 648 70 47","","8.00; 11.00","","","",""
"Matki Bożej Szkaplerznej","37-713","MAĆKOWCE","37-713 MAĆKOWCE, Ujkowice 200","","","504 583 639","","8.00; 11.00; Wielki Post, maj i październik 15.00 ","","","",""
"św. Józefa","36-065","DYNÓW","36-065 DYNÓW, Ulanica 29","","","16 652 37 65","","8.00; 10.30","","","",""
"św. Mikołaja","37-220","PRZEWORSK","37-220 PRZEWORSK, Urzejowice 202","","","16 640 32 25","","7.00; 9.00; 11.00; 15.00","","","",""
"Narodzenia NMP","38-700","USTRZYKI DOLNE","38-700 USTRZYKI DOLNE, Ustjanowa 128","","","13 461 18 19","","7.30; 11.30","","","",""
"św. Józefa","38-700","USTRZYKI DOLNE","38-700 USTRZYKI DOLNE, ul. Gombrowicza 10","","","13 461 38 70","","7.30; 10.00; 11.30; 16.00; 18.00","","","",""
"NMP Królowej Polski","38-700","USTRZYKI DOLNE","38-700 USTRZYKI DOLNE, ul. 29 Listopada 24","","","13 461 19 82","","7.00; 9.00; 10.30; 12.00; 18.00","","","",""
"Matki Bożej Bieszczadzkiej","38-700","USTRZYKI DOLNE","38-700 USTRZYKI DOLNE, ul. Jasień 6","","","13 461 13 09","","8.00, 11.00 18.00 ","","","",""
"św. Anny","38-713","LUTOWISKA","38-713 LUTOWISKA, Ustrzyki Górne 13","","","13 461 06 62","","8.00; 18.00 (wakacje. 7.30, 10.00, 19.00; zima. 8.00, 15.00)","","","",""
"NMP Królowej Polski","37-717","KASZYCE","37-717 KASZYCE, Wacławice 39","","","16 671 20 71","","7.30; 12.00","","","",""
"Najświętszego Serca Pana Jezusa","37-716","ORŁY","37-716 ORŁY, Walawa 63","","","16 671 28 95","","8.00; 11.00","","","",""
"Podwyższenia Krzyża Świętego","36-245","NOZDRZEC","36-245 NOZDRZEC, Wara 252","","","13 439 85 30","","7.30; 11.00","","","",""
"Matki Bożej Różańcowej","38-711","ROPIENKA","38-711 ROPIENKA, Wańkowa 75 A","","","13 460 14 00","","10.30","","","",""
"św. Katarzyny","36-233","WESOŁA","36-233 WESOŁA, Wesoła 80","","","13 439 82 04","","7.30; 11.00; 16.00","","","",""
"Miłosierdzia Bożego","38-608","WETLINA","38-608 WETLINA, Wetlina 40 a","","","13 468 46 05","","8.00; 10.00; 17.00","","","",""
"Niepokalanego Poczęcia NMP","37-627","WIELKIE OCZY","37-627 WIELKIE OCZY, ul. Krzywa 6","","","16 631 01 15","","7.00; 9.00; 11.00; 16.00","","","",""
"Matki Bożej Wspomożenia Wiernych","37-300","LEŻAJSK","37-300 LEŻAJSK, Wierzawice 413","","","17 242 41 88","","7.00; 9.00; 11.00; 16.00","","","",""
"Matki Bożej Nieustającej Pomocy","37-500","JAROSŁAW","37-500 JAROSŁAW, Wierzbna 235","","","16 621 23 08","","7.30; 10.30; 17.00","","","",""
"Narodzenia NMP","37-543","LASZKI","37-543 LASZKI, Wietlin 32","","","16 628 53 27","","7.30; 11.00","","","",""
"św. Michała Archanioła","38-451","RÓWNE","38-451 RÓWNE, Wietrzno 25","","","13 433 30 18","","8.00; 10.30","","","",""
"św. Onufrego","38-543","KOMAŃCZA","38-543 KOMAŃCZA, Wisłok Wielki 66","","","13 466 30 59","","12.00","","","",""
"św. Walentego i Narodzenia NMP","37-522","WIĄZOWNICA","37-522 WIĄZOWNICA, Wiązownica 193","","","16 622 36 96","","7.00; 9.00; 12.00","","","",""
"św. Jerzego i św. Tekli","38-712","WOJTKOWA","38-712 WOJTKOWA, Wojtkowa 50","","","13 461 23 06","","9.30; 15.00","","","",""
"Matki Bożej Różańcowej","37-100","ŁAŃCUT","37-100 ŁAŃCUT, Wola Dalsza 288","","","","","8.00; 11.00; 15.00","","","",""
"Przemienienia Pańskiego","37-311","WOLA ZARCZYCKA","37-311 WOLA ZARCZYCKA, Wola Zarczycka 129","","","17 241 70 05","","7.00; 9.00; 11.00; 16.00","","","",""
"św. Maksymiliana Kolbego","38-610","WOŁKOWYJA","38-610 WOŁKOWYJA, ul. Kościelna 6","","","13 469 25 21","","7.00; 10.30; 18.00","","","",""
"Wszystkich Świętych","38-430","MIEJSCE PIASTOWE","38-430 MIEJSCE PIASTOWE, Wrocanka, ul. Długa 12","","","13 431 15 04","","8.00; 10.30; 17.00","","","",""
"Wniebowzięcia NMP","38-483","WRÓBLIK SZLACHECKI","38-483 WRÓBLIK SZLACHECKI, Wróblik Królewski, ul. Jana Pawła II 17","","","13 435 81 58","","8.00; 11.00","","","",""
"św. Kosmy i Damiana","38-500","SANOK","38-500 SANOK, Wujskie 57","","","13 462 20 14","","8.30; 11.30","","","",""
"św. Małgorzaty","37-100","ŁAŃCUT","37-100 ŁAŃCUT, Wysoka 78","","","17 225 43 60","","7.30; 10.30; 16.00","","","",""
"św. Mikołaja","37-722","WYSZATYCE","37-722 WYSZATYCE, Wyszatyce 165","","","16 671 69 19","","8.15; 11.00; 16.00","","","",""
"Matki Bożej Różańcowej","36-211","JASIONÓW","36-211 JASIONÓW, Wzdów 70","","","13 439 30 35","","7.30; 10.00","","","",""
"św. Maksymiliana Kolbego","37-306","GRODZISKO DOLNE","37-306 GRODZISKO DOLNE, Wólka Grodziska 128a","","","17 243 60 76","","","","","",""
"św. Stanisława","37-511","WÓLKA PEŁKIŃSKA","37-511 WÓLKA PEŁKIŃSKA, Wólka Pełkińska 116","","","16 622 44 12","","8.00; 10.30; 15.00","","","",""
"Narodzenia św. Jana Chrzciciela","37-560","PRUCHNIK","37-560 PRUCHNIK, Węgierka 230","","","16 628 81 70","","7.30; 11.00","","","",""
"Narodzenia NMP","38-420","KORCZYNA","38-420 KORCZYNA, Węglówka 120","","","13 435 44 00","","7.30; 11.30","","","",""
"Wniebowzięcia NMP","38-540","ZAGÓRZ","38-540 ZAGÓRZ, ul. Piłsudskiego 137","","","13 462 20 36","","7.30; 9.00; 11.00; 17.00","","","",""
"NMP Królowej Polski","38-500","SANOK","38-500 SANOK, Zahutyń 48 A","","","13 463 22 31","","7.00; 11.30; 15.00","","","",""
"Matki Bożej Różańcowej","37-550","RADYMNO","37-550 RADYMNO, Zamojsce 27","","","16 628 37 82","","7.30; 11.00","","","",""
"Najświętszego Serca Pana Jezusa","37-544","ZAPAŁÓW","37-544 ZAPAŁÓW, Zapałów 136","","","16 628 60 10","","7.30; 11.00","","","",""
"św. Marcina i Matki Bożej Szkaplerznej","38-530","ZARSZYN","38-530 ZARSZYN, ul. Bieszczadzka 1","","","13 467 10 20","","8.00; 10.30; 12.00; 17.30","","","",""
"św. Michała Archanioła","37-205","ZARZECZE","37-205 ZARZECZE, Zarzecze 3","","","16 640 15 23","","7.00; 9.00; 10.15; 11.30; 15.00","","","",""
"Trójcy Przenajświętszej","36-200","BRZOZÓW","36-200 BRZOZÓW, Zmiennica 181","","","13 439 32 20","","8.00; 10.30","","","",""
"św. Józefa","37-306","GRODZISKO DOLNE","37-306 GRODZISKO DOLNE, Zmysłówka 89a","","","17 242 91 82","","8.00; 10.30; 16.00","","","",""
"św. Stanisław","38-457","ZRĘCIN","38-457 ZRĘCIN, ul. Kościelna 12","","","13 431 80 10","","","","","",""
"św. Józefa","38-460","JEDLICZE","38-460 JEDLICZE, Żarnowiec 65","","","13 435 20 94","","8.30; 11.00; (Wielki Post, maj i październik 16.30)","","","",""
"Matki Bożej Częstochowskiej","38-458","CHORKÓWKA","38-458 CHORKÓWKA, Żeglce 31","","","13 431 30 69","","7.30; 11.00; 16.00","","","",""
"św. Jana Kantego","37-110","ŻOŁYNIA","37-110 ŻOŁYNIA, ul. Mickiewicza 66","","","17 224 30 21","","7.00; 9.00; 11.00; 17.00 (w zimie. 16.00)","","","",""
"Niepokalanego Poczęcia NMP","37-710","ŻURAWICA","37-710 ŻURAWICA, ul. św. Józefa 4","","","16 672 38 10","","7.30; 9.00; 11.00; 15.00; 17.30","","","",""
"św. Andrzeja Boboli","37-710","ŻURAWICA","37-710 ŻURAWICA, ul. Kard. Wyszyńskiego 29","","","16 671 30 27","","8.00; 11.00; 16.00","","","",""
"Matki Bożej Różańcowej","37-200","PRZEWORSK","37-200 PRZEWORSK, Żurawiczki 11","","","16 640 19 72","","8.00; 11.00; 17.00","","","",""
