"name","postal","city","address","www","email","phone","rector","sun","week","fest","latlng","url"
"Dobrego Pasterza","","","Babica 304, 38-120 Czudec","www.parafiababica.pl","","17 277 27 17","Ks. mgr lic. Krzysztof Nogaj","Wielki Post, maj, październik, 8.00; 10.00; 15.00; lato 7.00; 9.00; 11.00;","lato 18.00; zima 17.00","","49.86597592118758,21.8554105421523","http://www.diecezja.rzeszow.pl/2015/04/babica/"
"Nawiedzenia NMP","","","Baryczka 207,, 
38-115 Połomia, tel. 17 277 31 79","o","","17 277 31 79","Ks. mgr Jerzy Gajda","Wlk.Post, maj, październik, 7.30, 10.30, 15.00; , 7.30, 10.30","zima 17.00; lato 18.30","","","http://www.diecezja.rzeszow.pl/2015/04/baryczka-2/"
"Imienia Maryi","","","Bączal Dolny 97, 38-242 Skołyszyn","parafia.baczaldolny.prv.pl","","13 449 31 82","Ks. mgr lic. Krzysztof Wymazała"," 8.30; 11.00; 16.00","zima 17.00; lato 18.00;","","","http://www.diecezja.rzeszow.pl/2015/04/baczal-dolny/"
"Św. Jacka","","","Będziemyśl 174, 39-127 Będziemyśl","","","17 745 58 58","Ks. mgr Ryszard Polański","od II niedz miesiąca, 8.00, 11.00, 16.00; I niedz miesiąca, 8.00, 9.30, 11.00","zima 7.00 lub 17.00; lato 7.00 lub 18.00","","50.0555481,21.780687999999998","http://www.diecezja.rzeszow.pl/2015/05/bedziemysl/"
"Bożego Ciała","","","ul. Kromera 16a, 38-340 Biecz","www.fara.biecz.pl","","13 447 10 17","Ks. dr Władysław Kret","","","","https://www.google.pl/maps?f=q&amp;source=embed&amp;hl=pl&amp;geocode=&amp;q=Biecz,+ul.+Kromera+16+a&amp;aq=&amp;sll=49.606045,21.459713&amp;sspn=0.094112,0.114155&amp;ie=UTF8&amp;hq=&amp;hnear=Kromera+16,+38-340+Biecz&amp;ll=49.730507,21.247729&amp;spn=0.011734,0.014269&amp;t=m&amp;z=14&amp;layer=c&amp;cbll=49.730544,21.2478&amp;panoid=phqeaO1Nt9rKRPyaTsTSWA&amp;cbp=12,255.08,,0,2.71&amp;output=svembed","http://www.diecezja.rzeszow.pl/2015/04/biecz-fara/"
"św. Anny","","","ul. Kazimierza Wlk. 2, 38-340 Biecz","www.biecz.ofm.krakow.pl","biecz.ofm@krakow.pl","13 447 18 44","O.  Tomasz Kupczakiewicz OFM"," 7.00, 8.30, 10.00, 11.30, 16.30"," 7.00, 7.30, 8.00, 18.00","","https://www.google.pl/maps?f=q&amp;source=s_q&amp;hl=pl&amp;geocode=&amp;q=Biecz,+ul.+Kazimierz+Wielkiego+2+ko%C5%9Bci%C3%B3%C5%82&amp;aq=&amp;sll=49.731456,21.254275&amp;sspn=0.011678,0.014269&amp;ie=UTF8&amp;hq=Biecz,+ul.+Kazimierz+Wielkiego+2+ko%C5%9Bci%C3%B3%C5%82&amp;ll=49.731592,21.255867&amp;spn=0.005839,0.007135&amp;t=m&amp;z=14&amp;iwloc=A&amp;cid=826302008963969446&amp;output=embed","http://www.diecezja.rzeszow.pl/2015/04/biecz-sw-anny-2/"
"Świętej Trójcy","","","Bieździedza 51A, 38-214 Bieździedza","","biezdziedza@rzeszow.opoka.org.pl","13 442 66 45","Ks. Władysław Depa"," 7.00, 9.00, 11.00, 18.00 (17.00)"," 7.00, 18.00 (17.00)","","","http://www.diecezja.rzeszow.pl/2015/04/biezdziedza/"
"Św. Michała Archanioła","","","Binarowa 409, 38-340 Biecz","binarowa.wiara.org.pl/","parafia@binarowa.wiara.org.pl","13 447 63 96","Ks. mgr Bogusław Jurczak"," 7.30, 9.00, 11.00, 15.00 (W czasie Wielkiego Postu)"," 7.00 lub 18.00(17.00)","","","http://www.diecezja.rzeszow.pl/2015/04/binarowa/"
"Podwyższenia Krzyża Świętego","","","Blizianka 42, 38-114 Niebylec","www.parafia-blizianka.webd.pl","henma@interia.pl","17 277 31 00","Ks. mgr Henryk Mazur"," 8.00, 10.30","zima 17.00; lato 18.00","","","http://www.diecezja.rzeszow.pl/2015/04/blizianka/"
"Matki Bożej Nieustającej Pomocy","","","Błażkowa 126b, 38-212 Brzyska","","","13 446 01 40","Ks. mgr Władysław Pykosz"," 7.00, 9.00, 11.00","zima, 17,00; wiosna, lato, jesień, 18.00","","","http://www.diecezja.rzeszow.pl/2015/04/blazkowa/"
"Matki Bożej Królowej Polski","","","Błędowa Tyczyńska 42, 36-017 Błędowa Tyczyńska","","","17 229 65 99","Ks. dr Zbigniew Kosik","Wlk. Post, V, VI, X, XI,, 7.30, 10.30, 14.30","zima 17.00; lato 19.00","","49.9599529,22.178396199999998","http://www.diecezja.rzeszow.pl/2015/05/bledowa-tyczynska/"
"Św. Wojciecha","","","Błędowa Zgłobieńska 107, 36-071 Trzciana","","","17 851 43 45","Ks. mgr Mariusz Matuszewski"," 8.30, 10.30"," 18.00 (17.00)","","50.03722630000001,21.838871100000002","http://www.diecezja.rzeszow.pl/2015/05/bledowa-zglobienska/"
"Św. Stanisława Biskupa","","","ul. Tkaczowa 154, 36-040 Boguchwała","parafiaboguchwala.pl","boguchwala@rzeszow.opoka.org.pl","17 871 44 36","Ks. mgr lic. Mariusz Mik","lato 7.00, 9.00; 11.00; 18.00; zima 7.00; 9.00; 11.00; 17.00","zima 6.30; 7.00; 17.00; lato 6.30; 7.00; 18.00","","49.98413010000001,21.935985300000002","http://www.diecezja.rzeszow.pl/2015/04/boguchwala/"
"Najświętszej Maryi Panny Częstochowskiej","","","Borek Wielki 421, 39-120 Sędziszów Młp.","www.parafia.bw.vot.pl","parafia@bw.vot.pl","17 221 69 47","Ks. mgr lic. Jan Pikul"," 9.00; , 7.00, 11.00, 16.00","zima 6.30, 17.00; lato 6.30, 18.00","","50.085292636958286,21.666433722278807","http://www.diecezja.rzeszow.pl/2015/05/borek-wielki/"
"Św. Jana Chrzciciela","","","Bratkowice 402, 36-055 Bratkowice","","","17 855 10 12","Ks. mgr Józef Książek"," 6.30, 8.00, 9.30, 11.00, 17.00","lato 6.30, 18.00; zima 6.30, 17.00","","50.056877666976874,21.889199152080398","http://www.diecezja.rzeszow.pl/2015/05/bratkowice/"
"Św. Mikołaja","","","Brzeziny 619, 39-111 Brzeziny","www.parafiabrzeziny.pl","brzeziny-mikolaj@wp.pl","17 223 32 14","Ks. mgr Józef Kłosowski"," 9.00; , 7.00, 10.30, 15.00","lato 7.00, 18.30; zima 7.00, 16.30","","49.931459815297885,21.542934182496467","http://www.diecezja.rzeszow.pl/2015/05/brzeziny/"
"Podwyższenia Krzyża Świętego","","","ul. Słoneczna 1, 39-230 Brzostek","www.parafia.brzostek.alpha.pl/","brzostek.parafia@o2.pl","14 683 03 00 ","Ks. dr Jan Cebulak"," 9.00; , 7.00;, 8.30; 10.00; 11.30; 17.00;","zima 7.00; 17.00; lato 7.00; 18.00","","49.878865000000005,21.41226","http://www.diecezja.rzeszow.pl/2015/04/brzostek-2/"
"Św. Marii Magdaleny","","","Brzyska 15a, 38-212 Brzyska","parafiabrzyska.ns48.pl/","brzyska@rzeszow.opoka.org.pl","13 446 01 18","Ks. Edward Pasionek"," 7.00, 9.00, 11.30, 15.00; , 10.15","zima 7.00, 17.00; lato 7.00, 19.00","","49.81999600000002,21.359639899999998","http://www.diecezja.rzeszow.pl/2015/04/brzyska/"
"Niepokalanego Serca NMP","","","Budy Głogowskie 845, 36-060 Głogów Młp.","","","17 851 94 16","Ks. mgr lic. Paweł Zimny"," 7.30; 10.30; 15.00;"," wtorki   7.30; 18.00 (17.00)","","","http://www.diecezja.rzeszow.pl/2015/04/budy-glogowskie/"
"Św. Franciszka z Asyżu","","","Bystrzyca 53, 39-124 Iwierzyce","www.parafiabystrzyca.pl","parafia@parafiabystrzyca.pl","17 864 28 18","Ks. mgr Leszek Moryl"," 8.00, 11.00,"," 19.00 (17.00)","","49.977510900000006,21.729145800000015","http://www.diecezja.rzeszow.pl/2015/05/bystrzyca/"
"Św. Maksymiliana Kolbe","","","Bzianka 20A, 35-213 Rzeszów","","","17 851 32 89","Ks. mgr Roman Gawron"," 7.30; 10.30;","lato 18.00; zima 17.00","","50.04168685127418,21.866455523735905","http://www.diecezja.rzeszow.pl/2015/05/bzianka/"
"Matki Bożej Łaskawej","","","Chmielnik 4a, 36-016 Chmielnik","www.sanktuariumchmielnik.pl/","kontakt@sanktuariumchmielnik.pl","17 229 66 23","Ks. mgr Mariusz Cymbała"," 7.15; 9.15; 11.15; 16.00;","lato 6.30, 18.00; zima 6.30, 17.00","","49.983965,22.116567999999997","http://www.diecezja.rzeszow.pl/2015/05/chmielnik-rzeszowski/"
"Św. Michała Archanioła","","","Cieklin 327, 38-222 Dębowiec","www.cieklin.ejp2.pl","parafiacieklin@gmail.com","13 479 18 00","Ks. Franciszek Motyka"," 9.45876; , 7.00, 8.30, 11.00, 16.00","zima 17.00; lato 18.30","","","http://www.diecezja.rzeszow.pl/2015/04/cieklin/"
"Przemienienia Pańskiego","","","Cmolas 252 a, 36-105 Cmolas","www.parafiacmolas.pl","parafia@cmolas.org","17 283 76 45","Ks. mgr lic. Michał Bator"," 7.00; , 9.15, 15.00; , 10.00; , 7.00, 8.05   szkolna, 9.15, 11.00, 17.00"," 6.30 i 18.30(17.00)","","50.296406467044754,21.741637337298105","http://www.diecezja.rzeszow.pl/2015/04/cmolas/"
"Św. Stanisława Biskupa","","","Czarna Sędziszowska 77, 39-123 Czarna k. Ropczyc","www.czarna.rzeszow.opoka.org.pl/","","17 745 56 11","Ks. mgr Edward Brzana"," 7.00, 9.00, 11.00, 15.00","lato 6.30, 18.00; zima 6.30, 17.00","","50.12429830000001,21.75399969999999","http://www.diecezja.rzeszow.pl/2015/05/czarna-sedziszowska/"
"Św. Maksymiliana Kolbe","","","Czeluśnica 185, 38-204 Tarnowiec,","","","13 445 56 06","Ks. Roman Niedziela"," 7.30, 10.30, 16.00","zima 17.00; lato 18.00","","49.72743435700079,21.52436230737359","http://www.diecezja.rzeszow.pl/2015/04/czelusnica/"
"Świętej Trójcy","","","ul. Kościelna 1, 38-120 Czudec","www.sanktuariumczudec.pl","czudec@gmail.com","17 277 10 11","Ks. mgr Antoni Kocoł"," 7.00, 8.30, 10.00, 11.30, 15.30","lato 6.30, 18.00; zima 6.30, 17.00","","49.9460653,21.8189117","http://www.diecezja.rzeszow.pl/2015/04/czudec/"
"Matki Bożej Królowej Polski","","","Dąbrowa 131, 36-071 Trzciana","www.dabrowa.parafia.info.pl/","","17 851 41 16","Ks. dr Artur Ziąber"," 8.30, 11.00","lato 18.00; zima 17.00","","50.01748378339613,21.785329175693366","http://www.diecezja.rzeszow.pl/2015/05/dabrowa/"
"Św. Judy Tadeusza","","","Dąbrówka 2a, 38-211 Jasło","www.parafia-dabrowka-gamrat.pl","parafia.dabrowka.gamrat@gmail.com","13 445 70 17","Ks. mgr Marian Chłopiński"," 7.00, 9.00, 11.00, 14.30"," 7.00, 18.00 (17.00)","","","http://www.diecezja.rzeszow.pl/2015/04/dabrowka-gamrat/"
"Matki Bożej Niepokalanej","","","Desznica 29, 38-230 Nowy Żmigród","","","13 441 51 52 tel. fax","Ks. mgr Józef Obłój"," 7.00, 11.00","lato 19.00; zima 17.00","","","http://www.diecezja.rzeszow.pl/2015/04/desznica/"
"Św. Bartłomieja Apostoła","","","Dębowiec 177, 38-220 Dębowiec","www.debowiec.ejp2.pl/","debowiecparafia@gmail.com","13 441 30 14","Ks. mgr Krzysztof Samborski MS"," 7.30, 9.00, 10.30, 12.00,","zima 6.30, 17.00; lato 6.30, 18.00","","","http://www.diecezja.rzeszow.pl/2015/04/debowiec/"
"św. Stanisława Biskupa","","","Dobrzechów 281, 38-100 Strzyżów","www.dobrzechow.parafia.info.pl","dobrzechow@rzeszow.opoka.org.pl","17 276 39 22","Ks. mgr lic. Maciej Figura"," 7.00, 8.30, 10.45, 16.00 (15.00); , 9.30","lato 7.00, 18.00; zima 7.00, 17.00","","","http://www.diecezja.rzeszow.pl/2015/05/dobrzechow/"
"Miłosierdzia Bożego","","","Domatków 209, 36-100 Kolbuszowa","","","17 227 23 33","Ks. mgr Stanisław Marczewski"," 8.00, 10.30, 15.00"," 18.00","","50.2020598,21.7393947","http://www.diecezja.rzeszow.pl/2015/04/domatkow/"
"Dobrego Pasterza","","","Faliszówka 51, 38-459 Kopytowa","","","13 431 40 64","Ks. mgr Jan Wnęk"," 8.00, 10.30, 15.00-nieszpory"," 18.00 (17.00)","","49.65112465787059,21.6002962719101","http://www.diecezja.rzeszow.pl/2015/04/faliszowka/"
"Najświętszego Serca Pana Jezusa","","","Folusz 56/6, 38-222 Cieklin","","","13 441 31 58","","zima 10.00; , 8.30, 11.00","lato 18.00; środa i piątek, 9.15; zima 17.00","","49.62717597444823,21.361518665519625","http://www.diecezja.rzeszow.pl/2015/04/folusz/"
"Narodzenia NMP","","","ul. Ks. Blajera 6,, 
38-130 Frysztak, tel. 17 277 78 30","www.parafia.frysztak.pl","parafia@frysztak.pl","17 277 78 30","Ks. mgr Bogusław Bogaczewicz"," 7.00; 9.00; 10.30; 12.00, 16.00"," 6.00; 7.00; 18.00(17.00)","","","http://www.diecezja.rzeszow.pl/2015/04/frysztak/"
"Św. Maksymiliana Kolbe","","","Glinik 103, 
39-106 Łączki Kucharskie,","","","17 221 08 90","Ks. Czesław Łaguz","zima 7.30, 10.30, 15.30; lato 7.00, 9.00, 11.00"," 7.00 lub 18.00","","49.984965482641115,21.535503039483746","http://www.diecezja.rzeszow.pl/2015/05/glinik/"
"Św. Józefa Robotnika","","","Glinik Polski, 38-204 Tarnowiec","","","13 442 37 15","Ks. mgr lic. Marian Płonka"," 8.00; 10.30; 15.30 (W. Post, maj, październik);","zima 17.00; lato 18.00","","49.70606125554987,21.549695141783694","http://www.diecezja.rzeszow.pl/2015/04/glinik-polski/"
"Matki Bożej Częstochowskiej","","","Glinik Zaborowski 113,, 
38-100 Strzyżów, tel. 17 779 05 03","","","17 779 05 03","Ks. mgr Mariusz Siniak"," 7.30, 10.30, 15.00(Wlk.Post, maj, październik)"," 18.00(17.00)","","49.880123302546345,21.668932499455508","http://www.diecezja.rzeszow.pl/2015/05/glinik-zaborowski/"
"Narodzenia Św. Jana Chrzciciela","","","Gładyszów 46, 38-315 Uście Gorlickie","www.parafia-gladyszow.pl/","gladyszow@rzeszow.opoka.org.pl","18 351 00 22","Ks. mgr Artur Wesołowski"," 9.00; , 7.00, 11.00"," 17.00","","49.46714412920511,21.302080139036246","http://www.diecezja.rzeszow.pl/2015/04/gladyszow/"
"św. Józefa","","","ul. Jana Pawła II, 27, 36-060 Głogów Młp.","niwa.parafia.info.pl/","parafianiwa@interia.eu","17 859 14 45","Ks. dr Stanisław Kamiński"," 9.00, 12.00 17.00 (III niedz,. Godz. 15.00   dla"," 18.00","","50.15258285385206,21.948879648051225","http://www.diecezja.rzeszow.pl/2015/04/glogow-malopolski-sw-jozefa/"
"Trójcy Przenajświętszej","","","ul. Kościelna 4, 36-060 Głogów Młp.","sanktuariumglogowmlp.pl/","","17 851 75 83","Ks. Adam Samel","lato 6.30, 8.00, 9.30, 11.00, 18.00,; zima 6.30, 8.00, 9.30, 11.00, 12.30, 18.00"," 6.30, 7.15   kaplica NMP, 18.00","","","http://www.diecezja.rzeszow.pl/2015/04/glogow-malopolski-fara/"
"Św. Maksymiliana Kolbe","","","Głojsce, ul. Szkolna 19, 38-450 Dukla","www.glojsce.rzeszow.opoka.org.pl","","13 433 04 05","Ks. mgr Janusz Kunior"," 8.00, 10.30,","zima 16.00; lato 18.00","","49.570280999999994,21.615029399999997","http://www.diecezja.rzeszow.pl/2015/04/glojsce/"
"Św. Krzysztofa","","","Godowa 287, 38-100 Strzyżów","www.godowa.pl","wkrn@rz.onet.pl","17 276 11 65","Ks. mgr lic. Roman Wałczyk"," 7.30, 10.30, 16.00 (17.00)"," 7.00, 18.00","","49.78159088956027,21.807926872998593","http://www.diecezja.rzeszow.pl/2015/05/godowa/"
"Św. Katarzyny","","","Gogołów 2, 38-131 Gogołów","www.parafiagogolow.pl","","17 277 83 11","Ks. mgr Jacek Cierpich"," 6.45, 8.30, 11.00, 16.00 (maj i październik); , 8.00","w zależności od pory roku, 18.00 (17.00)","","","http://www.diecezja.rzeszow.pl/2015/04/gogolow/"
"Matki Bożej Nieustającej Pomocy","","","ul. 11-go Listopada 89, 38-300 Gorlice","www.nieustajacejpomocy.gorlice.pl","info@nieustajacejpomocy.gorlice.pl","18 352 24 36","Ks. mgr Marek Urban","zima 7.00, 8.30, 10.00, 11,15, 17.30; lato 7.00, 8.30, 10.00,11.15, 18.00","zima 6.30, 17.30; lato 6.30, 18.00","","49.664762161906,21.155666861069168","http://www.diecezja.rzeszow.pl/2015/04/gorlice-glinik-mariampolski/"
"Narodzenia NMP","","","Pl. Kościelny 1, 38-300 Gorlice","www.bazylikagorlice.pl","","18 353 76 30 ","Ks. mgr Stanisław Ruszel"," 6.00, 7.00, 8.30, 10.00,11.30, 13.00, 16.00,"," 6.00, 6.30, 7.00, 8.00, 18.00","","","http://www.diecezja.rzeszow.pl/2015/04/gorlice-narodzenia-nmp-fara/"
"Św. Andrzeja Boboli","","","ul. Partyzantów 11, 38-300 Gorlice","www.bobolagorlice.parafia.info.pl","abobolagorlice@gmail.com","18 352 57 17","Ks. mgr Stanisław Kogut"," 6.30, 8.00, 9.30, 11.00, 19.00","zima 6.30, 18.00; lato 6.30, 19.00","","49.654672879812786,21.14673559592258","http://www.diecezja.rzeszow.pl/2015/04/gorlice-sw-andrzeja-boboli/"
"Św. Jadwigi Królowej","","","ul. Ariańska 4, 
38-300 Gorlice,","www.jadwiga.gorlice.pl","gorlice-jadwiga@rzeszow.opoka.org.pl lub parafiagorlice@poczta.fm","18 353 14 46, przełożona: S. Halina Boruch , 5 sióstr","Ks. mgr Jerzy Gondek"," 7.30, 9.00, 10.30, 12.00, 17.00"," 6.30, 18.00","","49.652125999999996,21.161662999999994","http://www.diecezja.rzeszow.pl/2015/04/gorlice-sw-jadwigi-krolowej/"
"Św. Jakuba Starszego Apostoła","","","Góra Ropczycka 120, 39-120 Sędziszów Młp.","goraropczycka.org/","parafia@goraropczycka.org","17 745 19 97","Ks. mgr Julian Jarząb"," 6.30, 9.00, 11.00, 15.30","lato 6.30, 18.00 (17.00)","","50.06706707809951,21.645616400626054","http://www.diecezja.rzeszow.pl/2015/05/gora-ropczycka/"
"Ofiarowania NMP","","","ul. Centralna 104, 36-051 Górno","www.parafiagorno.pl","e-mail: poczta@parafiagorno.pl","17 772 87 20","Ks. mgr Jan Lib"," 14.00; , 7.30, 11.00, 18.00(17.00); , 9.30"," 18.30 (15.00); , 7.00, 18.00(17.00)","","","http://www.diecezja.rzeszow.pl/2015/05/gorno/"
"Niepokalanego Serca NMP i Św. Stanisława Kostki","","","Grodzisko Strzyżowskie 163, 38-102 Grodzisko Strzyżowskie","parafiagrodzisko.jimdo.com/","parafiagrodzisko@onet.pl","17 276 57 07","Ks. Jerzy Oczoś"," 8.00, 10.00; , 7.15, 9.00, 10.30, 15.30","lato 18.00; zima 17.00","","49.927276432515406,21.63225421012551","http://www.diecezja.rzeszow.pl/2015/05/grodzisko-strzyzowskie/"
"Św. Antoniego Padewskiego","","","Gwoźnica Górna 330, 38-116 Gwoźnica Górna","","","17 746 57 00","Ks. mgr lic. Zygmunt Mularski","cały rok, 7,30; 10,30; 16,00","lato 18,00; zima 17,00","","49.80194213447283,21.983189086651123","http://www.diecezja.rzeszow.pl/2015/04/gwoznica/"
"Św. Doroty","","","Harklowa 92, 38-243 Harklowa","","","13 449 40 10","Ks. mgr Stanisław Łukasik"," 9.30; , 7.30, 11.00, 16.00"," 18.00 (17.00)","","49.7180833,21.3468538","http://www.diecezja.rzeszow.pl/2015/04/harklowa/"
"Matki Bożej Niepokalanej","","","Hermanowa 286, 36-020 Tyczyn","%20http://parafia-hermanowa.blog.onet.pl/","parafia.hermanowa@op.pl","17 221 92 96","Ks. mgr Wiesław Bednarz"," 7.30, 9.00, 10.30; lato 15.00"," 18.00 (17.00)","","","http://www.diecezja.rzeszow.pl/2015/05/hermanowa/"
"Matki Bożej Królowej","","","Jabłonica 40, 38-200 Jasło","","","13 449 32 46","Ks. mgr Antoni Łagoda"," 9.30; , 8.00, 11.00","lato 18.00; zima 17.00","","49.79165984847838,21.326248470365133","http://www.diecezja.rzeszow.pl/2015/04/jablonica/"
"Zwiastowania NMP","","","Januszkowice 201, 39-230 Brzostek","","januszkowice@rzeszow.opoka.org.pl","14 683 05 13","Ks. mgr Stanisław Mirek"," 8.00, 11.00, 15.00","zima 17.00; lato 18.00","","49.84278563103411,21.452605806320207","http://www.diecezja.rzeszow.pl/2015/04/januszkowice/"
"Św. Stanisława Kostki","","","Jasionka 300, 36-002 Jasionka","","","17 772 30 62","Ks. Michał Leśniara"," 7.00, 10.00; , 11.30; , 8.30,"," 18.00(17.00); zima 6.30, 17.00; lato 6.30, 18.00","","","http://www.diecezja.rzeszow.pl/2015/04/jasionka/"
"Chrystusa Króla","","","ul. Dolna 33, 38-200 Jasło","","chrystus.krol.jaslo@gmail.com","13 446 84 72","Ks. mgr Grzegorz Bokota"," 8.00; 11.00;; , 7.00, 9.30, 12.15, 17.00"," 18.00; , 17.00","","49.74110912817413,21.48974767588654","http://www.diecezja.rzeszow.pl/2015/04/jaslo-chrystusa-krola/"
"Dobrego Pasterza","","","ul. Sobniowska 34, 38-200 Jasło","www.jaslodobrypasterz.jasielskie.pl/","","13 445 50 76","Ks. dr Marian Putyra"," 9.00, 11.00; , .8.00, 9.30, 11.00, 17.00","lato 18.00; zima 17.00","","49.726683168594896,21.471332364992925","http://www.diecezja.rzeszow.pl/2015/04/jaslo-dobrego-pasterza/"
"Matki Bożej Częstochowskiej","","","ul. Mickiewicza 39, 38-200 Jasło","www.jaslombcz.pl/","","13 446 29 90","Ks. mgr Tadeusz Gąsiorowski"," 8.00, 9.30, 11.00, 12.15, 17.00,","zima 7.00, 17.00; lato 7.00, 18.00","","","http://www.diecezja.rzeszow.pl/2015/04/jaslo-matki-bozej-czestochowskiej/"
"Matki Bożej Królowej Świata","","","ul. Niegłowicka 39, 38-200 Jasło","www.parafianieglowice.pl","parafia@parafianieglowice.pl","+48 793 55 84 48","Ks. mgr Leszek Saczek"," 8.00, 10.30, 15.00","zima 17.00; lato 18.00","","49.7214209792261,21.463277292126325","http://www.diecezja.rzeszow.pl/2015/04/jaslo-matki-bozej-krolowej-swiata/"
"Miłosierdzia Bożego","","","ul. Rafineryjna 15, 38-200 Jasło","milosierdziejaslo.pl","","13 446 96 88","Ks. dr Zbigniew Pałka"," 8.00, 10.30, 17.00","zima 18.00; lato 19.00","","49.730293179685134,21.449554154917838","http://www.diecezja.rzeszow.pl/2015/04/jaslo-milosierdzia-bozego/"
"NSPJ i Niep. Serca NMP","","","ul. Św. Jana z Dukli 4, 38-200 Jasło","www.jaslo-zolkow.rzeszow.opoka.org.pl","jaslo-zolkow@rzeszow.opoka.org.pl","13 446 90 88","Ks. mgr Jan Gibała"," 7.30, 10.15, nabożeństwo- 16.00"," 7.00; dodatkowo 17.00 (I Czw, IPt, Isob); , 7.00, 18.00 (17.00)","","49.72649788675417,21.472805425895555","http://www.diecezja.rzeszow.pl/2015/04/jaslo-nspj-i-niep-serca-nmp/"
"Św. Antoniego","","","ul. Chopina 1, skr. poczt. 66, 38-200 Jasło","www.jaslo.franciszkanie.pl","jaslo@franciszkanie.pl","13 446 34 91","O. mgr lic. Krzysztof Kozioł OFM Conv."," 6.00, 7.30, 9.00, 10.30, 12.00, 14.30"," 6.30, 7.00, 8.00, 18.00","","49.74531250000001,21.466650499999982","http://www.diecezja.rzeszow.pl/2015/04/jaslo-sw-antoniego/"
"Św. Stanisława Biskupa","","","ul. Krasińskiego 4, 38-200 Jasło","www.kosciolek.info","malykosciolek@gmail.com","720 35 87 36 tel. dyżurny; 13 448 34 90 prob","Ks.  Tadeusz Paszek"," 6.30, 7.30, 9.00, 10.15, 12.00, 18.00"," 6.30, 7.00, 7.20, 18.00","","","http://www.diecezja.rzeszow.pl/2015/05/jaslo-sw-stanislawa/"
"Wniebowzięcia NMP","","","ul. Farna 2, 38-200 Jasło","www.fara-jaslo.rzeszow.opoka.org.pl","farajaslo@rzeszow.opoka.org.pl","13 446 37 58","Ks. mgr Zbigniew Irzyk"," 6.30, 8.00, 9.30, 11.00, 12.15, 18.00","w okresie wakacji, 6.30, 8.00, 18.00; w ciągu roku szkolnego, 6.30, 7.00, 8.00, 18.00","","49.74590871955779,21.472401156127916","http://www.diecezja.rzeszow.pl/2015/04/jaslo-wniebowziecia-nmp-fara/"
"Podwyższenia Krzyża Świętego","","","Jaszczew, 38-460 Jedlicze","","","13 431 22 35","Ks. mgr Tadeusz Madej"," 8.00, 10.30, 16.00"," 18.00 (17.00)","","49.73810617808837,21.630814273054423","http://www.diecezja.rzeszow.pl/2015/04/jaszczew/"
"Matki Bożej Wspomożenia Wiernych","","","Jawornik 126, 38-114 Niebylec","www.jawornik-niebylecki.rzeszow.opoka.org.pl","jawornik-n@rzeszow.opoka.org.pl","17 277 35 84","Ks. mgr Adam Kaczor"," 8.00, 10.30, dodatkowo 15.00 w maju i październiku","lato, 18.00; jesień i zima, 17.00; wiosna, 18.00","","49.8530288096397,21.898236051495985","http://www.diecezja.rzeszow.pl/2015/04/jawornik/"
"Najświętszego Serca Jezusowego","","","Kamień 293, 36-053 Kamień","www.kamien.edl.pl","","17 855 66 06","Ks. mgr Marian Gwizdak"," 8.15; , 7.00; 9.30; 11.00; 18.00 (17.00)","zima 7.00; 17.00; lato 7.00; 18.00","","50.310060637484845,22.158575073518787","http://www.diecezja.rzeszow.pl/2015/05/kamien/"
"Św. Maksymiliana Kolbe","","","Kamień Krzywa Wieś 41b, 36-053 Kamień","www.parafiakw.strefa.pl/","parafiakw@gmail.com","17 855 66 58","Ks. mgr Piotr Kuźniar"," 8.00; 11.00"," 18.00(17.00)","","50.34626321387808,22.122502560470654","http://www.diecezja.rzeszow.pl/2015/05/kamien-krzywa-wies/"
"Matki Bożej Częstochowskiej","","","Kamień Podlesie 77, 36-053 Kamień","","","512 98 00 26","Ks. mgr Stanisław Buszta"," 7.30, 10.30"," 18.00 (17.00)","","","http://www.diecezja.rzeszow.pl/2015/05/kamien-podlesie/"
"Podwyższenia Krzyża Świętego","","","Kamionka 201, 39-122 Kamionka","www.kamionka.rzeszow.opoka.org.pl","kamionka@rzeszow.opoka.org.pl","17 223 30 52","Ks. mgr Piotr Stefański","zima 8.00, 10.00, 11.30 DPS, 14.00; lato 8.00, 10.00, 11.30 DPS"," 19.00 (17.00)","","50.078043512845774,21.67669047643458","http://www.diecezja.rzeszow.pl/2015/05/kamionka/"
"Podwyższenia Krzyża Świętego","","","Kawęczyn Sędziszowski 100A, 39-120 Sędziszów Młp,","","","17 745 42 02","Ks. mgr Zygmunt Markowicz"," 8.00, 10.30","zima 17.00; lato 18.00","","50.11899830882249,21.66897174007523","http://www.diecezja.rzeszow.pl/2015/05/kaweczyn/"
"Matki Bożej Królowej Polski","","","Kąty 194, 38-230 Nowy Żmigród","parafiakaty.manifo.com/","parafiakaty@gmail.com","13 441 52 52","Ks. mgr Stanisław Grzyb"," 8.00, 11.00","lato 18.00; zima 17.00","","","http://www.diecezja.rzeszow.pl/2015/04/katy/"
"św. Urszuli Ledóchowskiej","","","Kielanówka 148, 35-106 Rzeszów","","","17 859 26 36","Ks. mgr Marek Buchman"," 8.15, 10.00, 15.30","zima 17.00; lato 18.00","","","http://www.diecezja.rzeszow.pl/2015/04/kielanowka/"
"Wniebowstąpienia Pańskiego","","","Kielnarowa, 36-020 Tyczyn,","","","17 229 96 28","Ks. mgr Sławomir Balawender"," 8.00; 10.30;"," 18.00(17.00)","","49.96303819999999,22.080260599999995","http://www.diecezja.rzeszow.pl/2015/05/kielnarowa/"
"Św. Maksymiliana Kolbe","","","Klęczany 136a, 39-127 Będziemyśl","","","17 745 53 97","Ks. Jerzy Kumiega"," 7.30, 10.00, 15.00","","","50.087606992681536,21.792692010079186","http://www.diecezja.rzeszow.pl/2015/05/kleczany/"
"Matki Bożej Saletyńskiej","","","Klęczany 62, 38-333 Zagórzany","","","18 351 14 50","Ks. mgr Henryk Rzeźnik"," 8.00, 10.00, 15.00"," 18.00 (17.00)","","49.68555182541985,21.177396423197084","http://www.diecezja.rzeszow.pl/2015/04/kleczany-k-biecza/"
"Św. Jana Chrzciciela","","","Kobylanka 223, 38-303 Kobylanka","www.kobylanka.saletyni.pl","kobylanka@saletyni.opoka.org.pl","18 353 16 85","Ks. mgr Roman Gierek MS"," 6.30, 8.00, 9.30, 12.30, 18.00(17.00); , 8.00"," 8.00, 18.00 (17.00)","","49.67606021148127,21.193114832259827","http://www.diecezja.rzeszow.pl/2015/04/kobylanka/"
"Św. Brata Alberta","","","ul. św. Brata Alberta 3, 36-100 Kolbuszowa","www.parafiabrataalberta.pl","parafiabrataalberta@onet.pl","17 22 77 250","Ks. mgr Jan Pępek"," 7.30, .9.00, 10.30, 12.00, 16.00, 19.00 (XI-IV), 20.00 (V-X)"," 6.30, 18.00","","50.24022529118368,21.74741793253798","http://www.diecezja.rzeszow.pl/2015/04/kolbuszowa-sw-brata-alberta/"
"Wszystkich Świętych","","","ul. Narutowicza 6, 36-100 Kolbuszowa","www.kolegiata.kolbuszowa.pl/","","17 227 11 27","Ks. mgr Lucjan Szumierz"," 6.00, 7.30, 9.00, 10.30, 12.00, 15.00, 17.00; , 10.00","zima 6.00, 6.30, 7.00 (od 01.09.do 01.07.), 17.00; lato 6.00, 6.30, 7.00 (od 01.09.do 01.07.), 18.00","","50.236364899999984,21.773324950000013","http://www.diecezja.rzeszow.pl/2015/04/kolbuszowa-wszystkich-swietych/"
"Matki Bożej Wspomożenia Wiernych","","","Kolbuszowa Górna 155 b, 36-100 Kolbuszowa","www.kolbuszowa-gorna.rzeszow.opoka.org.pl","kolbuszowawspom@neostrada.pl","17 227 30 88","Ks. mgr lic. Stanisław Krasoń","lipiec i sierpień, 7.00, 9.00, 11.00; , 8.00, 10.30, 15.00","środa, piątek, 18.00 (17.00   zimą); poniedziałek, wtorek, czwartek, sobota, 7.00","","50.219498,21.803317","http://www.diecezja.rzeszow.pl/2015/04/kolbuszowa-gorna/"
"Św. Anny","","","ul. Kościelna 5, 38-213 Kołaczyce","9876 www.kolaczyce.parafia.info.pl","kolaczyce@op.pl","13 441 06 50","Ks. Jan Sabat"," 7.00, 9.00, 11.00, 15.00","zima 7.00, 17.00; lato 7.00, 18.00, wakacje tylko o 18.00","","49.814661498392326,21.425214166766548","http://www.diecezja.rzeszow.pl/2015/04/kolaczyce/"
"Najświętszego Serca Jezusowego","","","Kosowy 70, 36-147 Niwiska","","","17 227 82 00","Ks. Stanisław Samborski"," 8.00, 11.00, 16.00,","lato 18.00; zima 17.00","","50.2799524,21.6483876","http://www.diecezja.rzeszow.pl/2015/04/kosowy/"
"Niepokalanego Serca NMP","","","Krasna 106, 38-420 Korczyna,","www.krasna.pl","","13 435 49 95","Ks. mgr lic. Władysław Kołodziej"," 8.00; 10.30; 16.00"," 18.00","","49.96004250000008,21.94485049999999","http://www.diecezja.rzeszow.pl/2015/05/krasna/"
"Wniebowzięcia NMP","","","Krasne k. Rzeszowa 755, 36-007 Krasne,","www.parafiakrasne.rzeszow.pl","","17 855 52 48, przełożona: S. Elżbieta Ciebiera, 4 siostry","Ks. dr Adam Dzióba","zima 7.00, 9.00, 11.00, 15.00; lato 7.00, 9.00, 11.00, 16.00","zima 7.00, 17.00; lato 7.00, 18.00","","","http://www.diecezja.rzeszow.pl/2015/05/krasne/"
"Św. Maksymiliana Kolbe","","","Krempna 14, 38-232 Krempna","www.krempna.rzeszow.opoka.org.pl","krempna@rzeszow.opoka.org.pl","13 441 44 30","Ks. mgr Andrzej Turoń"," 8.30; , 10.00; , 7.00, 11.30","zima 17.00; lato 18.00","","49.53312620132516,21.44039878110436","http://www.diecezja.rzeszow.pl/2015/04/krempna/"
"Matki Bożej Królowej Polski","","","Kryg 70, 38-304 Kryg","","","13 447 90 12","Ks. mgr Czesław Stanaszek"," 7.30, 10.30, 16.00"," 7.00; maj, październik, 7.00, 17.00 (18.00)","","","http://www.diecezja.rzeszow.pl/2015/04/kryg/"
"Św. Jana Chrzciciela","","","Kupno 347, 36-145 Widełka","www.kupno.parafia.info.pl","kupno@rzeszow.opoka.org.pl","17 744 62 67","Ks. mgr Kazimierz Osak"," 7.30, 10.30, 16,00; , 9.00"," 7.00, 18.00(17.00)","","50.17835516513577,21.82923615151935","http://www.diecezja.rzeszow.pl/2015/04/kupno/"
"Narodzenia NMP","","","Libusza 294, 38-306 Libusza","libusza.rzeszow.opoka.org.pl","libusza@rzeszow.opoka.org.pl","13 447 50 12","Ks. mgr Stanisław Dębiak"," 7.30; 9.00; 11.00; 16.00","lato 7.00, 18.00; zima 7.00, 17.00","","https://www.google.com/maps/embed?pb=!1m0!3m2!1spl!2spl!4v1428517455824!6m8!1m7!1snoGLbaNQTuEC_tBRjFB4xA!2m2!1d49.694299!2d21.239618!3f348.5437208867253!4f-4.4952823978889!5f0.7820865974627469","http://www.diecezja.rzeszow.pl/2015/04/libusza/"
"Wniebowzięcia NMP","","","Lipinki 7, 38-305 Lipinki","www.sanktuarium.lipinki.org","","13 447 70 45","Ks. mgr Wacław Śliwa"," 10.00; , 8.00"," 7.00; poniedziałek, środa i piątek, 18.00(16.30)","","","http://www.diecezja.rzeszow.pl/2015/04/lipinki/"
"Matki Bożej Królowej Polski","","","Lisów 230, 38-242 Skołyszyn","www.lisow.jasielskie.pl","sszajna@interia.pl","13 479 20 17","Ks. mgr lic. Stanisław Szajna"," 8.30, 11.00"," 18.30 (16.30)","","49.7687109,21.333237900000004","http://www.diecezja.rzeszow.pl/2015/04/lisow/"
"Św. Urszuli","","","Lubenia 26, 36-042 Lubenia","","","17 871 00 06","Ks. mgr Michał Szuma"," 7.00, 9.00, 11.00, 16.00; , 8.00, 15.00"," 7.00, 18.00(17.00); październik, listopad, 17.00; maj, czerwiec, 18.00","","49.923258051202815,21.95035429651191","http://www.diecezja.rzeszow.pl/2015/05/lubenia/"
"Św. Mikołaja","","","Lubla 145, 38-130 Frysztak","www.lubla-bart.com, www.parafia.lubla.pl","kancelaria@parafia.lubla.pl","17 277 82 32","Ks. mgr Julian Bartnik"," 8.00, 10.30, 15.00","lato 19.00; zima 7.00","","49.802926850000006,21.586520899999993","http://www.diecezja.rzeszow.pl/2015/04/lubla/"
"Matki Bożej Częstochowskiej, parafia erygowana: 26.08.2012","","","Lublica 80,            38-214 Bieździedza,","","","13 493 20 09,","Ks. mgr Jan Wojciechowski"," 8.00, 10.30"," 18.00 (17.00)","","49.80616053652313,21.487348107661084","http://www.diecezja.rzeszow.pl/2015/04/lublica/"
"Wniebowzięcia NMP","","","Lutcza 698, 38-112 Lutcza","lutcza.rzeszow.opoka.org.pl","lutcza@rzeszow.opoka.org.pl","17 277 36 11","Ks. mgr Jan Ochał"," 9.00; , 7.00, 9.00, 10.30, 15.00"," 6.45; 18.00 (17.00)","","","http://www.diecezja.rzeszow.pl/2015/04/lutcza/"
"Matki Bożej Częstochowskiej i św. Józefa","","","Lutoryż 433, 36-040 Boguchwała","parafia.lutoryz.pl","wikary@parafia.lutoryz.pl","17 871 43 75","Ks. mgr Stanisław Boratyn"," 8.00, 10.30, 16.00","zima 17.00; lato 19.00","","","http://www.diecezja.rzeszow.pl/2015/04/lutoryz/"
"Św. Andrzeja Apostoła i Narodzenia NMP","","","Łączki Jagiellońskie 9, 38-471 Wojaszówka","sanktuarium-mb.pl/","","13 438 54 78","Ks. mgr Janusz Bury"," 7.30, 10.30; , 9.00","lato 18.00; zima 17.00","","","http://www.diecezja.rzeszow.pl/2015/04/3953/"
"Św. Bartłomieja Apostoła","","","Łączki Kucharskie 276, 36-106 Łączki Kucharskie","","","17 221 33 25","Ks. mgr Marian Baran"," 7.00, 8.45, 11.00, 16.00; , 9.45, 16.00"," 18.00, zimą   16.00; , 6.30; środa i piątek, 18.00, zimą   16.00","","50.039445608198704,21.48028824807417","http://www.diecezja.rzeszow.pl/2015/05/laczki-kucharskie/"
"Św. Onufrego","","","Łąka 159, 36-004 Łąka","parafialaka.rzeszow.pl","parafia@parafialaka.rzeszow.pl","17 772 76 00","Ks. mgr Wiesław Rafacz"," 8.00, 11.00, 14.00, w Wlk. Poście zamiast 14.00 o 16.00","lato 18.00 (IV-IX); zima 17.00 (X-III)","","50.08722683745149,22.101102030440824","http://www.diecezja.rzeszow.pl/2015/04/laka/"
"Podwyższenia Krzyża Świętego,","","","Łęki Strzyżowskie 16, 38-471 Wojaszówka","leki-strzyzowskie.e-parafia.info/","","13 438 51 90","Ks. mgr lic. Tadeusz Kukulski"," 9.00","lato 18.00; zima 17.00 (16.30)","","","http://www.diecezja.rzeszow.pl/2015/04/leki-strzyzowskie/"
"Św. Mikołaja","","","Łężyny 149, 38-230 Nowy Żmigród","","","13 441 51 43","Ks. Henryk Barć"," 7.30, 9.00, 10.30,","lato 18.00","","49.622199722351404,21.467702563492498","http://www.diecezja.rzeszow.pl/2015/04/lezyny/"
"Św. Ignacego Antiocheńskiego i Św. Maksymiliana M. Kolbe","","","Łowisko 147, 36-053 Kamień","www.lowisko.rzeszow.opoka.org.pl","","17 855 68 42","Ks. mgr Marek Ryba","lato 7.30, 11.00, 15.00","zima 7.30, 16.00; lato 7.30, 19.00","","50.29830121132936,22.146107741557937","http://www.diecezja.rzeszow.pl/2015/05/lowisko/"
"Miłosierdzia Bożego","","","Łukawiec 181, 36-004 Łąka","milosierdzie.lukawiec.wist.com.pl/s/","","17 771 56 99","Ks. dr Marek Chorzępa"," 7.30, 10.30, 15.30","zima 17.00; lato 19.00","","50.10646284396466,22.124467700278128","http://www.diecezja.rzeszow.pl/2015/04/lukawiec/"
"Św. Piotra i Pawła","","","Łukawiec 745, 36-004 Łąka","www.lukawiecdolny.rzeszow.pl","parafialukawiecdolny@op.pl","17 771 50 85","Ks. mgr Jerzy Kowal"," 7.30, 10.30,"," 19.00 (wiosna, lato), 17.00 (jesień, zima)","","50.10646284396466,22.124467700278128","http://www.diecezja.rzeszow.pl/2015/04/lukawiec-dolny/"
"Św. Wawrzyńca","","","Malawa 516, 36-007 Krasne","","","17 855 42 88","Ks. Marek Kiełbasa"," 7.30; 9.00; 10.30; 16.00; , 12.00"," 6.30; 18.00(17.00)","","50.0618404096048,22.022549483241566","http://www.diecezja.rzeszow.pl/2015/05/malawa/"
"Św. Michała Archanioła","","","Mała 25, 39-107 Niedźwiada","","","17 221 39 09","Ks. mgr lic. Jacek Piróg"," 7.00; 10.00; 15.00","zima 7.00; lato 7.00; 18.00","","49.95250908422223,21.574756112410487","http://www.diecezja.rzeszow.pl/2015/05/mala/"
"Wniebowzięcia NMP","","","Małastów 16, 38-307 Sękowa","","","18 351 83 28","Ks. mgr Adam Prącik"," 7.00; , 11.00; , 9.30; , 8.15","","","49.57397047901247,21.184238236500526","http://www.diecezja.rzeszow.pl/2015/04/malastow/"
"Matki Bożej Królowej Polski","","","Matysówka 70a, 35-330 Rzeszów","","","17 229 98 17","Ks. mgr Jan Pyziak"," 7.30, 10.30, 15.00-(Wlk. Post, V, VI, X, XI, XII)","lato 7.15, 19.00; zima 7.15, 17.00","","49.99296485935665,22.041609060837242","http://www.diecezja.rzeszow.pl/2015/04/matysowka/"
"Matki Bożej Nieustającej Pomocy","","","Mazury 127, 36-130 Raniżów","","","17 228 54 56","Ks. Wiesław Dopart"," 7.30; 11.00","lato 18.30; zima 16.30","","50.26877444560308,21.999462878684337","http://www.diecezja.rzeszow.pl/2015/05/mazury/"
"ŚŚ. Kosmy i Damiana","","","Męcina Wielka 39, 38-307 Sękowa","","","18 351 83 16","Ks. mgr Jan Adamczyk"," 9.00,; , 7.00, 11.00"," 7.00","","49.61312618673628,21.237664396575298","http://www.diecezja.rzeszow.pl/2015/04/mecina-wielka/"
"Św. Huberta","","","Miłocin 39, 36-062 Zaczernie","www.swietyhubert.pl/","milocin@rzeszow.opoka.org.pl","17 855 29 38 ","Ks. dr Edward Rusin"," 8.00, 10.00, 12.00","lato 18.00; zima 17.00","","","http://www.diecezja.rzeszow.pl/2015/04/milocin/"
"Podwyższenia Krzyża Świętego i NMP Matki Kościoła","","","Mogielnica 134, 36-040 Boguchwała","","","17 871 44 15","Ks. Stanisław Zimny"," 7.30, 10.30, 15.00","zima 17.00; lato 18.00","","","http://www.diecezja.rzeszow.pl/2015/04/mogielnica/"
"Św. Łukasza Ewangelisty","","","Mrowla 79, 36-054 Mrowla","","","17 855 35 22","Ks. mgr Ryszard Tokarz"," 7.00, 9.00, 11.00, 17.00"," 18.00","","50.09791134400643,21.918352342056053","http://www.diecezja.rzeszow.pl/2015/05/mrowla/"
"Św. Andrzeja Boboli","","","Nawsie 303a, 39-110 Wielopole Skrzyńskie","www.parafianawsie.pl","","17 223 42 20","Ks. mgr Marek Marchut"," 7.30, 10.30, 15.00","wt., czw. sob., 6.45; pn. śr. pt., 17.00","","49.92922409968025,21.642846495795844","http://www.diecezja.rzeszow.pl/2015/05/nawsie/"
"Znalezienia Świętego Krzyża","","","Niebylec 36, 38-114 Niebylec","www.niebylec.rzeszow.opoka.org.pl","niebylec@rzeszow.opoka.org.pl","17 277 30 33","Ks. dr Czesław Goraj"," 9.00; , 8.00, 9.30, 11.00, 15.00","lato 6.30, 18.00; zima 6.30, 16.30","","49.84720374884258,21.943125809500795","http://www.diecezja.rzeszow.pl/2015/04/aaaaa/"
"Matki Bożej Nieustającej Pomocy","","","Niechobrz 274, 
36-047 Niechobrz,","niechobrz.rzeszow.opoka.org.pl","niechobrz@rzeszow.opoka.org.pl","17 871 81 99, przełożona: S. Salomea Koper , 5 sióstr","Ks. dr Jan Koc"," 7.30, 9.30, 11.20, 16.30"," 7.00, 18.00(17.00)","","49.988953599999995,21.86542015","http://www.diecezja.rzeszow.pl/2015/04/niechobrz/"
"Chrystusa Króla","","","Niedźwiada 124, 39-107 Niedźwiada","niedzwiada.parafia.info.pl","padre1958@o2.pl","17 221 35 20","Ks. mgr lic. Tadeusz Polak"," 11.45","lato 7.00; 18.00; zima 7.00; 17.00","","49.98657800677023,21.487923475235267","http://www.diecezja.rzeszow.pl/2015/05/niedzwiada/"
"Św. Bartłomieja Apostoła","","","Nienadówka 711, 36-142 Nienadówka","www.nienadowka.parafia.info.pl/","","17 771 23 23","Ks. Józef Galant"," 7.00, 9.00, 11.00, 16.00","zima 6.30, 17.00; lato 6.30, 18.00","","50.20348248494967,22.068779319938642","http://www.diecezja.rzeszow.pl/2015/05/nienadowka/"
"Wniebowzięcia NMP","","","Nienaszów 38, 38-230 Nowy Żmigród","www.parafianienaszow.pl","nienaszow@rzeszow.opoka.org.pl","13 441 72 32","Ks. mgr Jan Gajda"," 7.30, 9.00, 10.30, 15,30"," 6.30, 18.00 (17.00)","","49.59993603907408,21.570453016356392","http://www.diecezja.rzeszow.pl/2015/04/nienaszow/"
"Św. Anny","","","Niewodna 20, 38-124 Wiśniowa","www.niewodna.parafia.info.pl","parafia.niewodna@gmail.com","17 277 50 19","Ks. mgr Henryk Czajka"," 8.00, 11.00","zima 17.00; lato 19.00","","49.86468497940352,21.653410959092945","http://www.diecezja.rzeszow.pl/2015/04/niewodna/"
"Św. Mikołaja","","","Niwiska 157, 36-147 Niwiska","niwiska.rzeszow.opoka.org.pl","niwiska@rzeszow.opoka.org.pl","17 227 93 43","Ks. mgr Kazimierz Franczak"," 7.00, 9.00, 11.00, 15.00","zima 6.30, 17.00   (środa i sobota); lato 6.30, 18.00   (środa i sobota)","","50.20942819805053,21.612475474300336","http://www.diecezja.rzeszow.pl/2015/04/niwiska/"
"Św. Michała Archanioła","","","Nockowa 49, 39-124 Iwierzyce","www.parafianockowa.pl","parafianockowa@rp.home.pl","17 222 10 32","Ks. Aleksander Śmietana"," 8.00, 10.00; , 7.00, 9.15, 11.00, 15.30; , 8.00"," 6.30, 18.30, (17.00)","","","http://www.diecezja.rzeszow.pl/2015/05/nockowa/"
"Zwiastowania NMP","","","Nowa Wieś 161, 38-120 Czudec","","","17 277 13 31","Ks. Tadeusz Niziołek"," 9.30; , 7.30; 11.00; (W Wlk.Poście 7.30, 15.00)","lato 18.00; zima 17.00","","49.92714974999998,21.7958955","http://www.diecezja.rzeszow.pl/2015/04/nowa-wies-czudecka/"
"Dobrego Pasterza","","","Nowa Wieś 197, 36-001 Trzebownisko","","","17 772 21 55","Ks. Kazimierz Żak"," 7.30; 10.30;","zima 7.00, 17.00; lato 7.00, 19.00","","50.09908599128272,22.038897152726065","http://www.diecezja.rzeszow.pl/2015/04/nowa-wies-k-zaczernia/"
"ŚŚ. Apostołów Piotra i Pawła","","","ul. Kościelna 2, 38-230 Nowy Żmigród,","www.parafianowyzmigrod.pl","","13 441 56 31 prob.","Ks. mgr Henryk Maguda"," 7.30, 9.00, 10.30, 17.00","lato 7.00, 18.00; zima 7.00, 17.00","","49.59808135,21.52933165","http://www.diecezja.rzeszow.pl/2015/04/nowy-zmigrod/"
"Matki Bożej Fatimskiej","","","Olchowa 168 A, 39-127 Będziemyśl","","","17 221 69 08","Ks. mgr Kazimierz Winnicki"," 8.30, 11.00, 16.00"," 19.00 (17.00)","","","http://www.diecezja.rzeszow.pl/2015/05/olchowa/"
"Przemienienia Pańskiego","","","Osiek Jasielski 108, 38-223 Osiek Jasielski","www.osiekjasielski.rzeszow.opoka.org.pl","osiekjasielski@rzeszow.opoka.org.pl","13 442 09 90","Ks. mgr Jan Reczek"," 8.00, 10.00,","lato 18.00 (17.00)","","","http://www.diecezja.rzeszow.pl/2015/04/osiek-jasielski/"
"Św. Stanisława Biskupa","","","Osobnica 100, 38-241 Osobnica","","","13 442 72 50","Ks. mgr Czesław Szewczyk","zima 7.00, 9.00, 11.00, 17.00; lato 7.00, 9.00, 11.00, 18.00,","lato 18.00; zima 17.00","","","http://www.diecezja.rzeszow.pl/2015/04/osobnica/"
"Wniebowzięcia NMP","","","Ostrowy Tuszowskie 143, 36-105 Cmolas","www.parafia-ostrowytuszowskie.pl/","","17 283 73 90,","Ks. mgr Ryszard Madej"," 7.30, 11.00, 17.00","zima 17.00; lato 19.00","","","http://www.diecezja.rzeszow.pl/2015/04/ostrowy-tuszowskie/"
"Najświętszego Serca Pana Jezusa","","","Pagorzyna 222, 38-305 Lipinki","","","13 447 73 61","Ks. mgr Jan Broński"," 8.00, 11.00"," 18.00 (17.00)","","","http://www.diecezja.rzeszow.pl/2015/04/pagorzyna/"
"Miłosierdzia Bożego","","","Palikówka 201a, 36-073 Strażów","www.palikowka.com/","parpal@op.pl","17 771 16 65","Ks. mgr Kazimierz Gawełda"," 7.30, 9.00, 10.30"," 19.00(18.00   IX-V), 6.00(Roraty)","","","http://www.diecezja.rzeszow.pl/2015/05/palikowka/"
"Matki Bożej Częstochowskiej","","","Polany 80, 38-232 Krempna","","par.polany@gmail.com","13 441 40 70","Ks. mgr Józef Opaliński"," 9.30; , 11.00; , 8.00","(wtorek i czwartek), 18.00 (czas letni), 15.30 (czas zimowy); lato 18.00; zima 16.00","","","http://www.diecezja.rzeszow.pl/2015/04/polany/"
"Św. Mikołaja","","","Połomia 107, 38-115 Połomia","www.polomia.com.pl","","17 277 37 02","Ks. mgr Artur Grzęda","zima 8.00, 11.00, 16.30; lato 8.00, 9.30, 11.00","zima 7.00 lub 16.30; lato 7.00 lub 18.00","","","http://www.diecezja.rzeszow.pl/2015/04/polomia/"
"Św. Józefa Rzemieślnika","","","Przedbórz 101, 36-100 Kolbuszowa","","","17 744 68 15","Ks. mgr Józef Jaworski"," 8.00, 10.00, 15.00"," 7.00 lub 18.00","","","http://www.diecezja.rzeszow.pl/2015/04/przedborz/"
"Św. Antoniego Padewskiego","","","Przewrotne 556, 36-003 Przewrotne","","","17 851 00 24","Ks. mgr Marek Szady"," 7.00, 11.00, 16.00; , 9.45, (W. Post 9.00); , 8.30 (W.Post 13.30)"," 7.00, 18.00 (17.00)","","","http://www.diecezja.rzeszow.pl/2015/04/przewrotne/"
"Św. Kazimierza","","","Przybówka 218, 38-471 Wojaszówka","","","13 438 58 90","Ks. mgr Krzysztof Mielec"," 9.00, 12.00,","","","","http://www.diecezja.rzeszow.pl/2015/04/3963/"
"Św. Józefa Robotnika","","","Pstrągowa 47, 38-121 Pstrągowa","www.parafia.pstragowa.pl","parafia.pstragow@rzeszow.opoka.org.pl","17 277 90 05","Ks. Kazimierz Płonka"," 7.30; 9.00; 11.00; 15.30;","lato 7.00; 18.00; zima 7.00, 17.00","","","http://www.diecezja.rzeszow.pl/2015/04/pstragowa/"
"Narodzenia św. Jana Chrzciciela","","","Pstrągówka 62, 38-124 Wiśniowa","parafiapstragowka.cba.pl","","17 277 55 46","Ks. mgr Marek Frątczak"," 8.00; 11.00,","lato 18,00   wiosna, jesień; 19.00 – lato,; zima 17.00,","","","http://www.diecezja.rzeszow.pl/2015/04/pstragowka/"
"Św. Maksymiliana Kolbe","","","Rogoźnica 93, 36-060 Głogów Młp.","www.maksymiliankolbe.parafia.info.pl","parafiarogoznica@o2.pl","17 851 63 44","Ks. mgr Piotr Jakobik"," 8.00, 10.30 (W. Post, V, X godz. 16.00)","w zależności od pory roku, 18.00 (17.00)","","","http://www.diecezja.rzeszow.pl/2015/04/rogoznica/"
"Przemienienia Pańskiego","","","ul. Słowackiego 1, 39-100 Ropczyce","ropczycefara.parafia.info.pl/","ropczycefara@gmail.com","17 221 83 77","Ks. dr Stanisław Mazur"," 6.30, 8.00, 9.30, 11.00, 12.00, 18.00, (17.00); , 9,15, 15.15"," 6.30, 7.00, 18.00, (17.00); , 19.30 (18.30)","","","http://www.diecezja.rzeszow.pl/2015/04/ropczyce-przemienienia-panskiego-fara/"
"Św. Anny","","","ul. św. Anny 2, 39-100 Ropczyce","ropczyce.rzeszow.opoka.org.pl/anna/index.html","","17 221 80 39","Ks. mgr Tomasz Kozicki"," 7,30; 11,00","lato 7,00 lub 18.30; zima 7,00 lub 17.00","","","http://www.diecezja.rzeszow.pl/2015/04/ropczyce-sw-anny/"
"Św. Barbary","","","ul. Ks. Michała Siewierskiego 4, 39-100 Ropczyce","swbarbara.r-ce.pl/","","17 222 71 31","Ks. mgr Leopold Kordas"," 7.30, 9.00, 11.30, 19.00(18.00)"," 7.00, 19.00(18.00)","","","http://www.diecezja.rzeszow.pl/2015/04/ropczyce-sw-barbary/"
"Św. Michała Archanioła","","","ul. Sucharskiego 105, 39-100 Ropczyce","ropczyce.rzeszow.opoka.org.pl/michal/index.html","","17 221 83 63","Ks. mgr Tadeusz Mieleszko"," 6.30, 9.00, 11.30, 17.00(16.00); , 10.15; , 7.45, (14.00   Wlk. Post)","lato 6.30, 18.00; zima 6.30, 17.00","","","http://www.diecezja.rzeszow.pl/2015/04/ropczyce-sw-michala-archaniola/"
"Św. Urszuli Ledóchowskiej","","","ul. Leśna 89, 39-100 Ropczyce","","","17 223 13 12","Ks. mgr Marek Kędzior"," 8,00, 10.30,","lato 18.00; zima 17.00","","","http://www.diecezja.rzeszow.pl/2015/04/ropczyce-sw-urszuli-ledochowskiej/"
"Świętej Rodziny","","","ul. Słoneczna 10, 39-100 Ropczyce","","","17 221 79 78","Ks. Marian Łopatka"," 7.30, 10.00"," 7.00 lub 18.30(16.30)","","","http://www.diecezja.rzeszow.pl/2015/04/ropczyce-swietej-rodziny/"
"Miłosierdzia Bożego","","","Ropica Polska 489, 38-300 Gorlice","","Parafia ","18 352 63 88","Ks. mgr Stanisław Makowiecki"," 7.30, 10.00, 17.00"," 6.30","","","http://www.diecezja.rzeszow.pl/2015/04/ropica-polska/"
"Św. Andrzeja Apostoła","","","Rożnowice 124, 38-323 Rożnowice","","","13 447 60 18","Ks. Stanisław Pałka"," 8.15, 11.45; , 7.00, 9.30, 12.00, 15.00 z nieszporami","lato 7.00, 18.00; zima 7.00, 17.00; lato 17.00; zima 16.00","","49.755888572874625,21.16088076322936","http://www.diecezja.rzeszow.pl/2015/04/roznowice/"
"Św. Teresy od Dzieciątka Jezus","","","Rudna Wielka 46, 36-054 Mrowla","","","17 855 36 70","Ks. dr Wacław Sopel"," 7.00, 9.00, 11.00, 17.00"," 7.00, 18.00","","","http://www.diecezja.rzeszow.pl/2015/04/rudna-wielka/"
"Bł. Karoliny","","","ul. Kościelna 15A, 35-505 Rzeszów","www.bl-karolina.pl","parafia@bl-karolina.pl","17 859 01 85","Ks. dr Jan Krynicki"," 7:30, 9:00, 10.30, 12.00, 18:00"," 6:30*, 18.00","","","http://www.diecezja.rzeszow.pl/2015/04/rzeszow-bl-karoliny/"
"bł. ks. Jerzego Popiełuszki","","","ul.","www.popieluszko.rzeszow.pl/","kancelaria@popieluszko.rzeszow.","570 241 996, e-mail: mokazuki@op.pl","Ks. dr Robert Mokrzycki","","","","","http://www.diecezja.rzeszow.pl/2015/05/rzeszow-bl-ks-jerzego-popieluszki/"
"","","",", 
35-330 Rzeszów, ul. Św. Rocha 270","","parafia.findysz@gmail.com","","Ks. mgr Władysław Srebrny","","","","50.00370946142012,22.077137352541083","http://www.diecezja.rzeszow.pl/2015/05/rzeszow-bl-ks-wladyslawa-findysza/"
"Bożego Ciała i Matki Bożej z Lourdes, ul. Prymasa 1000-lecia 1,","","","ul. Prymasa 1000-lecia 1, 
35-510 Rzeszów, tel. 17 860 19 40","bozegociala.parafia.info.pl","","17 860 19 40","Ks. mgr Henryk Wojtyło"," 7.00; 8.30; 10.00; 12.00; 17.00,"," 6.30; 18.00,","","","http://www.diecezja.rzeszow.pl/2015/04/rzeszow-bozego-ciala/"
"Chrystusa Króla. Adres: ul. Ks. J. Jałowego 37, 35-010 Rzeszów, tel. 17 853 24 82","","","ul. Ks. J. Jałowego 37, 35-010 Rzeszów","www.chrystuskrol.rzeszow.pl","parafia@chrystuskrol.rzeszow.pl","17 853 24 82","Ks. dr Janusz Podlaszczak","zima 6.00, 7.30, 9.00, 10.30, 12.00, 13.30, 16.00,18.00; lato 6.00, 7.30, 9.00, 10.30, 12.00, 13.30, 17.00,19.00"," 6.30, 7.00, 7.30, 8.00, 18.00","","50.041280000000015,21.992377999999995","http://www.diecezja.rzeszow.pl/2015/04/rzeszow-chrystusa-krola-2/"
"Matki Bożej Królowej Polski","","","ul. Reformacka 5, 35-026 Rzeszów","www.rzeszow.ordynariat.opoka.org.pl","krolowejpolski@ordynariat.opoka.org.pl","17 715 59 30","Ks. mgr Tomasz Anisiewicz"," 6.30, 8.00, 9.30, 11.00, 12.30, 16.00,"," 6.30, 7.00, 7.30, 18.00","","50.03219199999998,21.994703","http://www.diecezja.rzeszow.pl/2015/04/rzeszow-matki-bozej-krolowej-polski/"
"Matki Bożej Nieustającej Pomocy i Św. Floriana","","","ul. Bursztynowa 1, 35-322 Rzeszów","parafia.rzeszow.pl/","","609 19 64 74","Ks. mgr Józef Kandefer"," 7.45, 10.00, 11.30, 16.30"," 19.00 (17.00)","","50.00542994999999,21.988455000000002","http://www.diecezja.rzeszow.pl/2015/05/rzeszow-matki-bozej-niestajacej-pomocy/"
"Matki Bożej Różańcowej","","","ul. Orla 17, 35-207 Rzeszów","","","17 863 60 00","Ks. dr Tadeusz Wyskiel"," 6.30, 8.00, 9.30, 11.00, 12.30, 18.00,"," 6.30, 7.00, 17.30, 18.00","","50.00542994999999,21.988455000000002","http://www.diecezja.rzeszow.pl/2015/04/rzeszow-matki-bozej-rozancowej/"
"Matki Bożej Saletyńskiej","","","ul. Dąbrowskiego 71, 35-036 Rzeszów","www.lasalette.pl","parafia@lasalette.pl","17 854 34 05","Ks. mgr Zbigniew Wal MS"," 6,30;8,00; 9,30; 10.00; 11,00;12,00; 12.30;"," 6,30; 8,00; 17,00; 18,30","","50.02510670107975,21.990731622743823","http://www.diecezja.rzeszow.pl/2015/04/rzeszow-matki-bozej-saletynskiej/"
"Matki Bożej Śnieżnej","","","ul. Ks. Kazimierza Guzego 6, 35-317 Rzeszów","www.mbsniezna.rzeszow.pl","","17 221 91 80","Ks. mgr lic. Mieczysław Lignowski"," 7.00, 9.05, 10.30, 12.00, 16.00","lato 18.00; zima 17.00","","49.969382,21.985987","http://www.diecezja.rzeszow.pl/2015/05/rzeszow-matki-bozej-snieznej/"
"Matki Bożej Częstochowskiej","","","ul. Koło 4c, 35-312 Rzeszów","www.mbczestochowska.rzeszow.opoka.org.pl/news.php","mbczestochowska@rzeszow.opoka.org.pl","17 780 71 03","Ks. mgr lic. Tadeusz Pindara"," 8.00, 10.00, 12.00; 16.00"," 18.00","","50.00175499999999,21.996344000000004","http://www.diecezja.rzeszow.pl/2015/04/rzeszow-mb-czestochowskiej/"
"Miłosierdzia Bożego,","","","ul. Kard. Karola Wojtyły 114, 35-304 Rzeszów","rzeszowmilosierdzie.parafia.info.pl","biala@rzeszow.opoka.org.pl","17 229 91 33","Ks. mgr lic. Mieczysław Mleczko"," 7.30, 9.30, 11.30, 17.00","lato 18.00; zima 17.00","","","http://www.diecezja.rzeszow.pl/2015/04/rzeszow-milosierdzia-bozego/"
"Najświętszego Serca Jezusowego,","","","Al. Sikorskiego 21, 35-304 Rzeszów","www.katedra.rzeszow.pl","katedra@rzeszow.opoka.org.pl","17 865 46 46","Ks. mgr Jan Delekta"," 7.00, 9.00, 10.30, 12.00, 15.00, 17.00, 19.00","zima 6.30, 7.00, 18.00; lato 6.30, 7.00, 19.00","","50.013256999999996,22.019515000000002","http://www.diecezja.rzeszow.pl/2015/04/rzeszow-najswietszego-serca-jezusowego/"
"Narodzenia NMP","","","ul. Staroniwska 78, 35-101 Rzeszów,","www.staroniwa.rzeszow.opoka.org.pl","staroniwa@rzeszow.opoka.org.pl","17 853 08 13","Ks. mgr Stanisław Jamiński"," 7.30, 10.30, 12.00, 16.00; , 9.00","lato 18.00; zima 17.00","","50.03274934306735,21.980863808959853","http://www.diecezja.rzeszow.pl/2015/04/rzeszow-narodzenia-nmp-staroniwa/"
"Opatrzności Bożej","","","ul. Witolda Świadka 5a, 35-310 Rzeszów","www.sdb.rzeszow.pl","","17 852 18 01","Ks. Kazimierz Drozd SDB"," 7.00; 8.30; 10.00; 11.30; 16.00; 18.00; VII i VIII, 7.00; 8.30; 10.0; 11.30; 18.00; 19.30"," 7.00; 18.00; (VII i VIII   7.00, 19.00)","","50.00542994999999,21.988455000000002","http://www.diecezja.rzeszow.pl/2015/04/rzeszow-opatrznosci-bozej/"
"Podwyższenia Krzyża Świętego","","","ul. Krakowska 18, 35-111 Rzeszów","www.podwyzszenie.rzeszow.pl","parafia@podwyzszenie.rzeszow.pl","17 863 42 66","Ks. Franciszek Kołodziej"," 7.00, 8.30, 10.00, 11.30, 12.45, 18.00"," 6.30, 18.00","","50.047787,21.978067","http://www.diecezja.rzeszow.pl/2015/04/rzeszow-podwyzszenia-krzyza-swietego/"
"Świętej Trójcy","","","ul. Targowa 4, 
35-064 Rzeszów,","","","17 853 58 01","","","","","","http://www.diecezja.rzeszow.pl/2015/05/rzeszow-rektorat-trojcy-swietej/"
"św. Jacka","","","ul. Dominikańska 15, 35-041 Rzeszów","www.rzeszow.dominikanie.pl","aldi@dominikanie.pl","17 860 91 30",""," 7.00, 8.30, 10, 11.30, 13.00, 16.00, 17.00, 19.00"," 7.00, 8.00, 12.00, 18.00","","","http://www.diecezja.rzeszow.pl/2015/04/rzeszow-sw-jacka/"
"Św. Jadwigi Królowej","","","ul. Rejtana 21, 35-303 Rzeszów","www.kosciol-akademicki.rzeszow.pl","k-academica@wp.pl","17 740 14 05","Ks. mgr Janusz Kosior","lipiec i sierpień, 7.00, 9.00, 10.30, 12.00, 20.00"," 7.00, 18.00","","50.03040267419109,22.01748937368393","http://www.diecezja.rzeszow.pl/2015/04/4450/"
"św. Józefa","","","ul. Partyzantów 38, 35-234 Rzeszów","www.parafia-jozef.rzeszow.opoka.org.pl","parafiaswjozef@rzeszow.opoka.org.pl","861 17 42","Ks. mgr lic. Krzysztof Gołąbek"," 6.30, 8.00, 9.30, 11.00, 12.30, 17.00"," 6.30, 7.00, 18.00","","","http://www.diecezja.rzeszow.pl/2015/04/rzeszow-sw-jozefa/"
"Św. Józefa Kalasancjusza","","","ul. Lwowska 125, 35-301 Rzeszów","www.rzeszow.pijarzy.pl","rzeszow@pijarzy.pl","17 853 62 62","O. Jan Taff SP"," 6.30, 7.45, 10.00, 12.15, 15.00, 18.00"," 7.00, 18.00","","","http://www.diecezja.rzeszow.pl/2015/05/rzeszow-sw-jozefa-kalasancjusza/"
"Św. J. Sebastiana Pelczara","","","ul. Lwowska 46, 35-301 Rzeszów","www.pelczar.rzeszow.pl","parafia@pelczar.rzeszow.pl; ","17 852 97 47","Ks. Stanisław Wójcik"," 7.00, 9.00, 10.30, 12.00, 16.00, 18.00; , 10.00, 14.00; , 10.00"," 7.00, 18.00","","","http://www.diecezja.rzeszow.pl/2015/05/rzeszow-sw-jozefa-sebastiana-pelczara/"
"św. Judy Tadeusza","","","ul. Wita Stwosza 31, 35-113 Rzeszów","judatadeusz.rzeszow.pl/","admin@judatadeusz.rzeszow.pl","660 246 123 dyżurny","Ks. mgr Józef Stanowski"," 6.30, 8.00, 9.30, 11.00, 12.30, 17.00,"," 6.30, 7.00, 18.00","","","http://www.diecezja.rzeszow.pl/2015/04/rzeszow-sw-judy-tadeusza/"
"św. Krzyża","","","ul. 3 Maja 20, 35-030 Rzeszów","swkrzyz.rzeszow.opoka.org.pl/","","17 853 51 97","Ks. mgr lic. Władysław Jagustyn"," 6.30, 8.00, 9.30, 11.00, 12.15, 13.30, 18.30, 15.30"," 6.30, 7.30, 12.00, 17.30, 18.30","","","http://www.diecezja.rzeszow.pl/2015/04/rzeszow-sw-krzyza/"
"św. Michała Archanioła","","","ul. Św. Michała Archanioła 3, 35-303 Rzeszów","l http://michal-rzeszow.pl","michal.parafia@wp.pl","17 857 84 64","Ks. mgr Stanisław Potera"," 7.00, 9.00, 10.30, 12.00, 17.00, 18.30","zima 6.30, 18.00; lato 6.30, 19.00","","50.02711099999999,22.026145000000003","http://www.diecezja.rzeszow.pl/2015/04/rzeszow-sw-michala/"
"Św. Mikołaja","","","ul. Dębicka 64, 35-503 Rzeszów","parafia-mikolaja.jimdo.com/","","17 863 42 33","Ks. mgr Jerzy Paradysz"," 7.00, 9.00, 11.00, 16.30; , 12.15; , 14.00","lato 18.00; zima 17.00","","50.00542994999999,21.988455000000002","http://www.diecezja.rzeszow.pl/2015/05/rzeszow-sw-mikolaja/"
"Św. Rocha","","","ul. Paderewskiego 69 a, 35-330 Rzeszów,","www.sw_roch.republika.pl","","17 850 65 03, przełożona: S. Maria Opydo, 3 siostry","Ks. mgr Stanisław Tarnawski"," 7.45; , 6.30, 8.00, 9.30, 11.10, 16.00, 18.00; , 10.30"," 7.00, 18.00","","50.02739099999998,22.044763999999986","http://www.diecezja.rzeszow.pl/2015/05/rzeszow-sw-rocha/"
"św. Rodziny","","","ul. Solarza 14, 35-125 Rzeszów","www.swietarodzina.org.pl","rzeszow-msf@msf.opoka.org.pl","17 856 84 72, kancelaria 17 856 84 72, w. 29",""," 7.30, 9.00, 10.30, 12.00, 15.00, 18.00"," 7.00, 18.00","","50.04336600000001,21.97464799999999","http://www.diecezja.rzeszow.pl/2015/04/rzeszow-sw-rodziny/"
"Św. Wojciecha i Stanisława","","","Pl. Farny 5, 35-010 Rzeszów","www.fara.rzeszow.pl/","","17 853 30 16","Ks. mgr lic. Jan Szczupak","lato 6.30, 8.00, 9.30, 11.00, 12.15, 19,00, 20.20; zima 6.30, 8.00, 9.30, 11.00, 12.15, 18.00, 19.30","zima 6.30, 7.00, 7.30, 8.30, 18.00; lato 6.30, 7.00, 7.30, 8.30, 19.00","","50.03790000000001,22.001889999999996","http://www.diecezja.rzeszow.pl/2015/04/rzeszow-fara/"
"Wniebowzięcia NMP","","","ul. Sokoła 8, 35-010 Rzeszów","www.bernardyni.rzeszow.pl","sanktuarium1513@gmail.com","17 853 34 95","O. mgr Rafał Klimas OFM"," 6.00, 7.30, 9.00, 10.30, 12.00, 15.00, 16.30, 18.30"," 6.00, 7.00, 8.00, 9.00, 18.30","","50.039888,21.999404","http://www.diecezja.rzeszow.pl/2015/04/rzeszow-wniebowziecia-nmp/"
"Wniebowzięcia NMP","","","ul. Zelwerowicza 2, 35-601 Rzeszów","wnmp.rzeszow.pl/","","17 864 09 25","Ks. mgr lic. Stanisław Płaza"," 7.00, 9.00, 10.30, 12.00, 17.00","zima 7.00, 17.00; lato 7.00, 18.00","","50.090017802037984,21.8888633196318","http://www.diecezja.rzeszow.pl/2015/04/4459/"
"św. Józefa","","","Pl. Św. Józefa 1, 35-083 Rzeszów","parafiazwieczyca.rzeszow.pl","parafia@rz-zwieczyca-jozef.pl","17 850 09 52","Ks. mgr Ludwik Krupa"," 7.30; 9.30; 11.15; 18.00"," 18.00","","","http://www.diecezja.rzeszow.pl/2015/04/rzeszow-sw-jozefa-zwieczyca/"
"Św. Marii Magdaleny","","","Samoklęski 125, 38-223 Osiek Jasielski","www.parafia-samokleski.yoyo.pl","","13 442 00 33","Ks. Henryk Wilk","V   X w trzecią niedzielę miesiąca, 14.30 Droga krzyż. i Msza św.","zima 17.00 (adwent roraty 6.00); lato 18.00","","","http://www.diecezja.rzeszow.pl/2015/04/samokleski/"
"Narodzenia NMP","","","ul. Jana Pawła II 27, 39-120 Sędziszów Młp.,","sedziszow.rzeszow.opoka.org.pl","sedziszow@rzeszow.opoka.org.pl","fax.17 221 60 54, przełożony: O. Janusz Pałka OFM Cap., 10 ojców i 3 braci","Ks. mgr Ryszard Lis"," 6.30, 8.00, 9.15, 10.30, 12.00, 18.00"," 6.30, 7.00, 18.00","","","http://www.diecezja.rzeszow.pl/2015/05/sedziszow-mlp-narodzenia-nmp/"
"Miłosierdzia Bożego","","","ul. Potockich 17, 39-120 Sędziszów Małopolski,","www.parafia-sedziszow.rzeszow.pl","","501 239 865","Ks. mgr lic. Krzysztof Gac"," 7.00, 9.00, 11.00, 17.00"," 6.30, 18.00","","","http://www.diecezja.rzeszow.pl/2015/05/sedziszow-mlp-milosierdzia-bozego/"
"Św. Józefa Oblubieńca NMP","","","Sękowa 13, 38-307 Sękowa","www.sekowa.rzeszow.opoka.org.pl","","18 351 81 69","Ks. mgr Janusz Kurasz"," 12.00; , 7.00, 9.00, 10.30, 16.00"," 6.30, 7.00","","","http://www.diecezja.rzeszow.pl/2015/04/sekowa/"
"Św. Józefa","","","Siedliska 678, 36-042 Lubenia","","","17 871 01 26","Ks. mgr Leszek Bachta"," 7.30, 10.30, 15.00","zima 17.00; lato 19.00","","","http://www.diecezja.rzeszow.pl/2015/05/siedliska-k-rzeszowa/"
"Św. Stanisława Biskupa","","","Sieklówka 72, 38-214 Bieździedza","","","13 446 03 18","Ks. mgr lic. Czesław Rzeszut"," 8.00, 11.00","zima 17.00; lato 18.00","","","http://www.diecezja.rzeszow.pl/2015/04/sieklowka/"
"Św. Klemensa Papieża","","","Skalnik 35, 38-230 Nowy Żmigród","www.parafiaskalnik.pl","proboszcz@parafiaskalnik.pl","13 441 52 32","Ks. mgr Jacek Nasiadka"," 9.30; , 8.00, 11.00","zima 17.00; lato 18.00","","","http://www.diecezja.rzeszow.pl/2015/04/skalnik/"
"Św. Józefa i ŚŚ. Piotra i Pawła","","","Skołyszyn 350, 38-242 Skołyszyn","","","13 479 20 40 tel. fax","Ks. mgr Tadeusz Wawryszko"," 8.00; 11.00","zima 17.00; lato 18.00","","","http://www.diecezja.rzeszow.pl/2015/04/skolyszyn/"
"Św. Katarzyny","","","Sławęcin 39, 38-242 Skołyszyn","","","13 449 10 29","Ks. mgr Marek Cesarz"," 9.00; , 7.30, 11.00, 15.00","zima 17.00; lato 18.00","","","http://www.diecezja.rzeszow.pl/2015/04/slawecin/"
"Św. Michała Archanioła","","","Smerekowiec 89, 38-315 Uście Gorlickie","","smerekowiec@rzeszow.opoka.org.pl","18 351 00 22","Ks. mgr Paweł Kopeć"," 7.30, 10.30","wtorek, środa, czwartek, 6.30; poniedziałek, piątek, sobota, 18.00(17.00)","","","http://www.diecezja.rzeszow.pl/2015/04/smerekowiec/"
"Św. Jana Chrzciciela","","","Plac Św. Jana 2, 36-050 Sokołów Młp.","www.parafia-sokolow.pl/","","17 772 90 20","Ks. mgr Jan Prucnal"," 14.00"," 6.30, 18.00","","","http://www.diecezja.rzeszow.pl/2015/05/sokolow-malopolski/"
"Matki Bożej Nieustającej Pomocy","","","Sowina, 38-213 Kołaczyce","","","605 30 09 29","Ks. mgr lic. Marek Płaziński"," 8.00, 11.00","lato 18.00; zima 17.00","","","http://www.diecezja.rzeszow.pl/2015/04/sowina/"
"Św. Katarzyny","","","Stary Żmigród 65, 38-230 Nowy Żmigród","","","13 441 51 44","Ks. mgr Józef Ozga"," 8.00, 11.30; , 9,45","lato 19,00; zima 17,00","","","http://www.diecezja.rzeszow.pl/2015/04/stary-zmigrod/"
"Św. Maksymiliana Kolbe","","","Stępina 166, 38-125 Stępina","","stanlucas@wp.pl","17 277 53 29","Ks. Stanisław Łukasz"," 8.00, 11.00","zima 7.00 lub 17.00; lato 7.00 lub 19.00","","","http://www.diecezja.rzeszow.pl/2015/04/3970/"
"Niepokalanego Serca NMP","","","Stobierna 355, 36-002 Jasionka","","","17 771 34 35","Ks. mgr Józef Pasiak"," 7.00, 8.30, 11.30, 16.00; , 10.00"," 7.00, 18.00 (17.00)","","","http://www.diecezja.rzeszow.pl/2015/04/stobierna/"
"Matki Bożej Nieustającej Pomocy","","","Straszydle 392, 36-043 Straszydle","","","17 871 00 53","Ks. Marian Darocha"," 9.30, 14.00; , 7.30, 11.00, 15.00"," 7.00, 18.00(17.00)","","","http://www.diecezja.rzeszow.pl/2015/05/straszydle/"
"Matki Bożej Królowej Polski","","","Strażów 229, 36-073 Strażów","","","17 771 18 78","Ks. mgr Edward Wnęk"," 7.30, 10.30, 16.00","zima 17.00; lato 18.00","","","http://www.diecezja.rzeszow.pl/2015/05/strazow/"
"Niepokalanego Poczęcia NMP i Bożego Ciała","","","Ul. Przekopna 1, 38-100 Strzyżów","strzyzowfara.parafia.info.pl","farastrzyzow@gmail.com","17 276 11 00","Ks. dr Jan Wolak","zima 6.30, 8.00, 9.30, 11.00, 12.30, 17.00; lato 6.30, 8.00, 9.30, 11.00, 12.30, 18.00; , 10.00,; , 8.30","zima 6.30, 7.00, 17.00; lato 6.30, 7.00, 18.00; , 15.00","","","http://www.diecezja.rzeszow.pl/2015/05/strzyzow-niepokalanego-poczecia-nmp-fara/"
"Św. Józefa Sebastiana Pelczara","","","Pl. Jana Pawła II, 1, 38-100 Strzyżów","","","17 276 18 62","Ks. mgr Mieczysław Piróg"," 6.30, 8.30, 10.00, 11.30, 16.00"," 6.30, 18.00(17.00)","","","http://www.diecezja.rzeszow.pl/2015/05/strzyzow-sw-jozefa-sebastiana-pelczara/"
"Św. Michała Archanioła","","","Styków 110, 36-060 Głogów Młp.","","","17 851 66 59","Ks. Wojciech Baran"," 8.00, 10.00, (W.Post , V, X, godz. 15.00)"," 18.00 (17.00), soboty 8.00","","","http://www.diecezja.rzeszow.pl/2015/04/stykow/"
"Św. Marcina","","","Szebnie 45, 38-203 Szebnie","www.szebnie.parafia.info.pl","","13 442 86 30","Ks. mgr Wacław Rybka"," 7.30, 8.15, 9.30, 11.00, 15.30"," 7.00, 18.00 (17.00)","","","http://www.diecezja.rzeszow.pl/2015/04/szebnie/"
"Matki Bożej Ostrobramskiej","","","Szufnarowa 104, 38-124 Wiśniowa","www.parafiaszufnarowa.jor.pl","","17 277 51 38","Ks. mgr Jan Ziemiński"," 7.00, 11.00"," 7.00, 18.00(17.00)   środa, piątek)","","","http://www.diecezja.rzeszow.pl/2015/05/szufnarowa/"
"Św. Anny","","","Święcany 7, 38-242 Skołyszyn","","","13 449 50 04","Ks. mgr Marek Mnich"," 10.15; , 9.00; , 10.15; , 7.30; 11.30;"," 7.00, 18.00 (7.00, 16.30)","","","http://www.diecezja.rzeszow.pl/2015/04/swiecany/"
"Wniebowzięcia NMP","","","Świlcza 134, 36-072 Świlcza,","www.parafiaswilcza.prv.pl","","17 856 06 33","Ks. mgr Antoni Czerak"," 9.00, 12.00; , 12.00; , 7.30, 10.30, 16.00"," 17.00 zima 18.00   czas letni","","","http://www.diecezja.rzeszow.pl/2015/05/swilcza/"
"Narodzenia NMP","","","Tarnowiec 38, 38-204 Tarnowiec","www.sanktuariumtarnowiec.parafia.info.pl","tarnowiec@rzeszow.opoka.org.pl","13 442 42 52","Ks. mgr Jerzy Uchman"," 7.00, 10.00, 11.30, 16.30","lato 7.00, 18.00; zima 7.00, 17.00","","","http://www.diecezja.rzeszow.pl/2015/04/tarnowiec/"
"Matki Bożej Fatimskiej","","","Terliczka 158, 36-001 Trzebownisko","www.terliczka.pl","terliczka@kapucyni.pl","17 772 17 28","O. mgr Robert Kozłowski OFM Cap."," 8.00, 10.30, 16.00","zima 17.00; lato 18.00","","","http://www.diecezja.rzeszow.pl/2015/04/terliczka/"
"Św. Wawrzyńca i Matki Bożej Niepokalanej","","","Trzciana k/Rzeszowa 140, 36-071 Trzciana","parafia.trzciana.com.pl","","17 851 40 95","Ks. dr Janusz Winiarski"," 7.00, 9.00, 11.00, 18.00 (17.00)","zima 7.00, 17.00; lato 7.00, 18.00","","","http://www.diecezja.rzeszow.pl/2015/05/trzciana/"
"Przemienienia Pańskiego i św. Doroty","","","Trzcinica 103, 38-207 Przysieki","trzcinica.republika.pl","parafia.trzcinica@onet.eu","13 442 90 80","Ks. Stanisław Bałucki"," 8.00; 10.30; 12.00; 16.00","lato 19.00; zima 17.00","","","http://www.diecezja.rzeszow.pl/2015/04/trzcinica/"
"Opatrzności Bożej","","","Trzeboś, ul. Kościelna 12, 36-050 Sokołów Młp.","www.parafia-trzebos.yoyo.pl","","17 772 73 31","Ks. mgr lic. Józef Fila"," 9.00; , 7.00; 10.30; 15.00"," 6.30, 18.00 (17.00)","","","http://www.diecezja.rzeszow.pl/2015/05/trzebos/"
"Św. Wojciecha i Niepokalanego Poczęcia NMP","","","Trzebownisko 995, 36-001 Trzebownisko","www.parafia.trzebownisko.pl/","kancelaria@parafia.trzebownisko.pl","17 772 26 08","Ks. mgr lic. Ryszard Miśniak"," 7.00, 9.00, 11.00, 16.00","lato 7.00, 18.00; zima 7.00, 17.00","","","http://www.diecezja.rzeszow.pl/2015/04/trzebownisko/"
"Św. Anny","","","Trzęsówka 237, 36-106 Trzęsówka","www.parafia.trzesowka.org","","17 779 83 91","Ks. mgr Stanisław Majda"," 7.00, 9.00, 11.00, 15.00","lato 18.00; zima 17.00","","","http://www.diecezja.rzeszow.pl/2015/04/trzesowka/"
"Św. Katarzyny","","","ul. Mickiewicza 10, 36-020 Tyczyn","","","17 229 17 37","Ks. dr Marian Czenczek"," 7.00; 9.00; 10.30, 12.00, 16.00","lato 6.30; 18.00; zima 6.30; 17.00","","","http://www.diecezja.rzeszow.pl/2015/05/tyczyn/"
"Św. Jana Kantego","","","Ustrobna 3, 38-406 Odrzykoń,","www.ustrobna.pl","","13 431 16 92","Ks. mgr Artur Progorowicz"," 7.30; 11.00; 16.00; , 9.00","","","","http://www.diecezja.rzeszow.pl/2015/04/ustrobna/"
"Św. Wawrzyńca","","","Warzyce 251, 38-200 Jasło","","","13 446 88 21","Ks. Kazimierz Brzyski"," 8.30, 16.00; , 7.30, 9.30, 11.00, 17.00"," 18.00 (17.00)","","","http://www.diecezja.rzeszow.pl/2015/04/warzyce/"
"Św. Maksymiliana Kolbe","","","Werynia 114, 36-100 Kolbuszowa","www.parafiawerynia.webd.pl","","17 227 16 62","Ks. mgr Jarosław Depczyński","w ciągu roku, 8.00, 10.00, 15.00","lato 6.30, 18.00; zima 6.30, 17.00","","","http://www.diecezja.rzeszow.pl/2015/04/werynia/"
"Matki Bożej Królowej Polski","","","Widełka 175, 36-145 Widełka","www.parafia.widelka.pl","widelka@rzeszow.opoka.org.pl","17 22 74 311","Ks. mgr Lucjan Kot"," 9.00 (W. Post 13.00); , 7.30; 10.30; 16.00"," 18.00 (16.00)","","","http://www.diecezja.rzeszow.pl/2015/04/widelka/"
"Wniebowzięcia NMP","","","Wielopole Skrzyńskie 242,, 
39-110 Wielopole Skrzyńskie, tel. 17 221 48 67","www.parafia.wielopole-skrz.pl","parafia@wielopole-skrz.pl","17 221 48 67","Ks. mgr Jerzy Sepioł"," 7.00, 9.00, 11.00, 16.00","lato 7.00, 18.00; zima 6.45, 17.00","","","http://www.diecezja.rzeszow.pl/2015/05/wielopole-skrzynskie/"
"NMP Królowej Świata","","","Wiśniowa 189 A, 38-124 Wiśniowa","","marek.matera@onet.pl","17 277 50 80","Ks. mgr Marek Matera"," 8.00, 10.30, 16.00","w zależności od pory roku, 7.00, środa i piątek   18.00(16.30)","","","http://www.diecezja.rzeszow.pl/2015/04/wisniowa/"
"Świętej Trójcy i Podwyższenia Krzyża Świętego","","","Wola Rafałowska 215a, 36-017 Błędowa Tyczyńska","","","17 229 66 24","Ks. mgr Jerzy Rusin"," 7.10, 10.30, 15.15"," 18.00 (16.00 X-II, 17.00   III, IV, X)","","","http://www.diecezja.rzeszow.pl/2015/05/wola-rafalowska/"
"Matki Bożej Królowej Polski","","","Wola Zgłobieńska 65, 36-046 Zgłobień","","","17 871 61 74","Ks. Stanisław Buszta"," 8.30, 10.30","lato 18.00; zima 17.00","","","http://www.diecezja.rzeszow.pl/2015/04/wola-zglobienska/"
"Św. Bartłomieja Apostoła","","","Wójtowa 47, 38-305 Lipinki","","","13 447 73 42","Ks. mgr Władysław Uchman","lato 8.00, 10.30, 16.00; zima 8.00, 10.30,15.00"," 7.00 lub 18.00(17.00)","","","http://www.diecezja.rzeszow.pl/2015/04/wojtowa/"
"Matki Bożej Królowej Polski","","","Wólka Niedźwiedzka 99, 36-050 Sokołów Młp.","www.wolkaniedzwiedzka.pl","szwanek@interia.eu","17 772 80 60","Ks. mgr Stanisław Szwanenfeld"," 8.00; 10.30; 12.30 (14.00 W. Post)"," 7.00; maj i październik, 18.00","","","http://www.diecezja.rzeszow.pl/2015/05/wolka-niedzwiedzka/"
"Św. Jadwigi Królowej","","","Wólka Podleśna 334, 36-002 Jasionka,","","","17 771 45 57","Ks. mgr lic. Waldemar Dopart"," 7.30, 10.30, 16.00","lato 18.00; zima 17.00","","","http://www.diecezja.rzeszow.pl/2015/04/wolka-podlesna/"
"Matki Bożej Różańcowej","","","Wysoka Głogowska 313, 36-061 Wysoka Głogowska","www.wysokaglogowska.pl","wysokaglogowska@poczta.onet.pl","17 772 64 06,","Ks. mgr Zbigniew Gargaś"," 7.00, 9.00, 11.00, 16.00"," 7.00, 19.00 (17.00)","","","http://www.diecezja.rzeszow.pl/2015/04/wysoka-glogowska/"
"Św. Józefa","","","Wysoka Strzyżowska 241, 38-123 Wysoka Strzyżowska","www.wysokastrzyz.rzeszow.opoka.org.pl/","","17 276 70 13","Ks. mgr Marian Raźnikiewicz"," 10.00; , 7.00, 8.30, 11.30, 15.00 (Wlk. Post), 16.30","X   IV, 16.30; V- IX, 18.00","","","http://www.diecezja.rzeszow.pl/2015/05/wysoka-strzyzowska/"
"Matki Bożej Wspomożenia Wiernych","","","Wyżne 38, 38-120 Czudec","","","17 277 11 42","Ks. mgr Piotr Fortuna"," 9.00; , 7.30, 11.00 W Wielkim Poście 15.00. Nie ma Mszy św. o 11.00","lato 18.00; zima 17.00","","","http://www.diecezja.rzeszow.pl/2015/04/wyzne/"
"Wszystkich Świętych","","","Zabierzów-Racławówka 282, 36-047 Niechobrz","raclawowka-zabierzow.pl","","17 850 16 78","Ks. mgr Ryszard Kołodziej"," 7.30, 9.00, 11.00, 15.00"," 17.00 lub 18.00","","","http://www.diecezja.rzeszow.pl/2015/04/zabierzow/"
"Matki Bożej Królowej Polski","","","Zaborów 69, 38-100 Strzyżów,","","","17 277 15 52","Ks. mgr Wacław Potyrała"," 8.00, 11.00,16.00(15.00)","lato 18.00; zima 17.00","","","http://www.diecezja.rzeszow.pl/2015/05/zaborow/"
"Matki Bożej Różańcowej","","","Zabratówka 44, 36-017 Błędowa Tyczyńska","","","17 229 65 50","Ks. mgr Stanisław Orszak"," 7.30, 10.30, 15.00(I niedz. miesiaca, oraz Wielki","lato 19.00; zima 17.00","","","http://www.diecezja.rzeszow.pl/2015/05/zabratowka/"
"Narodzenia NMP","","","Zaczernie 732, 36-062 Zaczernie","www.zaczernie.rzeszow.opoka.org.pl","zaczernie@rzeszow.opoka.org.pl","17 859 66 98","Ks. Piotr Szczupak"," 7.00, 8.45, 10.30, 12.00, 17.00","zima 6.30, 17.00; lato 6.30, 18.00","","","http://www.diecezja.rzeszow.pl/2015/04/zaczernie/"
"ŚŚ. Apostołów Piotra i Pawła","","","Zagorzyce 224, 39-126 Zagorzyce","","","17 745 27 07 prob.","Ks. mgr Dariusz Konieczny"," 7.00, 8.45, 11.45; , 10.15"," 7.00","","","http://www.diecezja.rzeszow.pl/2015/05/zagorzyce/"
"Niepokalanego Serca NMP","","","Zagorzyce Dolne 45, 39-126 Zagorzyce","","","17 221 63 78","Ks. mgr Wojciech Wiśniowski"," .8.00, 10.30, 16.00"," 7.00 (pn.   śr.) 18.00 (17.00) (czw.   sob)","","","http://www.diecezja.rzeszow.pl/2015/05/zagorzyce-dolne/"
"Św. Jana Chrzciciela","","","Załęże 4, 38-223 Osiek Jasielski","zalezej.rzeszow.opoka.org.pl","zalezej@rzeszow.opoka.org.pl","13 442 00 67","Ks. mgr lic. Józef Pańczuk"," 7.30, 11.00","lato 18.00; zima 17.00; , 17.00 (16.00)","","","http://www.diecezja.rzeszow.pl/2015/05/zaleze-k-jasla/"
"NMP Matki Kościoła","","","Zarębki 69, 36-100 Kolbuszowa","","","17 779 00 64","Ks. mgr Marek Prajsnar"," 7.30, 10.00, 16.00"," 18.00(17.00)","","","http://www.diecezja.rzeszow.pl/2015/04/zarebki/"
"Miłosierdzia Bożego","","","Zawadka Osiecka 173, 38-223 Osiek Jasielski","","","13 442 09 05","Ks. mgr Andrzej Buchowski"," 8.00, 11.00","zima 17.00; lato 17.30","","","http://www.diecezja.rzeszow.pl/2015/04/zawadka-osiecka/"
"Św. Andrzeja Apostoła","","","Zgłobień 86, 36-046 Zgłobień","","","17 871 60 21","Ks. mgr Marian Cebula","lato 8.00, 1100, 15.00,","lato 18.00; zima 17.00","","50.0071818,21.844521449999995","http://www.diecezja.rzeszow.pl/2015/04/zglobien/"
"Św. Maksymiliana Kolbe","","","Żarnowa 111, 38-100 Strzyżów","","","17 276 15 43","Ks. Tadeusz Pieniążek"," 8.30, 9.00, 11.00,","lato 7.30, 18.00; zima 7.30, 17.00","","","http://www.diecezja.rzeszow.pl/2015/05/zarnowa/"
"Przemienienia Pańskiego","","","Żyznów 238, 38-111 Żyznów","","","17 276 52 14","Ks. mgr Stanisław Piątek"," 9.30; Wielki Post, 7.30, 15.00; lato 7.30, 11.00","lato 18.00; zima 17.00","","","http://www.diecezja.rzeszow.pl/2015/05/zyznow/"
