"name","postal","city","address","www","email","phone","rector","sun","week","fest","latlng","url"
"Świętych Kosmy i Damiana MM","","38-313 Śnietnica","Banica 35,, 38-313 Śnietnica","www.parafiabanica.pl","banica@diecezja.tarnow.pl","18 35-16-524","ks. mgr Tadeusz Świderski","8:00, 11:00, Izby 9:30","7:00","","","http://www.diecezja.tarnow.pl/index.php/schematyzm/84-informacje-o-parafiach-w-diecezji/b/736-banica"
"Najśw. Maryi Panny Wniebowziętej","","33-342 Barcice 27","33-342 Barcice 27","http://www.barcice.diecezja.tarnow.pl","barcice@diecezja.tarnow.pl","18 44-66-016","ks. mgr Andrzej Kędryna","7:00, 9:00, 10:30, 12:00, 18:00 (17:00 - czas zimowy)","6:30, 18:00 (17:00 - czas zimowy)","","","http://www.diecezja.tarnow.pl/index.php/schematyzm/b/735-barcice"
"Matki Bożej Nieustającej Pomocy","","33-380 Krynica-Zdrój, Berest 22,","33-380 Krynica-Zdrój, Berest 22,","","berest@diecezja.tarnow.pl","18 47-11-776","ks. mgr Stanisław Kądziołka","7:15, 11:00, Polany 9:30","7:10, śr., pt. 18:00","","","http://www.diecezja.tarnow.pl/index.php/schematyzm/b/734-berest"
"Najświętszego Serca Pana Jezusa","","32-828 Biadoliny Szlacheckie,","Biadoliny Radłowskie 283, 32-828 Biadoliny Szlacheckie,","http://www.biadoliny.diecezja.tarnow.pl","biadoliny@diecezja.tarnow.pl","14 679-15-25","ks. mgr Antoni Gieroń","7:30, 9:30, 11:00, 16:00, ","6:30, 18.00, od X do IV Msza św. z 18.00 przeniesiona na godz.17.00",": 7:30, 10:00, 18:00","","http://www.diecezja.tarnow.pl/index.php/schematyzm/b/733-biadoliny"
"Matki Bożej Różańcowej","","Biała Niżna 394, 33-330 Grybów,","Biała Niżna 394, 33-330 Grybów,","","biala_nizna@diecezja.tarnow.pl","18- 44-50-517","ks. Tadeusz Skwarek SAC","7:00, 9:00, 11:00, 15:30","7:00, 18:00","","","http://www.diecezja.tarnow.pl/index.php/schematyzm/b/732-biala-nizna"
"Matki Bożej Anielskiej","","32-824 Bielcza 47,","32-824 Bielcza 47,","http://www.bielcza.diecezja.tarnow.pl","bielcza@diecezja.tarnow.pl","14- 68-47-650","ks. mgr lic. Tadeusz Kubala","7:30, 10:30, 17:00","6:30, 18:30 (17:00)","","","http://www.diecezja.tarnow.pl/index.php/schematyzm/b/731-bielcza"
"Św. Mateusza Ap. Ew.","","Biesiadki 16, 32-864 Gnojnik,","Biesiadki 16, 32-864 Gnojnik,","","biesiadki@diecezja.tarnow.pl","14-68-60-194","Ks. mgr Kazimierz Sroka","7:00, 9:30, 11:00","7:00, nadto śr., pt. 18:00 (czas zimowy 17:00)","","","http://www.diecezja.tarnow.pl/index.php/schematyzm/b/730-biesiadki"
"św. Stanisława BM","","Binczarowa 27, 33-332 Florynka,","Binczarowa 27, 33-332 Florynka,","","binczarowa@diecezja.tarnow.pl","18-44-71-613","ks. mgr Zdzisław Jewiarz SCJ","7:30, 9:15, 11:00, nieszpory 15:00","7:00, 18:00","","","http://www.diecezja.tarnow.pl/index.php/schematyzm/b/729-binczarowa"
"Najśw. Maryi Panny Częstochowskiej","","Biskupice Radłowskie 274, 33-130 Radłów,","Biskupice Radłowskie 274, 33-130 Radłów,","http://www.biskupice_radlowskie.diecezja.tarnow.pl","biskupice_radlowskie@diecezja.tarnow.pl","14- 67-81-598","ks. mgr Grzegorz Żyrkowski","7:30, 10:00, 16:00","7:00, 18:00","","","http://www.diecezja.tarnow.pl/index.php/schematyzm/b/728-biskupice-radlowskie"
"Wszystkich świętych","","38-350 Bobowa 20,","38-350 Bobowa 20,","http://www.parafia.bobowa.pl","bobowa_par@diecezja.tarnow.pl","18- 35-14-062","Ks. mgr Marian Jedynak","7.00, 8.30, 10.00, 11.30, 14.00, 17.00","6.00, 6.30, 18.00 (w zimie 17.00), w wakacje 6.15, 18.00","","","http://www.diecezja.tarnow.pl/index.php/schematyzm/b/726-bobowa"
"św. Jana Nepomucena","","32-700 Bochnia,","ul. Ks. St. Wójtowicza 20, 32-700 Bochnia,","http://www.nepomucen.diecezja.tarnow.pl","bochnia2@diecezja.tarnow.pl","14- 61-25-253, 14-61-24-621","Ks. mgr Kazimierz Kapcia","6:30, 8:00, 10:00, 11:30, 15:15, 17:30","6:30, 7:00, 17:30","","","http://www.diecezja.tarnow.pl/index.php/schematyzm/b/724-bochnia-sw-jana-nepomucena"
"św. Mikołaja B.","","32-700 Bochnia,","Pl. św. Kingi 9,, 32-700 Bochnia,","mikolaj.bochnia.iap.pl","bochnia1@diecezja.tarnow.pl","14- 61-23-417","vacat","6:00, 7:30, 9:00, 10:30, 12:00, 14:30, 18:00, 19:30","6:00, 6:30, 7:00, 8:00, 9:00, 19:00 (IX-IV 18:00)","","","http://www.diecezja.tarnow.pl/index.php/schematyzm/b/725-bochnia-sw-mikolaja-bpa"
"św. Pawła Apostoła","","32-700 Bochnia,","ul. Wyspiańskiego 25,, 32-700 Bochnia,","http://www.pawel.bochnia.diecezja.tarnow.pl/","bochnia3@diecezja.tarnow.pl","14- 61-24-265,","ks. mgr Jan Nowakowski","6:30, 8:00, 9:30, 11:00 12:30, 17:00","6:30, 7:00, 18:00","","","http://www.diecezja.tarnow.pl/index.php/schematyzm/b/723-bochnia-sw-pawla-apostola"
"Najśw. Maryi Panny Częstochowskiej","","33-121 Bogumiłowice 293,","33-121 Bogumiłowice 293,","http://www.bogumilowice.diecezja.tarnow.pl","bogumilowice@diecezja.tarnow.pl","14 - 67-52-401","Ks. Wiesław Jemioło","9:00, 11:00","6:30, śr., pt. 18:00","","","http://www.diecezja.tarnow.pl/index.php/schematyzm/b/722-bogumilowice"
"","","33-334 Kamionka Wielka, Bogusza 55","33-334 Kamionka Wielka, Bogusza 55","","","18-445-65-87","ks. mgr Józef Nowak","dni powszednie","Odpust parafialny","","","http://www.diecezja.tarnow.pl/index.php/schematyzm/84-informacje-o-parafiach-w-diecezji/b/2159-bogusza"
"św. Wojciecha BM","","33-220 Bolesław 33,","33-220 Bolesław 33,","","boleslaw@diecezja.tarnow.pl","14 - 641-50-13","ks. mgr Józef Radłowski","7:30, 9:00, 11:00, 15:00, Pawłów 10:00","7:00, 18:00 (16:00)","","","http://www.diecezja.tarnow.pl/index.php/schematyzm/b/721-boleslaw"
"Najświętszego Serca Pana Jezusa","","Borek 225, 32-765 Rzezawa,","Borek 225, 32-765 Rzezawa,","www.parafiaborek.pl","borek@diecezja.tarnow.pl","14- 61-29-854","ks. mgr Kazimierz Świętek","8:00, 10:30, 15:00 (IX-VI) w Wlk. Poście, maju i październiku 15:30","6:30, pt. 18:00 (17:00)","","","http://www.diecezja.tarnow.pl/index.php/schematyzm/b/720-borek"
"Matki Bożej Fatimskiej-Różańcowej","","33-230 Borki 173,","33-230 Borki 173,","www.borki.diecezja.tarnow.pl","borki@diecezja.tarnow.pl","14- 643-12-60","ks. mgr Józef Jeziorek","8:00, 11:00, 15:00","6:30, V-VI 6:30, 18:00, X-XI 6:30, 17:00","","","http://www.diecezja.tarnow.pl/index.php/schematyzm/b/719-borki"
"Najśw. Maryi Panny Częstochowskiej","","Borowa 116, 39-215 Czarna,","Borowa 116, 39-215 Czarna,","","borowa1@diecezja.tarnow.pl","14- 68-20-577","ks. Jan Wierzba","8:00, 11:00, 15:00","7:00, śr., czw., pt. 18:00 (16:30)","","","http://www.diecezja.tarnow.pl/index.php/schematyzm/b/718-borowa"
"św. Mikołaja B.","","39-305 Borowa k. Mielca 273,","39-305 Borowa k. Mielca 273,","","borowa2@diecezja.tarnow.pl","17 - 58-15-578","ks. mgr Stanisław Polek","6:30, 7:45, 9:00, 11:00, 17:00, Gliny 7:30, 9:30","6:45, 19:00 (17:00), Gliny 18:00","","","http://www.diecezja.tarnow.pl/index.php/schematyzm/b/717-borowa-sw-mikolaja-bpa"
"Podwyższenia Krzyża św.","","Hubenice 60, 33-262 Borusowa,","Hubenice 60, 33-262 Borusowa,","","borusowa@diecezja.tarnow.pl","14- 64-16-509","ks. mgr Marian Kujda","7:00, 9:00, 16:00","7:00 lub 9:00","","","http://www.diecezja.tarnow.pl/index.php/schematyzm/b/716-borusowa"
"Narodzenia Najśw. Maryi Panny","","32-825 Borzęcin 592,","32-825 Borzęcin 592,","http://www.borzecin.diecezja.tarnow.pl/","borzecin@diecezja.tarnow.pl","14- 68-46-014","ks. mgr Czesław Paszyński","6:45, 9:00, 10:30, 12:00, 16:30, Łazy 7:30","6:00, 6:30, 18:00","","","http://www.diecezja.tarnow.pl/index.php/schematyzm/b/715-borzecin"
"Najśw. Maryi Panny Królowej Polski","","Borzęcin Dolny 315, 32-825 Borzęcin,","Borzęcin Dolny 315, 32-825 Borzęcin,","http://www.borzecindolny.diecezja.tarnow.pl/","borzecin_dolny@diecezja.tarnow.pl","14- 68-46-660","ks. mgr Marek Obrzut","7:30, 10:30, 15:00","6:30 w środę nowenna 17.00 i /18.00 lato/","","","http://www.diecezja.tarnow.pl/index.php/schematyzm/b/714-borzecin-dolny"
"","","33--140 Lisia Góra","Breń 16c , 33--140 Lisia Góra","","bren@diecezja.tarnow.pl","kom. 503-808-256","ks. mgr Czesław Mazur","8:00, 10:30, 15:00","7:00 (środa i piątek 18:00 [czas zimowy 17:00])","","","http://www.diecezja.tarnow.pl/index.php/schematyzm/84-informacje-o-parafiach-w-diecezji/b/2160-bren"
"Najśw. Maryi Panny Wniebowziętej","","Brunary 45, 38-313 śnietnica","Brunary 45, 38-313 śnietnica","","brunary@diecezja.tarnow.pl","18- 35-16-776","ks. Józef Bąk","7:30, 11:00, Czarna 9:30","7:30 lub 17:00 (16:00)","","","http://www.diecezja.tarnow.pl/index.php/schematyzm/b/713-brunary"
"Najśw. Maryi Panny Wniebowziętej","","33-192 Bruśnik 41,","33-192 Bruśnik 41,","www.brusnik.parafia.info.pl","brusnik@diecezja.tarnow.pl","14 -65-46-098","Ks. Sylwester Krużel","7:00, 8;45, 16:00, Siekierczyna 10:00, Falkowa 11:00","7:00, 17:00 (16:00)","","","http://www.diecezja.tarnow.pl/index.php/schematyzm/b/712-brusnik"
"Miłosierdzia Bożego","","32-800 Brzesko,","ul. Jana Pawła II 2, 32-800 Brzesko,","http://www.milosierdzie.brzesko.net.pl/","mb@brzesko.net.pl","14- 66-30-147, 14-68-62-440","ks. mgr Wojciech Werner","7:00, 8:30, 10:00, 11:30, 15:15, 17:00, 19:00","6:30, 7:00, 18:00","","","http://www.diecezja.tarnow.pl/index.php/schematyzm/b/710-brzesko-milosierdzia-bozego"
"Najśw. Maryi Panny Matki Kościoła i św. Jakuba Ap.","","32-800 Brzesko,","ul. Głowackiego 2, 32-800 Brzesko,","http://www.jakub.bwi.pl","brzesko1@diecezja.tarnow.pl","14-68-63-705","ks. mgr Józef Drabik","6:00, 7:30, 9:00, 10:30, 12:00, 16:00, 19:00, kośc. Ducha świętego 10:00","6:00, 6:30, 7:00, 8:00, 19:00 (18:00)","","","http://www.diecezja.tarnow.pl/index.php/schematyzm/b/711-brzesko-sw-jakuba-ap"
"Matki Bożej Częstochowskiej","","32-800 Brzesko,","ul. Kołłątaja 8,, 32-800 Brzesko,","http://www.parafia-slotwina.pl","brzesko_slotwina@diecezja.tarnow.pl","14- 66-30-729","ks. mgr Kazimierz Grych","7:00, 10:00, 18:00","wt, czw, sb 7:00, pn, śr, pt 18:00","","","http://www.diecezja.tarnow.pl/index.php/schematyzm/b/709-brzesko-slotwina"
"Najświętszego Ciała i Krwi Pana Jezusa","","Brzezna 323, 33-386 Podegrodzie,","Brzezna 323, 33-386 Podegrodzie,","www.parafia-brzezna.pl","brzezna@diecezja.tarnow.pl","18- 44-58-505","Ks. mgr Stanisław Posłuszny","8:30, 10:30, 16:30, Strzyganiec 7:00, 12:00","18:15 (7:00), Strzyganiec 17:30 (17:00)","","","http://www.diecezja.tarnow.pl/index.php/schematyzm/b/708-brzezna"
"Narodzenia św. Jana Chrzciciela","","39-207 Brzeźnica Dębicka 82,","39-207 Brzeźnica Dębicka 82,","www.parafiabrzeznica.pl","brzeznica2@diecezja.tarnow.pl","14- 68-20-213,","ks. mgr Piotr Karwat","7:00, 9:00, 11:00, 16:00","7:00, 17:00","","","http://www.diecezja.tarnow.pl/index.php/schematyzm/b/706-brzeznica-narodzenia-sw-jana-chrzciciela"
"św. Stanisława BM","","Brześnica 119, 32-700 Bochnia,","Brześnica 119, 32-700 Bochnia,","http://www.brzeznica.info/","brzeznica1@diecezja.tarnow.pl","14- 68-51-610","Ks. mgr Józef Hołyst","7:00, 9:00, 11:30, 15:30","7:00 śr. 18:00, (16:00)","","","http://www.diecezja.tarnow.pl/index.php/schematyzm/b/707-brzeznica"
"św. Mikołaja B","","33-182 Brzozowa 1,","33-182 Brzozowa 1,","http://www.brzozowa.diecezja.tarnow.pl","brzozowa@diecezja.tarnow.pl","14 -651-61-02","ks. mgr Stanisław Wojtas","7:00, 9:00, 11:00, w niedziele Wielkiego Postu, w maju i paśdzierniku o godz. 7.30, 11.00 i 15.30","7:00 lub 17:00","","","http://www.diecezja.tarnow.pl/index.php/schematyzm/b/705-brzozowa"
"Najśw. Maryi Panny Wniebowziętej","","Brzozówka 171, 33-140 Lisia Góra,","Brzozówka 171, 33-140 Lisia Góra,","","brzozowka@diecezja.tarnow.pl","14-678-47-70","o. mgr Piotr Pacura SNMN","7:30, 10:00","17:00 (18:00)","","","http://www.diecezja.tarnow.pl/index.php/schematyzm/b/704-brzozowka"
"św. Maksymiliana M. Kolbego","","Buchcice 39, 33-170 Tuchów,","Buchcice 39, 33-170 Tuchów,","","buchcice@diecezja.tarnow.pl","14 691 95 20","ks. mgr Marek Wojnarowski","7:30 (8:00), 10:00 (10:30)","7:00, pn., śr., pt. 18:00","","","http://www.diecezja.tarnow.pl/index.php/schematyzm/b/703-buchcice"
"Matki Bożej Nieustającej Pomocy","","Bucze 99, 32-800 Brzesko,","Bucze 99, 32-800 Brzesko,","http://www.bucze.diecezja.tarnow.pl","bucze@diecezja.tarnow.pl","14- 68-68-810","ks. mgr Ryszard Pluta","7:00, 10:30, 15:00 (z nieszporami)","7:00, śr. 17:00","","","http://www.diecezja.tarnow.pl/index.php/schematyzm/b/702-bucze"
"Niepokalanego Serca Najśw. Maryi Panny","","Bukowiec 10, 33-323 Lipnica Wielka,","Bukowiec 10, 33-323 Lipnica Wielka,","","bukowiec@diecezja.tarnow.pl","18- 44-17-430","ks. Janusz Ul","8:00, 10:30, 16:00","7:00","","","http://www.diecezja.tarnow.pl/index.php/schematyzm/b/701-bukowiec"
"św. Józefa","","Burzyn 134, 33-170 Tuchów,","Burzyn 134, 33-170 Tuchów,","","burzyn@diecezja.tarnow.pl","14- 652-32-14","ks. mgr Andrzej Pecka","8:00, 10:30, 16:00 (15:00)","7:00, śr., czw., pt. 17:00 (18:30)","","","http://www.diecezja.tarnow.pl/index.php/schematyzm/b/700-burzyn"
"św. Józefa Oblubieńca NMP","","38-317 Bystra k. Gorlic 144,","38-317 Bystra k. Gorlic 144,","","bystra@diecezja.tarnow.pl","18-35-13-161","ks. Stanisław Leśniak","7:30, 10:30, 16:00","6:30, 7:00","","","http://www.diecezja.tarnow.pl/index.php/schematyzm/b/699-bystra"
"Najświętszego Serca Pana Jezusa","","Błonie 80, 33-113 Zgłobice,","Błonie 80, 33-113 Zgłobice,","","blonie@diecezja.tarnow.pl","14-67-43-092","Ks. mgr Tomasz Sowa","7:30, 10:30","18:00","","","http://www.diecezja.tarnow.pl/index.php/schematyzm/b/727-blonie"
"św. Wawrzyńca M","","Cerekiew 6, 32-711 Bogucice,","Cerekiew 6, 32-711 Bogucice,","","cerekiew@diecezja.tarnow.pl","14- 67-17-120","ks. mgr Józef Sadowski","7:30, 11:00, 16:00 (15:00) Wrzępia 8:30, 10:00","6:30, pt., sob. 19:00 (17:00)","","","http://www.diecezja.tarnow.pl/index.php/schematyzm/c/226-cerekiew"
"Narodzenia św. Jana Chrzciciela","","Chełm 1, 32-744 Łapczyca,","Chełm 1, 32-744 Łapczyca,","http://www.chelm.diecezja.tarnow.pl","chelm@diecezja.tarnow.pl","14- 61-27-066","ks. mgr Andrzej Krajewski","7:30, 10:30, 15:00, ","7:00 lub 18:30",": 9:00, 18:00","","http://www.diecezja.tarnow.pl/index.php/schematyzm/c/227-chelm"
"Najśw. Maryi Panny Częstochowskiej","","Chojnik 270, 33-180 Gromnik,","Chojnik 270, 33-180 Gromnik,","","chojnik@diecezja.tarnow.pl","14- 65-14-169","ks. Stanisław Stec","7:30, 10:30, 15:00 ","7:00 - pon, wt, czw, sobota, 17: 00 (18:00)- śr, pt",": 7:30, 17:00,","","http://www.diecezja.tarnow.pl/index.php/schematyzm/c/228-chojnik"
"Imienia Najśw. Maryi Panny","","Chomranice 8, 33-394 Klęczany,","Chomranice 8, 33-394 Klęczany,","","chomranice@diecezja.tarnow.pl","18- 44-33-608","ks. mgr Stanisław Pachowicz","7:00, 9:00, 11:00, 15:30 z nieszporami","6:30, 17:00 (16:00)","","","http://www.diecezja.tarnow.pl/index.php/schematyzm/c/229-chomranice"
"Wszystkich świętych","","39-331 Chorzelów 377,","39-331 Chorzelów 377,","","chorzelow@diecezja.tarnow.pl","17- 58-41-418, 17- 58-41-363","ks. mgr Andrzej Rams","7:00, 9:00, 11:00, 16:00, Chrząstów 8:00, Ławnica 10:00","6:30, 18:00, Chrząstów pon., czw. 19:00, Ławnica wt., pt. 19:00","","","http://www.diecezja.tarnow.pl/index.php/schematyzm/c/230-chorzelow"
"Matki Bożej Bolesnej","","Chotowa 62, 39-217 Grabiny,","Chotowa 62, 39-217 Grabiny,","www.parafia.chotowa.com","chotowa@diecezja.tarnow.pl","14- 67-01-888","ks. Józef Majka","8:00, 10:00","7:00","","","http://www.diecezja.tarnow.pl/index.php/schematyzm/c/231-chotowa"
"Ducha świętego","","Chronów 16, 32-720 Nowy Wiśnicz,","Chronów 16, 32-720 Nowy Wiśnicz,","http://www.chronow.katolicki.eu","chronow@diecezja.tarnow.pl","14- 68-56-750","ks. Jan Malisz","7.30, 10.30; 15.00 (w maju, październiku i Wielkim Poście)","7.00, 18.00 w środy (17.00 w zimie)","","","http://www.diecezja.tarnow.pl/index.php/schematyzm/c/232-chronow"
"św. Franciszka z Asyżu","","Cieniawa 198, 33-333 Ptaszkowa,","Cieniawa 198, 33-333 Ptaszkowa,","parafiacieniawa.xaa.pl","cieniawa@diecezja.tarnow.pl","18- 44-51-713","Ks. dr Wacław Barnaś","7:30, 10:30, III, V, X 16:00","7:00, śr. 17:00, 18:00 lub 19:00","","","http://www.diecezja.tarnow.pl/index.php/schematyzm/c/233-cieniawa"
"Pana Jezusa Miłosiernego i św. Andrzeja Ap.","","33-190 Ciężkowice,","ul. św. Andrzeja 8,, 33-190 Ciężkowice,","http://www.ciezkowice.diecezja.tarnow.pl","ciezkowice@diecezja.tarnow.pl","14- 65-10-030","ks. mgr Jan Zając","7:00, 9:00, 10:15, 11:30, 16:00, Kipszna 8:00, Bogoniowice 14:00","6:30, 7:00, 18:00","","","http://www.diecezja.tarnow.pl/index.php/schematyzm/c/234-ciezkowice"
"św. Antoniego Padewskiego","","Cikowice 87, 32-700 Bochnia,","Cikowice 87, 32-700 Bochnia,","http://www.cikowice.tarnow.opoka.org.pl","cikowice@diecezja.tarnow.pl","14- 61-20-194","ks. dr Leszek Durlak","7:00,8:30,10:00,11:30,17:00(18:00) Damienice14:00(15:00),Stanisławice 15:30(16:30)","6:30, 18:00 (17:00)","","","http://www.diecezja.tarnow.pl/index.php/schematyzm/c/235-cikowice"
"Matki Bożej Nieustającej Pomocy","","39-215 Czarna,","ul. Spółdzielcza 32a,, 39-215 Czarna,","http://www.czarna.tarnow.opoka.org.pl/","czarna@diecezja.tarnow.pl","14-67-61-085","ks. Stanisław Janusz","7:00, 9:00, 11:00, 16:00","6:30, 18:00","","","http://www.diecezja.tarnow.pl/index.php/schematyzm/c/236-czarna"
"św. Marcina B.","","Czarny Potok 23, 33-390 Łącko,","Czarny Potok 23, 33-390 Łącko,","","czarny_potok@diecezja.tarnow.pl","18-44-79-444","ks. mgr Leszek Babraj","7:00, 9:00, 11:00, 16:00","6:30, 17:00 (18:00)","","","http://www.diecezja.tarnow.pl/index.php/schematyzm/c/237-czarny-potok"
"Narodzenia Najśw. Maryi Panny","","32-860 Czchów,","Rynek 1, 32-860 Czchów,","www.parafiaczchow.pl","czchow@diecezja.tarnow.pl","14- 66-36-060","ks. dr Ryszard Biernat","7:00, 9:00, 10:30, 19:00 (17:00), Kozieniec 12:00, Drużków 14:00","6:30, 19:00 (17:00)","","","http://www.diecezja.tarnow.pl/index.php/schematyzm/c/238-czchow"
"św. Klemensa PM","","39-304 Czermin 477,","39-304 Czermin 477,","http://www.czermin.diecezja.tarnow.pl/","czermin@diecezja.tarnow.pl","17- 58-43-524","ks. mgr Paweł Fałowski","7:00, 9:00, 10:30, 16:00, Kawęczyn 12:00","6:30, 7:00","","","http://www.diecezja.tarnow.pl/index.php/schematyzm/c/239-czermin"
"św. Marcina B. i MB Pocieszenia","","33-121 Czermna 101,","33-121 Czermna 101,","http://www.parafiaczermna.pl","czermna@diecezja.tarnow.pl","14-65-28-435","ks. Stanisław Madeja","7:00, 9:30, 11:30, 16:00","6:30, 18:00","","","http://www.diecezja.tarnow.pl/index.php/schematyzm/c/240-czermna"
"Niepokalanego Serca Najśw. Maryi Panny","","Czyrna 37, 33-380 Krynica-Zdrój","Czyrna 37, 33-380 Krynica-Zdrój","","czyrna@diecezja.tarnow.pl","18- 47-41-610","Ks. Adam Basista","8:00, 11:00, Piorunka 9:30","7:00, 17:00","","","http://www.diecezja.tarnow.pl/index.php/schematyzm/c/241-czyrna"
"Najśw. Maryi Panny Szkaplerznej","","33-200 Dąbrowa Tarnowska,","ul. Zamkowa 3,, 33-200 Dąbrowa Tarnowska,","http://www.dt.diecezja.tarnow.pl/","dabrowa_tarnowska@diecezja.tarnow.pl","14- 64-22-526","ks. mgr Stanisław Cyran","6:00, 8:00, 9:15, 11:00, 16:00, 18:00, stary kościół: 7:00, 10:00, 12:00, Oleśnica: 9:00","6:00, 6:30, 7:00, 18:00, stary kościół 6:30","","","http://www.diecezja.tarnow.pl/index.php/schematyzm/d/299-dabrowa-tarnowska"
"Matki Bożej Nieustającej Pomocy i św. Kazimierza","","Dąbrówka Wisłocka 130a, 39-315 Ruda","Dąbrówka Wisłocka 130a, 39-315 Ruda","","dabrowka_wislocka@diecezja.tarnow.pl","14- 68-36-608","ks. Stanisław Łukasik","8:00, 10:30","16:30","","","http://www.diecezja.tarnow.pl/index.php/schematyzm/d/300-dabrowka-wislocka"
"Przemienienia Pańskiego","","33-210 Olesno, Dąbrówki Breńskie 151 a","33-210 Olesno, Dąbrówki Breńskie 151 a","","dabrowki_brenskie@diecezja.tarnow.pl","14- 64-12-180","ks. mgr Wojciech Prus","dni powszednie","Odpust parafialny","","","http://www.diecezja.tarnow.pl/index.php/schematyzm/d/301-dabrowki-brenskie"
"Krzyża św. i Matki Bożej Bolesnej","","39-200 Dębica,","ul. 3. Maja 1,, 39-200 Dębica,","http://www.parkrzyzasw-debica.tarnow.opoka.org.pl/","debica5@diecezja.tarnow.pl","14- 681-42-80","ks. mgr Józef Wątroba","7:00, 8:30, 10:00, 11:30, 18:00","6:00, 6:30, 18:30 (18:00)","","","http://www.diecezja.tarnow.pl/index.php/schematyzm/d/303-debica-krzyza-sw-i-matki-bozej-bolesnej"
"Matki Bożej Anielskiej","","39-200 Dębica,","ul. Chopina 2, 39-200 Dębica,","http://www.parmba-debica.tarnow.opoka.org.pl","debica2@diecezja.tarnow.pl","14- 67-03-047","ks. mgr Jan Krupa","6:30, 8:00, 9:00, 10:30, 12:00, 14:00, 16:00, 18:00; kościół klasztorny 15:00","6:00, 6:30, 7:00, 8:00, 18:00; kościół klasztorny 7:30","","","http://www.diecezja.tarnow.pl/index.php/schematyzm/d/305-debica-matki-bozej-anielskiej"
"Miłosierdzia Bożego","","39-200 Dębica,","ul. Mickiewicza 2,, 39-200 Dębica,","http://www.milosierdzie.debica.pl/","debica1@diecezja.tarnow.pl","14- 68-12-401,","ks. mgr Józef Dobosz","6:30, 8:00, 9:30, 11:00, 13:00, 15:00, 18:00","6:00, 6:30, 7:00, 18:00","","","http://www.diecezja.tarnow.pl/index.php/schematyzm/d/304-debica-milosierdzia-bozego"
"św. Jadwigi","","39-200 Dębica,","ul. św. Jadwigi 9,, 39-200 Dębica,","http://www.swjadwiga.info","debica3@diecezja.tarnow.pl","14- 68-33-445","ks. mgr Ryszard Piasecki","6:00, 7:30, 9:00, 10:30, 12:00 14:00, 17:00, 19:00 (w wakacje również o 20:00)","6:00, 6:30, 7:00, 7:30, 8:00, 18:00 (19:00)","","","http://www.diecezja.tarnow.pl/index.php/schematyzm/d/306-debica-sw-jadwigi"
"Najświętszego Serca Pana Jezusa","","39-200 Dębica,","ul. Orla 47,, 39-200 Dębica,","http://www.debica-nspj.tarnow.opoka.org.pl","debica4@diecezja.tarnow.pl","14- 67-78-188,","ks. dr Kazimierz Fąfara","6:30, 8:30, 10:00, 11:30, 14.30 i 18.00","7:00, 18:00","","","http://www.diecezja.tarnow.pl/index.php/schematyzm/d/307-debica-latoszyn"
"św. Małgorzaty PM","","32-852 Dębno 9,","32-852 Dębno 9,","http://www.debno.diecezja.tarnow.pl","debno@diecezja.tarnow.pl","14- 66-58-772","ks. mgr Marian Majka","6:30, 8:00, 9:30, 11:00, 16:00, Jastew 9.30","6:30, 18:00 (17:00)","","","http://www.diecezja.tarnow.pl/index.php/schematyzm/d/308-debno"
"Najświętszego Serca Pana Jezusa","","Delastowice 77, 33-230 Szczucin,","Delastowice 77, 33-230 Szczucin,","http://www.delastowice.diecezja.tarnow.pl","delastowice@diecezja.tarnow.pl","14- 643-62-02","ks. mgr Marek Kula","7:30, 10:30","7:00 (oprócz października), śr. i pt. 18:00 (17:00)","","","http://www.diecezja.tarnow.pl/index.php/schematyzm/d/302-delastowice"
"Matki Bożej Szkaplerznej","","34-642 Dobra k. Limanowej 99,","34-642 Dobra k. Limanowej 99,","http://www.dobra.diecezja.tarnow.pl","dobra@diecezja.tarnow.pl","18- 33-30-016,","ks. mgr Zbigniew Smajdor","7:00, 9:00, 11:00, 16:00 ","6:30, 18:00 (17:00)",": 6:30, 9:00, 11:00 i 17:00","","http://www.diecezja.tarnow.pl/index.php/schematyzm/d/310-dobra"
"Narodzenia Najśw. Maryi Panny","","Dobrków 28, 39-220 Pilzno,","Dobrków 28, 39-220 Pilzno,","http://www.dobrkow.diecezja.tarnow.pl","dobrkow@diecezja.tarnow.pl","14-672-13-90","Ks. Stanisław Jędrzejczyk","7:00, 9:00, 11:00, 16:30","7:00, śr., sob. 18:00 (17:00)","","","http://www.diecezja.tarnow.pl/index.php/schematyzm/d/311-dobrkow"
"Najśw. Maryi Panny Królowej Polski","","Dobrynin 19, 39-322 Rzemień,","Dobrynin 19, 39-322 Rzemień,","http://www.dobrynin.tarnow.opoka.org.pl/","dobrynin@diecezja.tarnow.pl","17- 77-48-300","ks. mgr Andrzej Jurusik","8:00, 9:30, 11:00, 17:00","6:30, 18:00 (17:00)","","","http://www.diecezja.tarnow.pl/index.php/schematyzm/d/312-dobrynin"
"Nawiedzenia Najśw. Maryi Panny","","Domosławice 74, 32-860 Czchów","Domosławice 74, 32-860 Czchów","http://www.domoslawiceparafia.republika.pl","domoslawice@diecezja.tarnow.pl","14-66-59-371","ks. mgr Marek Kądziołka","7:00, 10:00, 11:30; nieszpory 16:00","6:00","","","http://www.diecezja.tarnow.pl/index.php/schematyzm/d/313-domoslawice"
"Matki Bożej Królowej Polski","","32-709 Drwinia 71,","32-709 Drwinia 71,","","drwinia@diecezja.tarnow.pl","12-28-17-065","ks. mgr Roman Kopacz","8:00, 10:00, 15:30","7:00","","","http://www.diecezja.tarnow.pl/index.php/schematyzm/d/314-drwinia"
"Wniebowzięcia NMP","","Dulcza Mała 38 b, 39-310 Radomyśl Wielki,","Dulcza Mała 38 b, 39-310 Radomyśl Wielki,","","dulcza_mala@diecezja.tarnow.pl","14-68-19-899","ks. Krzysztof Tworzydło","8:00, 10:30, 16:00","7:00 lub 19:00 (17:30)","","","http://www.diecezja.tarnow.pl/index.php/schematyzm/d/315-dulcza-mala"
"Trójcy Przenajświętszej","","Dulcza Wielka 47, 39-312 Żarówka,","Dulcza Wielka 47, 39-312 Żarówka,","","dulcza_wielka@diecezja.tarnow.pl","14- 68-29-685","ks. dr Andrzej Ślusarz","7:30, 10:30, 15:00","18:00 (17:00), sob. 6:30","","","http://www.diecezja.tarnow.pl/index.php/schematyzm/d/316-dulcza-wielka"
"Matki Boskiej Częstochowskiej","","Dzierżaniny, 32-842 Paleśnica,","Dzierżaniny, 32-842 Paleśnica,","","dzierzaniny@diecezja.tarnow.pl","14- 66-54-198","ks. Wojciech Kościółek","8:00, 11:00, 16:00","19:00 (17:00)","","","http://www.diecezja.tarnow.pl/index.php/schematyzm/d/317-dzierzaniny"
"Nawiedzenia Najśw. Maryi Panny","","Długołęka-świerkla 40, 33-386 Podegrodzie","Długołęka-świerkla 40, 33-386 Podegrodzie","","dlugoleka_swierkla@diecezja.tarnow.pl","18-44-58-347","ks. mgr Marcin Zawiślak","8:00, 10:30, 16:00 (15:00)","6:30, środa 19:00 (16:00)","","","http://www.diecezja.tarnow.pl/index.php/schematyzm/d/309-dlugoleka-swierkla"
"Matki Bożej śnieżnej","","32-841 Filipowice 89,","32-841 Filipowice 89,","","filipowice@diecezja.tarnow.pl","14- 66-55-132","ks. mgr Piotr Pabis","7:00, 10:30, Ruda 8:30","7:00 lub 16:30 (17:00)","","","http://www.diecezja.tarnow.pl/index.php/schematyzm/f/318-filipowice"
"Najświętszego Serca Pana Jezusa","","33-332 Florynka 58,","33-332 Florynka 58,","","florynka@diecezja.tarnow.pl","18- 44-71-670","ks. Mariusz Tomaka SCJ","7:30, 11:00, 17:00, Wawrzka 9:00","7:00, 17:00","","","http://www.diecezja.tarnow.pl/index.php/schematyzm/f/319-florynka"
"Najśw. Maryi Panny Częstochowskiej","","Gaboń 221, 33-388 Gołkowice Dolne,","Gaboń 221, 33-388 Gołkowice Dolne,","http://www.parafiagabon.pl","gabon@diecezja.tarnow.pl","18-44-63-697","ks. mgr Jerzy Kulpa","7.00 , 10.00 , 16.00","W niedziele : godz. 7.00 , godz. 10.00 , godz. 16.00. W dni powszednie: poniedzia3ek, wtorek, czwartek , sobota - godz. 6.30; środa i piątek - godz. 18.00 (w czasie zimowym - godz. 17.00). W okresie wakacji, w dni powszednie codziennie o godz. 19.00.","","","http://www.diecezja.tarnow.pl/index.php/schematyzm/g/320-gabon"
"św. Andrzeja Boboli","","Gawłów 1, 32-711 Bogucice,","Gawłów 1, 32-711 Bogucice,","","gawlow@diecezja.tarnow.pl","14- 61-29-764","Ks. mgr Jerzy Tokarz","7:00, 11:30, 15:00, Ostrów Szlach. 8:45, 10:15","6:30","","","http://www.diecezja.tarnow.pl/index.php/schematyzm/g/321-gawlow"
"Matki Bożej Bolesnej","","Gierczyce 10, 32-744 Łapczyca,","Gierczyce 10, 32-744 Łapczyca,","","gierczyce@diecezja.tarnow.pl","14- 61-27-311","ks. mgr Stanisław Pilch","7:00, 9:00, 13:30","pon., śr., pt. 18:00, wt., czw., sob. 6:30","","","http://www.diecezja.tarnow.pl/index.php/schematyzm/g/322-gierczyce"
"św. Marcina Biskupa","","32-864 Gnojnik 7","32-864 Gnojnik 7","http://www.parafia-gnojnik.pl/","gnojnik@diecezja.tarnow.pl","14- 68-69-390","ks. mgr Marian Zapiór","7:30, 9:00, 10:30, 16:00","6:30, śr., pt. 19:00 (17:00)","","","http://www.diecezja.tarnow.pl/index.php/schematyzm/g/324-gnojnik"
"Chrystusa Króla","","Góra Motyczna 142, 39-204 Żyraków,","Góra Motyczna 142, 39-204 Żyraków,","","gora_motyczna@diecezja.tarnow.pl","14- 67-68-125","ks. mgr Marian Górowski","8:00, 11:00","6:30 lub 18:00","","","http://www.diecezja.tarnow.pl/index.php/schematyzm/g/328-gora-motyczna"
"ścięcia św. Jana Chrzciciela","","Góra św. Jana 90, 34-623 Szczyrzyc,","Góra św. Jana 90, 34-623 Szczyrzyc,","http://www.goraswjana.republika.pl/","gora_swietego_jana@diecezja.tarnow.pl","18- 33-20-066","ks. Jan Ligas","7:30, 10:00, 15:00, ","6:30, 17:00 (lato 18:30)",": 7:00, 10:00, 17:00 (lato 18:00)","","http://www.diecezja.tarnow.pl/index.php/schematyzm/g/329-gora-sw-jana"
"Najświętszego Serca Pana Jezusa","","39-306 Górki Mieleckie 12,","39-306 Górki Mieleckie 12,","","gorki@diecezja.tarnow.pl","17- 58-38-041","ks. mgr Kazimierz Skrzypek","7:30, 10:30, 15:00","6:30 lub 19:00 (18:00)","","","http://www.diecezja.tarnow.pl/index.php/schematyzm/g/330-gorki"
"św. Grzegorza Papieża","","Gorzejowa 128, 39-231 Siedliska Bogusz","Gorzejowa 128, 39-231 Siedliska Bogusz","http://www.gorzejowa.diecezja.tarnow.pl","gorzejowa@diecezja.tarnow.pl","14- 68-13-230","ks. mgr Stanisław Oleksyk","7:00 i 10:00, Jaworze - 8:30, Gębiczyna - 11:10","18:00 (16:00)","","","http://www.diecezja.tarnow.pl/index.php/schematyzm/g/326-gorzejowa"
"św. Urszuli z Towarzyszkami","","Gosprzydowa 45, 32-864 Gnojnik,","Gosprzydowa 45, 32-864 Gnojnik,","http://www.gosprzydowa.pl/","gosprzydowa@diecezja.tarnow.pl","14- 66-48-202","ks. mgr Krzysztof Klimczak","7:30, 11:00","7:00","","","http://www.diecezja.tarnow.pl/index.php/schematyzm/g/327-gosprzydowa"
"św. Antoniego Padewskiego","","Gołkowice Górne 41, 33-388 Gołkowice Dolne,","Gołkowice Górne 41, 33-388 Gołkowice Dolne,","http://www.golkowice.tarnow.opoka.org.pl/","golkowice@diecezja.tarnow.pl","18- 44-63-636","ks. mgr Kazimierz Koszyk","7:00, 8:00 - kaplica w Skrudzinie, 9:00, 10:30, 12:00, 16:00 (15:00 w okresie zimowym)","6:30, 18:00, w kaplicy w Skrudzinie w środę i piątek o godz. 17:00","","","http://www.diecezja.tarnow.pl/index.php/schematyzm/g/325-golkowice"
"Niepokalanego Serca Najśw. Maryi Panny","","Grabno 279, 32-830 Wojnicz,","Grabno 279, 32-830 Wojnicz,","","grabno@diecezja.tarnow.pl","14- 67-91-814","ks. mgr kan. Marian Urbański","7:00, 11:00, 16:00, Milówka 9:00, 15:00","7:00, 17:00, Milówka 7:00","","","http://www.diecezja.tarnow.pl/index.php/schematyzm/g/331-grabno"
"Wniebowzięcia Najśw. Maryi Panny","","33-260 Gręboszów 2,","33-260 Gręboszów 2,","http://www.greboszow.diecezja.tarnow.pl","greboszow@diecezja.tarnow.pl","14- 64-16-014","Ks. mgr Wiesław Babiarz","8.00, 10.30, 15.00","6:30, śr. 6:30, 18:00","","","http://www.diecezja.tarnow.pl/index.php/schematyzm/g/332-greboszow"
"Imienia Najśw. Maryi Panny","","Grobla 15, 32-009 Drwinia","Grobla 15, 32-009 Drwinia","","grobla@diecezja.tarnow.pl","12- 28-17-084","ks. mgr Antoni Zoń","8:00, 9:30, 11:00, 16:00","6:30, 7:00","","","http://www.diecezja.tarnow.pl/index.php/schematyzm/g/333-grobla"
"Najświętszego Serca Pana Jezusa","","Gródek 49, 38-330 Stróże,","Gródek 49, 38-330 Stróże,","","grodek@diecezja.tarnow.pl","18-44-74-212","ks. mgr Jacek Kmiecik","7:00, 9:00, 11:00","7:00, pn., śr., pt. 18:00","","","http://www.diecezja.tarnow.pl/index.php/schematyzm/g/335-grodek"
"Najświętszej Maryi Panny Królowej","","33-318 Gródek n. Dunajcem 135","33-318 Gródek n. Dunajcem 135","","grodek1@diecezja.tarnow.pl","18-44-01-069","ks. Władysław Mucha","7:00, 10:00, 18:00 (15:00)","6:30, śr., pt. 18:00","","","http://www.diecezja.tarnow.pl/index.php/schematyzm/g/336-grodek-n-dunajcem"
"Najśw. Maryi Panny Królowej","","33-180 Gromnik,","ul. Dąbrowa 1,, 33-180 Gromnik,","http://gromnik0.republika.pl/","gromnik@diecezja.tarnow.pl","14- 65-14-225","Ks. dr Andrzej Jedynak","7:00, 9:00, 11:00, 12:15, 17:00","6:00, 6:30 i wieczorem 17:00 ( w zimowej porze 17:00)","","","http://www.diecezja.tarnow.pl/index.php/schematyzm/g/334-gromnik"
"Miłosierdzia Bożego","","Grudna Górna 86, 39-232 Grudna Dolna,","Grudna Górna 86, 39-232 Grudna Dolna,","","grudna_gorna@diecezja.tarnow.pl","14- 68-35-936","ks. Marian Czech","8:00, 10:30, 15:30","7:00","","","http://www.diecezja.tarnow.pl/index.php/schematyzm/g/337-grudna-gorna"
"św. Maksymiliana M. Kolbego","","Gruszów Wielki 205, 33-200 Dąbrowa Tarnowska,","Gruszów Wielki 205, 33-200 Dąbrowa Tarnowska,","","gruszow_wielki@diecezja.tarnow.pl","14- 64-21-487","ks. mgr Józef Szczęśniak","7:30, 10:00, 15:00","7:00","","","http://www.diecezja.tarnow.pl/index.php/schematyzm/g/338-gruszow-wielki"
"św. Katarzyny PM","","33-330 Grybów,","ul. Kościelna 3,, 33-330 Grybów,","http://www.grybow.diecezja.tarnow.pl","grybow_par@diecezja.tarnow.pl","18- 445-02-62","ks. mgr Ryszard Sorota","6:30, 8:00, 9:30, 11:00, 18:00 (17:00), Podjaworze 8:00, Podchełmie 9:30, Zagórze 11:00","6:30, 7:00, 7:30, 18:00 (17:00)","","","http://www.diecezja.tarnow.pl/index.php/schematyzm/g/339-grybow"
"św. Marcina Biskupa","","34-450 Grywałd,","ul. Kościelna 6,, 34-450 Grywałd,","http://www.grywald.diecezja.tarnow.pl/","grywald@diecezja.tarnow.pl","18-26-23-827","ks. Józef Bania","8:00, 11:00, 15:30, Hałuszowa 9:30","pon., śr., pt. 18.00 (w czasie zimowym od października począwszy o 17.00); wt. i czk o 6.30","","","http://www.diecezja.tarnow.pl/index.php/schematyzm/g/340-grywald"
"Wniebowzięcia NMP","","39-208 Gumniska 110,","39-208 Gumniska 110,","http://www.gumniska.diecezja.tarnow.pl","gumniska@diecezja.tarnow.pl","14- 68-16-682","ks. Czesław Frączek","7:00, 10:00, 14:00, Głobikowa: 8:45, 11:45","Zmiennie - info na www parafii","","","http://www.diecezja.tarnow.pl/index.php/schematyzm/g/341-gumniska"
"św. Katarzyny PM","","32-855 Gwośdziec 46,","32-855 Gwośdziec 46,","","gwozdziec@diecezja.tarnow.pl","14- 66-59-539","ks. mgr lic. Rafał Cisowski","8:00, 10:30,","6:30 (18:00)","","","http://www.diecezja.tarnow.pl/index.php/schematyzm/g/342-gwozdziec"
"Trójcy Przenajświętszej","","Sucha Struga 141, 33-350 Piwniczna Zdrój,","Sucha Struga 141, 33-350 Piwniczna Zdrój,","","glebokie@diecezja.tarnow.pl","18- 44-64-330","Ks. mgr Ryszard Rutkowski","7:00, 9:30, 15:00,","7:00, wt., śr., pt. 19:00 (jesień 18:00, 16:00)","","","http://www.diecezja.tarnow.pl/index.php/schematyzm/g/323-glebokie"
"Podwyższenia Krzyża św.","","Iwkowa 12, 32-861 Iwkowa","Iwkowa 12, 32-861 Iwkowa","","iwkowa@diecezja.tarnow.pl","14-68-44-327","Ks. mgr Józef Gurgul","7:00, 9:00, 11:00, 15:00","7:00, 17:00 (18:00, 19:00)","","","http://www.diecezja.tarnow.pl/index.php/schematyzm/i/343-iwkowa"
"św. Prokopa Opata","","32-851 Jadowniki Podgórne,","ul. św. Prokopa 53,, 32-851 Jadowniki Podgórne,","","jadowniki@diecezja.tarnow.pl","14-66-31-753","ks. mgr Tadeusz Górka","7:00, 9:00, 10:15, 11:30, 15:30, 15:00 nieszpory, Bocheniec 16:00 (V-X)","6:30, 7:00, 18:00 (17:00)","","","http://www.diecezja.tarnow.pl/index.php/schematyzm/j/344-jadowniki"
"Niepokalanego Serca Najśw. Maryi Panny","","33-271 Jadowniki Mokre 320,","33-271 Jadowniki Mokre 320,","","jadowniki_mokre@diecezja.tarnow.pl","14-64-17-550","ks. mgr Bogdan Walerowski","8:00, 10:30, 15:00","6:30","","","http://www.diecezja.tarnow.pl/index.php/schematyzm/j/345-jadowniki-mokre"
"św. Augustyna Bpa","","Jamy Wielkie 30, 39-308 Wadowice Górne","Jamy Wielkie 30, 39-308 Wadowice Górne","","jamy_wielkie@diecezja.tarnow.pl","14-68-37-303","Ks. Józef Kołek","7:00, 10:30, Małec 9:00","6:30, śr. 17:00, czw. 7:00","","","http://www.diecezja.tarnow.pl/index.php/schematyzm/j/346-jamy-wielkie"
"Najświętszego Serca Pana Jezusa","","Jankowa 110, 38-350 Bobowa,","Jankowa 110, 38-350 Bobowa,","","jankowa@diecezja.tarnow.pl","18-35-14-095","Ks. Piotr Pośliński","7:30, 9:30, 14:30 (15:30)","7:00, środa 16:30","","","http://www.diecezja.tarnow.pl/index.php/schematyzm/j/347-jankowa"
"Podwyższenia Krzyża św.","","33-115 Janowice 30,","33-115 Janowice 30,","","janowice@diecezja.tarnow.pl","14-67-99-003","ks. Piotr Stelmach","7:00, 10:30, 16:00, Lubinka 9:00","7:00, 18:00 (16:30)","","","http://www.diecezja.tarnow.pl/index.php/schematyzm/j/348-janowice"
"św. Jana Chrzciciela","","Janowiec 10a, 39-312 Żarówka,","Janowiec 10a, 39-312 Żarówka,","","janowiec@diecezja.tarnow.pl","14-68-36-321","Ks. mgr Henryk Juszczyk","7:30, 10:30, (15:30)","7:00, śr., pt. 17:00 (18:00)","","","http://www.diecezja.tarnow.pl/index.php/schematyzm/j/349-janowiec"
"Najśw. Maryi Panny Wniebowziętej","","Jasień 34, 32-800 Brzesko,","Jasień 34, 32-800 Brzesko,","","jasien@diecezja.tarnow.pl","14-66-31-485","ks. dr Bogusław Seremet","7:00, 9:00, 11:00, 16:00 (15:00)","6:30, 7:00","","","http://www.diecezja.tarnow.pl/index.php/schematyzm/j/351-jasien"
"Imienia Maryi","","Jasienna 164, 33-322 Korzenna,","Jasienna 164, 33-322 Korzenna,","","jasienna@diecezja.tarnow.pl","18-44-17-055","Ks. mgr Edward Litak","7:30, 10:30, nieszpory 16:00","pon., śr., pt. 18:00, wt., czw., sob. 7:00","","","http://www.diecezja.tarnow.pl/index.php/schematyzm/j/350-jasienna"
"św. Bartłomieja Ap.","","33-191 Jastrzębia 2,","33-191 Jastrzębia 2,","","jastrzebia@diecezja.tarnow.pl","14-65-12-017","ks. Stanisław Pazdan","7:00, 10:30, 16:00, Kąśna 9:00, Jastrzębia 9:00","7:00, 18:00 (16:00)","","","http://www.diecezja.tarnow.pl/index.php/schematyzm/j/352-jastrzebia"
"św. Maksymiliana M. Kolbego","","Jaworsko 1, 32-853 Łysa Góra,","Jaworsko 1, 32-853 Łysa Góra,","","jaworsko@diecezja.tarnow.pl","14-66-57-100","Ks. Kazimierz Piekarski","8:00, 10:00, 16:00","18:00 (17:00-okr.zimowy)","","","http://www.diecezja.tarnow.pl/index.php/schematyzm/j/353-jaworsko"
"Przemienienia Pańskiego","","Jaworzna 100, 34-602 Laskowa,","Jaworzna 100, 34-602 Laskowa,","","jaworzna@diecezja.tarnow.pl","18-33-45-051","ks. Józef Cieśla","7:00, 9:00, 11:00","7:00","","","http://www.diecezja.tarnow.pl/index.php/schematyzm/j/354-jaworzna"
"Narodzenia Najśw. Maryi Panny","","33-389 Jazowsko 46,","33-389 Jazowsko 46,","","jazowsko@diecezja.tarnow.pl","18-44-47-018","ks. mgr Mirosław Papier","7:00, 9:00, 11:00, 16:00, Brzyna 9:45","6:00, 6:30, 18:00","","","http://www.diecezja.tarnow.pl/index.php/schematyzm/j/355-jazowsko"
"św. Stanisława BM","","39-225 Jodłowa 56,","39-225 Jodłowa 56,","http://www.jodlowa.diecezja.tarnow.pl","jodlowa@diecezja.tarnow.pl","14-672-60-08","ks. dr Zenon Tomasiak","6:30, 8:00, 9:30, 11:00, 16:00, Wisowa 8:30, Dę-bowa 10:00","6:30, 18:00 (17:00)","","","http://www.diecezja.tarnow.pl/index.php/schematyzm/j/356-jodlowa"
"Trójcy Przenajświętszej","","Jodłowa Górna 369, 39-218 Jodłowa,","Jodłowa Górna 369, 39-218 Jodłowa,","","jodlowa_gorna@diecezja.tarnow.pl","14-672-60-53","Ks. Antoni Jurkowski","9:00, 14:00, 16:00","6:30, śr., pt. 17:00","","","http://www.diecezja.tarnow.pl/index.php/schematyzm/j/357-jodlowa-gorna"
"Opatrzności Bożej","","Jodłówka-Wałki 53b, 33-150 Wola Rzędzińska,","Jodłówka-Wałki 53b, 33-150 Wola Rzędzińska,","","jodlowka_walki@diecezja.tarnow.pl","14-67-56-602","ks. mgr Marian Hyjek","7:00, 10:00, 15:00","7:00","","","http://www.diecezja.tarnow.pl/index.php/schematyzm/j/360-jodlowka-walki"
"św. Michała Archanioła","","33-173 Jodłówka Tuchowska 275,","33-173 Jodłówka Tuchowska 275,","","jodlowka_tuchowska@diecezja.tarnow.pl","14-652-68-78","ks. Józef Jaworski","7:30, 11:00, 17:00","18:00 (17:00)","","","http://www.diecezja.tarnow.pl/index.php/schematyzm/j/359-jodlowka-tuchowska"
"Narodzenia Najśw. Maryi Panny","","34-620 Jodłownik 27,","34-620 Jodłownik 27,","http://www.jodlownik.diecezja.tarnow.pl","jodlownik@diecezja.tarnow.pl","18-33-21-080","o. dr Krzysztof Morajko OCist.","8:00, 9:30, 11:00, 15:00","7:00","","","http://www.diecezja.tarnow.pl/index.php/schematyzm/j/358-jodlownik"
"Matki Bożej Nieustającej Pomocy","","34-643 Jurków 128,","34-643 Jurków 128,","parafiajurkowmbnp.ns48.pl ","jurkow1@diecezja.tarnow.pl","18-33-32-181","ks. dr Tadeusz Piwowarski","8:00, 11:00, 16:00, Wilczyce 9:30, Półrzeczki 14:30","6:30, śr., sob. 17:00","","","http://www.diecezja.tarnow.pl/index.php/schematyzm/j/362-jurkow-matki-bozej-nieustajacej-pomocy"
"Przemienienia Pańskiego i Bożego Miłosierdzia","","Jurków 184, 32-860 Czchów,","Jurków 184, 32-860 Czchów,","","jurkow@diecezja.tarnow.pl","14-68-42-300","ks. Fryderyk Bajorek","7:00, 9:00, 11:00; ","6:30","7:00, 18:00","","http://www.diecezja.tarnow.pl/index.php/schematyzm/j/361-jurkow"
"Najśw. Maryi Panny Wniebowziętej","","Kąclowa 116, 33-330 Grybów,","Kąclowa 116, 33-330 Grybów,","http://www.kaclowa.diecezja.tarnow.pl","kaclowa@diecezja.tarnow.pl","18-44-72-284","ks. Bolesław Bukowiec","7:30, 9:15, 11:00, 18:00, (17:00)","18:00 (17:00)","","","http://www.diecezja.tarnow.pl/index.php/schematyzm/k/370-kaclowa"
"Nawiedzenia Najśw. Maryi Panny","","Kamianna 14, 33-336 Łabowa","Kamianna 14, 33-336 Łabowa","","kamianna@diecezja.tarnow.pl","18-47-41-760","ks. mgr Grzegorz Sowa","7:30, 9:00, 10:30 (szpital), 12:45, 15:00, 19:00","Odpust parafialny","","","http://www.diecezja.tarnow.pl/index.php/schematyzm/k/363-kamianna"
"Przemienienia Pańskiego i Nawiedzenia NMP","","34-608 Kamienica 45,","34-608 Kamienica 45,","http://www.kamienica.diecezja.tarnow.pl","kamienica@diecezja.tarnow.pl","18-33-23-013","ks. mgr Jan Betlej","7:00, 9:00, 11:30, 16:00, Zasadne 10:00","7:00, 18:00 (w czasie zimowym 17:00)","","","http://www.diecezja.tarnow.pl/index.php/schematyzm/k/364-kamienica"
"Najśw. Maryi Panny Częstochowskiej","","Kamienica Górna 185, 39-232 Grudna Dolna,","Kamienica Górna 185, 39-232 Grudna Dolna,","","kamienica_gorna@diecezja.tarnow.pl","14-68-14-310","ks. mgr Marian Seruś","8:00, 10:00, 15:00","7:00","","","http://www.diecezja.tarnow.pl/index.php/schematyzm/k/365-kamienica-gorna"
"św. Katarzyny PM","","Kamionka Mała 135, 34-602 Laskowa,","Kamionka Mała 135, 34-602 Laskowa,","","kamionka_mala@diecezja.tarnow.pl","18-33-34-680","ks. Stanisław Węgrzyn","7:00, 10:30, kaplica 9:00","7:00, śr., pt. 18:00 (17:00)","","","http://www.diecezja.tarnow.pl/index.php/schematyzm/k/366-kamionka-mala"
"Matki Bożej Nieustającej Pomocy","","33-334 Kamionka Wielka 65,","33-334 Kamionka Wielka 65,","http://www.kamionkawielka.parafia.info.pl","kamionka_wielka@diecezja.tarnow.pl","18-44-56-079","Ks. Stanisław Ruchała","6:30 , 8:00, 9:30 , 11:00 (suma), 12:30, 16:00, 18:30 (sobota - wieczór)","7:00, 18:30, 16:45 (od 1 października - do Niedzieli Palmowej). W soboty zawsze o godz. 18:30 (Msza św. niedzielna)","","","http://www.diecezja.tarnow.pl/index.php/schematyzm/k/367-kamionka-wielka"
"Najśw. Maryi Panny Królowej Polski","","32-732 Kamionna 47,","32-732 Kamionna 47,","","kamionna@diecezja.tarnow.pl","14-61-37-036","Ks. mgr Jerzy Jawor","8:00, 10:30","18:00","","","http://www.diecezja.tarnow.pl/index.php/schematyzm/k/368-kamionna"
"św. Marii Magdaleny","","Kanina 13, 34-600 Limanowa,","Kanina 13, 34-600 Limanowa,","www.parafiakanina.pl","kanina@diecezja.tarnow.pl","18-33-45-351","Ks. mgr Jan Raś","7:00, 11:00, 16:00 (15:00), Sekierczyna: 9:00, 12:15","6:30, pn., śr., pt. - 18:00 (16:00)","","","http://www.diecezja.tarnow.pl/index.php/schematyzm/k/369-kanina"
"św. Józefa Oblubieńca NMP","","Kąty 110, 32-862 Porąbka Iwkowska,","Kąty 110, 32-862 Porąbka Iwkowska,","","katy@diecezja.tarnow.pl","14-68-44-980","Ks. mgr Jan Witek","8:00, 11:00, 18:00","7:00; śr., pt. 18:00","","","http://www.diecezja.tarnow.pl/index.php/schematyzm/k/371-katy"
"św. Maksymiliana M. Kolbego","","Kicznia 116, 33-390 Łącko,","Kicznia 116, 33-390 Łącko,","","kicznia@diecezja.tarnow.pl","18-44-46-370","ks. mgr Zdzisław Socha","8:00, 11:00","7:00 lub 18:30 (17:00)","","","http://www.diecezja.tarnow.pl/index.php/schematyzm/k/372-kicznia"
"św. Józefa Oblubieńca NMP","","Kierlikówka 102, 32-732 Kamionna,","Kierlikówka 102, 32-732 Kamionna,","","kierlikowka@diecezja.tarnow.pl","14-61-36-426","ks. mgr Zbigniew Wachowicz","7:00, 10:00 ","6:30 lub 18:00","","","http://www.diecezja.tarnow.pl/index.php/schematyzm/k/374-kierlikowka"
"Zmartwychwstania Pańskiego","","Kiełków 60, 39-320 Przecław,","Kiełków 60, 39-320 Przecław,","http://www.kielkow.diecezja.tarnow.pl","kielkow@diecezja.tarnow.pl","17-77-46-039","ks. mgr Marek Wójtowicz","8:00, 10:30, 16:00","7:00 lub 18:00","","","http://www.diecezja.tarnow.pl/index.php/schematyzm/k/373-kielkow"
"Matki Bożej Fatimskiej","","Kobyle 307, 32-721 Stary Wiśnicz,","Kobyle 307, 32-721 Stary Wiśnicz,","","kobyle@diecezja.tarnow.pl","14-68-56-480","ks. Kazimierz Rybski","7:00, 10:00, 15:00","7:00, śr., pt. 17:00","","","http://www.diecezja.tarnow.pl/index.php/schematyzm/k/375-kobyle"
"św. Anny","","Korzeniów 74b, 39-203 Nagoszyn,","Korzeniów 74b, 39-203 Nagoszyn,","","korzeniow@diecezja.tarnow.pl","14-68-18-960","ks. Roman Deszcz","7:00, 9:30, 15:00, ","19:00 (17:00)","7:00, 19:00 (17:00)","","http://www.diecezja.tarnow.pl/index.php/schematyzm/k/376-korzeniow"
"Matki Bożej Szkaplerznej","","33-322 Korzenna 7,","33-322 Korzenna 7,","","korzenna@diecezja.tarnow.pl","18-441-99-19","ks. mgr Tadeusz Sajdak","7:00, 9:00, 11:00, 16:00","6:30, śr. 19:00 (17:00)","","","http://www.diecezja.tarnow.pl/index.php/schematyzm/k/377-korzenna"
"Najświętszego Serca Pana Jezusa","","33-111 Koszyce Wielkie,","ul. Główna 45, 33-111 Koszyce Wielkie,","http://www.koszycemale.diecezja.tarnow.pl","koszyce_male@diecezja.tarnow.pl","14-634-01-20, 14-634-04-99","Ks. Jerzy Mondel SCJ","7:30, 9:30, 11:00, 15:30","16:00, 18:30","","","http://www.diecezja.tarnow.pl/index.php/schematyzm/k/378-koszyce-male"
"Przemienienia Pańskiego","","33-111 Koszyce Wielkie,","ul. Tarnowska 24,, 33-111 Koszyce Wielkie,","http://www.parafiakoszycewlk.pl","koszyce_wielkie@diecezja.tarnow.pl","14-634-05-00","Ks. mgr Kazimierz Bonarek","7:00, 9:00, 11:00, 17:00, nieszpory 16:30, ","6:30, 18:00 (VI-VIII 18:30)","9:00, 16:30, 18:00","","http://www.diecezja.tarnow.pl/index.php/schematyzm/k/379-koszyce-wielkie"
"Niepokalanego Serca Najśw. Maryi Panny","","33-161 Kowalowa 13,","33-161 Kowalowa 13,","","kowalowa@diecezja.tarnow.pl","14-654-14-97","ks. Józef Nalepa","7:00, 10:00, 15:00","7:00, śr., pt. 18:00 (17:00)","","","http://www.diecezja.tarnow.pl/index.php/schematyzm/k/380-kowalowa"
"Najśw. Maryi Panny Królowej Polski","","34-621 Krasne-Lasocice 48,","34-621 Krasne-Lasocice 48,","http://parafia.krasne-lasocice.pl/","krasne@diecezja.tarnow.pl","18-33-21-424","ks. mgr Marek Sobota","7:30, 10:30, 15:00","7:00, 19:00","","","http://www.diecezja.tarnow.pl/index.php/schematyzm/k/381-krasne"
"Narodzenia Najśw. Maryi Panny","","Królowa Górna 70, 33-334 Kamionka Wielka,","Królowa Górna 70, 33-334 Kamionka Wielka,","www.krolowagorna.pl","krolowa_gorna@diecezja.tarnow.pl","18-44-56-443","Ks. mgr Józef Nowak","7:30, 9:00, 10:30, 14:30","6:30 lub 18:30","","","http://www.diecezja.tarnow.pl/index.php/schematyzm/k/384-krolowa-gorna"
"Przemienienia Pańskiego","","32-722 Królówka 3,","32-722 Królówka 3,","","krolowka@diecezja.tarnow.pl","14-61-29-495","ks. mgr Józef Janus","7:00, 9:00, 11:00, 15:00, Cichawka 8:00 i 10:00","7:00, śr. i czw. 18:00 (17:00); Cichawka pn., wt., sb. 7:00, śr., czw. i pt. 17:00 (16:00)","","","http://www.diecezja.tarnow.pl/index.php/schematyzm/k/385-krolowka"
"Wszystkich świętych","","34-450 Krościenko n.D.,","ul. Sobieskiego 2 A,, 34-450 Krościenko n.D.,","parafiakroscienko.pl","par_ws_kroscienko@tarnow.opoka.org.pl","18-26-23-015,","ks. mgr Henryk Homoncik","6:30, 8:00, 9:30, 11:00, 18:00","6:30, 8:00, 18:00","","","http://www.diecezja.tarnow.pl/index.php/schematyzm/k/383-kroscienko"
"św. Józefa Rzemieślnika","","Krosna, 34-603 Ujanowice,","Krosna, 34-603 Ujanowice,","","krosna@diecezja.tarnow.pl","18-33-34-106","ks. Adam Chmiel","7:30, 11:00","7:00","","","http://www.diecezja.tarnow.pl/index.php/schematyzm/k/382-krosna"
"Narodzenia Najśw. Maryi Panny","","33-325 Krużlowa Wyżna 10,","33-325 Krużlowa Wyżna 10,","http://www.kruzlowa.diecezja.tarnow.pl","kruzlowa@diecezja.tarnow.pl","18-44-51-927,kaplica Stara Wieś 18-44-55-879","ks. mgr Marek Szewczyk","7:00, 9:00, 11:00, 15:00, Stara Wieś 10:00, 14:00","6:30, 7:00, 18:00 (zima - 17:00)","","","http://www.diecezja.tarnow.pl/index.php/schematyzm/k/386-kruzlowa"
"Matki Bożej Nieustającej Pomocy","","33-380 Krynica Zdrój,","ul. Czarny Potok 3, 33-380 Krynica Zdrój,","http://www.mbnpkrynica.diecezja.tarnow.pl","krynica3@diecezja.tarnow.pl","18-47-12-979","ks. mgr Eugeniusz Szymczak","7:30, 9:30, 10:15 (szpital), 11:00, 12:30, 19:00","6:30, 9:00, 19:00 (17:00 - czas zimowy)","","","http://www.diecezja.tarnow.pl/index.php/schematyzm/k/389-krynica-zdroj-matki-bozej-nieustajacej-pomocy"
"Najświętszego Serca Pana Jezusa","","33-380 Krynica Zdrój,","ul. Słotwińska 50,, 33-380 Krynica Zdrój,","","krynica2@diecezja.tarnow.pl","18-47-13-427","ks. mgr Dariusz Fudyma","8:30, 11:00, 17:00","7:00 lub 18:00 (17:00)","","","http://www.diecezja.tarnow.pl/index.php/schematyzm/k/388-krynica-zdroj-najswietszego-serca-pana-jezusa"
"św. Antoniego Padewskiego","","33-380 Krynica Zdrój,","ul. Kraszewskiego 72,, 33-380 Krynica Zdrój,","http://www.antoni-krynica.diecezja.tarnow.pl","krynica1@diecezja.tarnow.pl","18-47-12-282, 18-471-64-33","ks. mgr lic. Jan Wnęk","7:00, 9:00, 10:30, 12:00, 18:00","6:30, 7:30, 18:00","","","http://www.diecezja.tarnow.pl/index.php/schematyzm/k/387-krynica-zdroj-sw-antoniego-padewskiego"
"Wniebowzięcia NMP","","33-380 Krynica Zdrój,","ul. Kościelna 2,, 33-380 Krynica Zdrój,","http://www.wnmpkrynica.diecezja.tarnow.pl","krynica_zdroj@diecezja.tarnow.pl","18-47-12-388,","ks. mgr lic. Bogusław Skotarek","6:00, 7:30, 9:00, 10:30, 11:45, 15:00, 19:00","6:30, 7:00, 9:00, 10:00, 19:00 (17:00)","","","http://www.diecezja.tarnow.pl/index.php/schematyzm/k/390-krynica-zdroj-wniebowziecia-nmp"
"Matki Bożej Nieustającej Pomocy","","Krzeczów 330, 32-700 Bochnia,","Krzeczów 330, 32-700 Bochnia,","http://www.krzeczow.tarnow.opoka.org.pl/","krzeczow@diecezja.tarnow.pl","14-61-27-694","Ks. dr Stefan Irla","8:00, 10:30, 16:30","pn., śr., pt. 18:00 (17:30), pozostałe 6:30","","","http://www.diecezja.tarnow.pl/index.php/schematyzm/k/391-krzeczow"
"św. Joachima","","Krzyżanowice 99, 32-700 Bochnia,","Krzyżanowice 99, 32-700 Bochnia,","parafia-krzyzanowice.pl ","krzyzanowice@diecezja.tarnow.pl","14-61-29-732","Ks. Krzysztof Duda","7:00, 9:00, 11:00, 15:00","17:30","","","http://www.diecezja.tarnow.pl/index.php/schematyzm/k/392-krzyzanowice"
"św. Jana Chrzciciela","","Książnice 93, 39-300 Mielec,","Książnice 93, 39-300 Mielec,","http://www.ksiaznice.diecezja.tarnow.pl","ksiaznice@diecezja.tarnow.pl","17 773-16-78","ks. mgr Józef Baczyński","7:30, 9:00, 11:30, 15:00, Rydzów 10:00","18:00 (16:30)","","","http://www.diecezja.tarnow.pl/index.php/schematyzm/k/393-ksiaznice"
"rektorat św. Ap. Piotra i Pawła","","Kupienin, 33-221 Mędrzechów,","Kupienin, 33-221 Mędrzechów,","","kupienin@diecezja.tarnow.pl","fax","","7:00, 9:00, 11:00, 16:00, wakacje: 8:00, 10:00, 17:00","7:30","","","http://www.diecezja.tarnow.pl/index.php/schematyzm/k/394-kupienin"
"Najśw. Maryi Panny Królowej Polski","","Kwiatonowice 132, 38-333 Zagórzany,","Kwiatonowice 132, 38-333 Zagórzany,","","kwiatonowice@diecezja.tarnow.pl","18-35-11-110","ks. mgr Piotr Fiksak","8:00, 10:00, 16:00","19:00 (17:00)","","","http://www.diecezja.tarnow.pl/index.php/schematyzm/k/395-kwiatonowice"
"Najświętszego Imienia Maryi","","34-602 Laskowa 120,","34-602 Laskowa 120,","http://www.parafia-laskowa.iap.pl","laskowa@diecezja.tarnow.pl","18-33-33-042","ks. mgr Andrzej Wanat","6:30, 8:30, 10:00, 11:30, 16:00 (","6:30, 7:00 (śr., pt. 18:00)","18:00)","","http://www.diecezja.tarnow.pl/index.php/schematyzm/l/396-laskowa"
"","","33-370 Muszyna","Żelechów 15a, 33-370 Muszyna","","leluchow@diecezja.tarnow.pl","18-47-14-854","ks. Józef Schab","7:00, 11:00","śr, pt 17:00, pn, wt,czw, sob 7:00,","","","http://www.diecezja.tarnow.pl/index.php/schematyzm/l/397-leluchow"
"Najśw. Maryi Panny Częstochowskiej","","Leszczyna 151, 32-733 Trzciana k. Bochni,","Leszczyna 151, 32-733 Trzciana k. Bochni,","","leszczyna@diecezja.tarnow.pl","14-61-36-038","ks. Krzysztof Franczyk","7:30, 10:00,","6:30 lub 17:00 (lato 18:30)","","","http://www.diecezja.tarnow.pl/index.php/schematyzm/l/398-leszczyna"
"Matki Boskiej Królowej Polski","","Lewniowa 184, 32-864 Gnojnik,","Lewniowa 184, 32-864 Gnojnik,","http://www.lewniowa.diecezja.tarnow.pl","lewniowa@diecezja.tarnow.pl","14-66-48-136","ks. Marek Gał","7:00, 10:00, 16:00 (czas zimowy 15:00)","19:00 (czas zimowy 17:00)","","","http://www.diecezja.tarnow.pl/index.php/schematyzm/l/399-lewniowa"
"św. Alberta Chmielowskiego","","Librantowa 166, 33-300 Nowy Sącz,","Librantowa 166, 33-300 Nowy Sącz,","","librantowa@diecezja.tarnow.pl","18-44-17-961","ks. mgr Henryk Osora","8:30, 10:45, 17:00","7:00, 18:00","","","http://www.diecezja.tarnow.pl/index.php/schematyzm/l/400-librantowa"
"Najświętszego Serca Pana Jezusa","","Lichwin 181, 33-172 Siedliska Tuchowskie","Lichwin 181, 33-172 Siedliska Tuchowskie","","lichwin@diecezja.tarnow.pl","14-67-58-045","ks. mgr Jan Kwarciński","7:30, 9:00, 11:00, (Wlk. Post: 7:30, 10:30, 15:00)","7:30, śr., pt. 18:00 (16:30 - czas zimowy)","","","http://www.diecezja.tarnow.pl/index.php/schematyzm/l/401-lichwin"
"Matki Bożej Bolesnej","","34-600 Limanowa,","ul. Jana Pawła II nr 1,, 34-600 Limanowa,","www.bazylika-limanowa.pl","limanowa_par@diecezja.tarnow.pl","18-33-72-264,","ks. dr Wiesław Piotrowski","6:00, 7:30, 9:00, 10:30, 12:00, 13:30, 15:30 - Niesz-pory, 16:00, 20:00 (19:00), Mordarka 14:30","6:00, 6:30, 7:00, 7:30, 8:00, 11:00, 18:00","","","http://www.diecezja.tarnow.pl/index.php/schematyzm/l/402-limanowa"
"św. Stanisława Kostki","","34-600 Limanowa,","ul. Lipowa 3,, 34-600 Limanowa,","","limanowa_sowliny@diecezja.tarnow.pl","18-33-72-748","ks. mgr Tadeusz Śmierciak","6:00, 7:30, 9:00, 10:30, 12:00, 18:00","6:00, 6:30, 9:00, 18:00","","","http://www.diecezja.tarnow.pl/index.php/schematyzm/l/403-limanowa-sowliny"
"Matki Bożej Fatimskiej","","39-220 Pilzno, Lipiny 60","39-220 Pilzno, Lipiny 60","","lipiny@diecezja.tarnow.pl","14-67-21-295","O. Janusz Bębnik OCarm.","dni powszednie","Odpust parafialny","","","http://www.diecezja.tarnow.pl/index.php/schematyzm/l/404-lipiny"
"św. Andrzeja Ap.","","32-724 Lipnica Murowana 39,","32-724 Lipnica Murowana 39,","http://www.parlipnicam.tarnow.opoka.org.pl/","lipnica_murowana@diecezja.tarnow.pl","14-68-52-601","ks. mgr Zbigniew Kras","7:00, 9:00, 10:30, 16:00, Borówna 14:00","6:30, 17:00","","","http://www.diecezja.tarnow.pl/index.php/schematyzm/l/405-lipnica-murowana"
"Nawiedzenia Najśw. Maryi Panny","","33-323 Lipnica Wielka 22,","33-323 Lipnica Wielka 22,","http://www.lipnica_wielka.diecezja.tarnow.pl/","lipnica_wielka@diecezja.tarnow.pl","18-441-70-79","ks. Albin Samborski","7:00, 9:00, 11:00, 15:00","poniedziałek, środa, piątek - 6:30, 16:00 (czas zimowy 18:00)","","","http://www.diecezja.tarnow.pl/index.php/schematyzm/l/406-lipnica-wielka"
"Matki Bożej Różańcowej","","33-140 Lisia Góra,","ul. Jaracza 8b,, 33-140 Lisia Góra,","http://www.lisia-gora.diecezja.tarnow.pl","lisia_gora@diecezja.tarnow.pl","14-678-43-91","ks. Stanisław Szałda","6:50, 8:30, 10:30, 16:00, Śmigno 7:30, 11:00, 16:00","6:30, śr., pt. 18:00, Śmigno wt. 17:00 (19:00)","","","http://www.diecezja.tarnow.pl/index.php/schematyzm/l/407-lisia-gora"
"św.Gerarda Majella","","Lubaszowa 33, 33-172 Siedliska Tuchowskie,","Lubaszowa 33, 33-172 Siedliska Tuchowskie,","","lubaszowa@diecezja.tarnow.pl","14-650-62-68","o. Stanisław Majchrowski CSsR","7:30, 11:00, 16:30","18:00 (17:00)","","","http://www.diecezja.tarnow.pl/index.php/schematyzm/l/408-lubaszowa"
"Najświętszego Serca Pana Jezusa","","33-162 Lubcza 39,","33-162 Lubcza 39,","http://www.parafialubcza.pl","lubcza@diecezja.tarnow.pl","14-65-42-704","ks. mgr Marek Kuzak","6:30, 9:00, 10:30, 16:00, Wola Lubecka 8:00, 11:30","6:30, 18:00, Wola Lubecka czw., pt. 19:00","","","http://www.diecezja.tarnow.pl/index.php/schematyzm/l/409-lubcza"
"św. Mikołaja B.","","39-102 Lubzina 55,","39-102 Lubzina 55,","http://www.lubzina.diecezja.tarnow.pl","lubzina@diecezja.tarnow.pl","17-22-12-177","ks. mgr Ryszard Pietrasik","7:00, 9:00, 11:00, 16:00, Brzezówka 8:00","6:00, 18:00 (17:00)","","","http://www.diecezja.tarnow.pl/index.php/schematyzm/l/410-lubzina"
"św. Józefa Oblubieńca NMP","","33-206 Luszowice","Plac św. Józefa 14,, 33-206 Luszowice","http://www.luszowice.diecezja.tarnow.pl","luszowice@diecezja.tarnow.pl","14-641-33-15, 14-64-13-287","ks. mgr Bogdan Kwiecień","7:00, 9:00, 11:30, 16:00 Lipiny: sob. 18:00 (20:00)","6:45, 19:00 (18:00), Lipiny: wt., czw., sob. 20:00, (18:00)","","","http://www.diecezja.tarnow.pl/index.php/schematyzm/l/411-luszowice"
"św. Stanisława BM","","33-336 Łabowa 208,","33-336 Łabowa 208,","http://www.labowa.diecezja.tarnow.pl/","labowa@diecezja.tarnow.pl","18-47-11-220","Ks. mgr Andrzej Fik","święta: 7:00, 9:00, 11:00, 15:00 (w lipcu i sierpniu 7:00, 10:00 16:00 )","7:00 (wszystkie dni), [pon., śr. i ptk 18:00 (17:00 w czasie zimowym)]","","","http://www.diecezja.tarnow.pl/index.php/schematyzm/2010-11-28-21-05-05/413-labowa"
"św. Jana Chrzciciela","","33-390 Łącko,","ul. Kościelna 18,, 33-390 Łącko,","http://parafia.elacko.pl","lacko_par@diecezja.tarnow.pl","18-44-46-029","ks. dr Janusz Paciorek","7:00, 9:00, 10:30, 11:45, 17:00","6:30, 17:00","","","http://www.diecezja.tarnow.pl/index.php/schematyzm/2010-11-28-21-05-05/416-lacko"
"Matki Bożej Królowej i św. Judy Tadeusza Ap.","","Łączki Brzeskie 271, 39-320 Przecław,","Łączki Brzeskie 271, 39-320 Przecław,","http://www.laczkibrzeskie.tarnow.opoka.org.pl/","laczki_brzeskie@diecezja.tarnow.pl","17-58-38-887","ks. mgr Marek Hołowicki","7:30, 10:30","7:00, pon., śr., sob. 18:30 (17:00)","","","http://www.diecezja.tarnow.pl/index.php/schematyzm/2010-11-28-21-05-05/417-laczki-brzeskie"
"Przemienienia Pańskiego","","Ładna 90a, 33-156 Skrzyszów,","Ładna 90a, 33-156 Skrzyszów,","","ladna@diecezja.tarnow.pl","14-674-56-99","ks. Wojciech Jurkowski","7:30, 10:00, 16:00 (Adwent-Wlk. Post 11:00)","7:00, 18:00 (17:00)","","","http://www.diecezja.tarnow.pl/index.php/schematyzm/2010-11-28-21-05-05/414-ladna"
"Matki Bożej Nieustającej Pomocy","","Łąkta Górna 285, 32-731 Żegocina,","Łąkta Górna 285, 32-731 Żegocina,","http://www.zegocina.pl/parafia/parlakta/parlakta.htm","lakta@diecezja.tarnow.pl","14-61-31-836","ks. Stanisław Szczygieł","7:00, 10:00, 15:00","6:30 W środy z nowenną do MBNP o godz. 18:00 (czas letni) albo 16:00 (czas zimowy)","","","http://www.diecezja.tarnow.pl/index.php/schematyzm/2010-11-28-21-05-05/418-lakta"
"św. Anny","","32-744 Łapczyca 74,","32-744 Łapczyca 74,","http://www.lapczyca.diecezja.tarnow.pl","lapczyca@diecezja.tarnow.pl","14-61-27-512","ks. mgr Marian Konwent","7:00, 9:00, 10:30, 16:00","6:00, 6:30, śr., pt. 18:00","","","http://www.diecezja.tarnow.pl/index.php/schematyzm/2010-11-28-21-05-05/415-lapczyca"
"Matki Bożej Różańcowej","","33-131 Łęg Tarnowski,","ul. Kościelna 12,, 33-131 Łęg Tarnowski,","","leg_zamoscie@diecezja.tarnow.pl","14-64-51-383","ks. mgr Antoni Augustyn","8:00, 10:00, 16:30, ","18:30 (17:00)","8:00, 17:00","","http://www.diecezja.tarnow.pl/index.php/schematyzm/2010-11-28-21-05-05/420-leg-zamoscie"
"świętej Trójcy","","Bobrowniki Wielkie, 33-131 Łęg Tarnowski","ul. Długa 2, Bobrowniki Wielkie, 33-131 Łęg Tarnowski","http://www.leg_tarnowski.diecezja.tarnow.pl","leg_tarnowski@diecezja.tarnow.pl","14-64-51-129","ks. dr Andrzej Bakalarz","7:00, 9:00, 11:00, 17:00, kościół św. Sebastiana 8:00, Biała 10:00","6:30, 18:30 (17:00)","","","http://www.diecezja.tarnow.pl/index.php/schematyzm/2010-11-28-21-05-05/419-leg-tarnowski"
"św. Mikołaja Bpa","","33-157 Łękawica 64,","33-157 Łękawica 64,","","lekawica@diecezja.tarnow.pl","14-674-40-06","ks. mgr Józef Nita","7:00, 9:00, 10:30, 16:00","6:30","","","http://www.diecezja.tarnow.pl/index.php/schematyzm/2010-11-28-21-05-05/421-lekawica"
"Matki Boskiej Częstochowskiej","","33-112 Tarnowiec, Łękawka 18A","33-112 Tarnowiec, Łękawka 18A","http://www.lekawka.diecezja.tarnow.pl","lekawka@diecezja.tarnow.pl","0-608-194-582","ks. mgr Czesław Bachula","8.00 i 10.00","18.00 (lato), 17.00 (zima)","","","http://www.diecezja.tarnow.pl/index.php/schematyzm/2010-11-28-21-05-05/422-lekawka"
"św. Bartłomieja Ap.","","39-221 Łęki Górne 280,","39-221 Łęki Górne 280,","http://www.lekigorne.diecezja.tarnow.pl","leki_gorne@diecezja.tarnow.pl","14-67-25-004","ks. mgr Franciszek Pacholik","7:00, 9:00, 11:00, 15:00, Podlesie Machowskie 8:00, Łęki Dolne 9:30","6:30, 18:00 (17:00)","","","http://www.diecezja.tarnow.pl/index.php/schematyzm/2010-11-28-21-05-05/423-leki-gorne"
"Wniebowzięcia Najśw. Maryi Panny ","","Łętowice 114, 33-121 Bogumiłowice,","Łętowice 114, 33-121 Bogumiłowice,","http://www.letowice.diecezja.tarnow.pl/","lentowice@diecezja.tarnow.pl","14-67-97-662","Ks. mgr Jerzy Marszałek","8:00, 10:30, 17:00","7:00, śr. 17:30","","","http://www.diecezja.tarnow.pl/index.php/schematyzm/2010-11-28-21-05-05/424-letowice"
"Najświętszego Serca Pana Jezusa","","Łężkowice 9, 32-015 Kłaj,","Łężkowice 9, 32-015 Kłaj,","www.parafialezkowice.pl","lezkowice@diecezja.tarnow.pl","12-28-41-159","ks. Adam Sztaba","7:00, 9:00, 11:00, 16:00, (VII-VIII 7:00, 10:00, 18:00)","6:30, 18:00 (17:00)","","","http://www.diecezja.tarnow.pl/index.php/schematyzm/2010-11-28-21-05-05/425-lezkowice"
"Najświętszego Serca Pana Jezusa","","33-351 Łomnica Zdrój 232,","33-351 Łomnica Zdrój 232,","","lomnica_zdroj@diecezja.tarnow.pl","18-44-68-071","ks. mgr Jan Mirek","8:00, 10:30, 11:00, 17:00 (16:00)","7:00","","","http://www.diecezja.tarnow.pl/index.php/schematyzm/2010-11-28-21-05-05/426-lomnica-zdroj"
"NMP Wspomożycielki Wiernych","","32-854 Porąbka Uszewska, Łoniowa 243","32-854 Porąbka Uszewska, Łoniowa 243","http://www.loniowa.diecezja.tarnow.pl/","loniowa@diecezja.tarnow.pl","14-66-56-574","ks. Antoni Lelito","8:00; 10:00; 16:00","6:30; śr., pt. 17:00","","","http://www.diecezja.tarnow.pl/index.php/schematyzm/2010-11-28-21-05-05/427-loniowa"
"Narodzenia Najśw. Maryi Panny","","38-314 Łosie 61,","38-314 Łosie 61,","","losie@diecezja.tarnow.pl","18-35-34-706, 18-35-34-308","ks. mgr Stanisław Łaś","7:30, 12:00, Klimkówka 10:00 (wakacje: 18:00)","6:30","","","http://www.diecezja.tarnow.pl/index.php/schematyzm/2010-11-28-21-05-05/428-losie"
"świętych Apostołów Piotra i Pawła","","33-314 Łososina Dolna 80,","33-314 Łososina Dolna 80,","http://www.lososina_dolna.diecezja.tarnow.pl","lososina_dolna@diecezja.tarnow.pl","18-44-48-019","ks. mgr lic. Grzegorz Ociepka","7:00, 9:00, 11:00, 16:00","6:30, 7:00","","","http://www.diecezja.tarnow.pl/index.php/schematyzm/2010-11-28-21-05-05/429-lososina-dolna"
"Wszystkich świętych","","34-601 Limanowa 3,","ul. Koszarska 1,, 34-601 Limanowa 3,","www.lososinagorna.pl","lososina_gorna@diecezja.tarnow.pl","18-33-78-301, 18-33-76-043","ks. dr Stanisław Kowalik","6:30, 8:00, 9:30, 11:00, 17:30 (16:30), Młynne 7:00, 10:00","6:00, 18:30 (17:00), Młynne 17:30 (16:30)","","","http://www.diecezja.tarnow.pl/index.php/schematyzm/2010-11-28-21-05-05/430-lososina-gorna"
"Matki Bożej Bolesnej","","Łukowa 137, 33-140 Lisia Góra,","Łukowa 137, 33-140 Lisia Góra,","","lukowa@diecezja.tarnow.pl","14-67-88-185","Ks. Czesław Górka","7:30, 10:30, 16:00","6:30, 18:00","","","http://www.diecezja.tarnow.pl/index.php/schematyzm/2010-11-28-21-05-05/431-lukowa"
"św. Andrzeja Ap.","","34-606 Łukowica 11,","34-606 Łukowica 11,","","lukowica@diecezja.tarnow.pl","18-333-50-11","ks. mgr Wiesław Majca","7:00, 10:00, 12:00, 16:00 świdnik 8:45, 14:30","6:30, 7:00, 18:00","","","http://www.diecezja.tarnow.pl/index.php/schematyzm/2010-11-28-21-05-05/432-lukowica"
"św. Marcina B.","","38-322 Łużna 6,","38-322 Łużna 6,","","luzna_par@diecezja.tarnow.pl","18-35-43-009","ks. dr Stanisław Kuboń","7:00, 9:00, 10:30, 16:00, kaplica 8:00","6:30, 18:00 (17:00)","","","http://www.diecezja.tarnow.pl/index.php/schematyzm/2010-11-28-21-05-05/433-luzna"
"Matki Bożej Nieustającej Pomocy","","32-853 Łysa Góra 120,","32-853 Łysa Góra 120,","http://www.lysa_gora.diecezja.tarnow.pl","lysa_gora@diecezja.tarnow.pl","14-66-57-317","ks. Marian Wikar","7:00, 9:00, 11:00, 17:00","7:00, 17:00","","","http://www.diecezja.tarnow.pl/index.php/schematyzm/2010-11-28-21-05-05/434-lysa-gora"
"Trójcy Przenajświętszej","","Machowa 68, 39-220 Pilzno,","Machowa 68, 39-220 Pilzno,","http://www.machowa.diecezja.tarnow.pl/","machowa@diecezja.tarnow.pl","14-67-24-531","ks. dr Stanisław Gąsior","7:00, 11:00, 17:00","pn., wt., czk. - 7:00, śr., pt. - 17:00","","","http://www.diecezja.tarnow.pl/index.php/schematyzm/m/435-machowa"
"Najśw. Maryi Panny Wniebowziętej","","33-336 Łabowa","Maciejowa 64, 33-336 Łabowa","","maciejowa@diecezja.tarnow.pl","18-475 10 13","Ks. Stanisław Pałka","8:00, 11:00","16:30 (czas zimowy), 18:30 (czas letni)","","","http://www.diecezja.tarnow.pl/index.php/schematyzm/m/436-maciejowa"
"Niepokalanego Serca Najśw. Maryi Panny","","33-393 Marcinkowice k. Nowego Sącza 3,","33-393 Marcinkowice k. Nowego Sącza 3,","http://www.parafiamarcinkowice.pl","marcinkowice@diecezja.tarnow.pl","18-44-33-119","ks. mgr Józef Babicz","7:00, 9:00, 10:10, 11:30, 16:00","6:30, 18:00","","","http://www.diecezja.tarnow.pl/index.php/schematyzm/m/437-marcinkowice"
"św. Józefa Rzemieślnika","","Maszkienice 1, 32-828 Biadoliny Szlacheckie,","Maszkienice 1, 32-828 Biadoliny Szlacheckie,","","maszkienice@diecezja.tarnow.pl","14-66-38-072","ks. Edward Bryła","7:00, 10:00, 15:00","7:00, 18:00 (17:00)","","","http://www.diecezja.tarnow.pl/index.php/schematyzm/m/438-maszkienice"
"św. Antoniego Opata","","34-654 Męcina 10,","34-654 Męcina 10,","http://www.mecina.diecezja.tarnow.pl/","mecina@diecezja.tarnow.pl","18-33-27-054","ks. mgr Antoni Piś","7:00, 9:00, 11:00, 16:00, kaplice: 7:45, 9:45","6:30, 18:00","","","http://www.diecezja.tarnow.pl/index.php/schematyzm/m/439-mecina"
"Najśw. Maryi Panny Królowej Polski","","33-221 Mędrzechów 1,","33-221 Mędrzechów 1,","http://www.medrzechow.tarnow.opoka.org.pl/","medrzechow@diecezja.tarnow.pl","14-643-71-19","ks. mgr Stanisław Saładyga","7:00, 9:00, 11:00, 16:00, wakacje: 8:00, 10:00, 17:00","7.00, w maju po nab. Majowym, paśdzierniku po nab. różańcowym, listopadzie i adwencie 16.00 lub 19.","","","http://www.diecezja.tarnow.pl/index.php/schematyzm/m/440-medrzechow"
"Najśw. Maryi Panny Królowej Polski","","Michalczowa 43, 33-314 Łososina Dolna,","Michalczowa 43, 33-314 Łososina Dolna,","","michalczowa@diecezja.tarnow.pl","18-44-48-045","ks. mgr Marian Brach","7:00, 10:00","7:00, śr. 18:00","","","http://www.diecezja.tarnow.pl/index.php/schematyzm/m/441-michalczowa"
"Ducha Świętego","","39-300 Mielec,","ul. Pisarka 16,, 39-300 Mielec,","http://www.mielec.ducha.diecezja.tarnow.pl","mielec3@diecezja.tarnow.pl","17-58-52-177, 17-58-27-013 kanc. w. 20","ks. mgr Waldemar Ciosek","6:00, 7:30, 9:00, 10:30, 12:00, 14:00 ","6:00, 6:30, 7:00, 19:00 (18:00)",": 6:30, 9:00, 10:30, 15:30, 17:00, 19:00","","http://www.diecezja.tarnow.pl/index.php/schematyzm/m/444-mielec-ducha-swietego"
"Matki Bożej Nieustającej Pomocy","","39-301 Mielec,","ul. Ks. H. Arczewskiego 1,, 39-301 Mielec,","http://www.mielecmbnp.tarnow.opoka.org.pl/","mielec1@diecezja.tarnow.pl","17-58-62-262, 17-58-62-634","ks. mgr Kazimierz Czesak","6:00, 7:30, 9:00, 10:30, 12:00, 14:00, 17:00, 19:00","6:00, 6:30, 7:00, 18:00","","","http://www.diecezja.tarnow.pl/index.php/schematyzm/m/442-mielec-matki-bozej-nieustajacej-pomocy"
"św. Marka Ewangelisty","","39-323 Mielec 5,","ul. Rzochowska 89,, 39-323 Mielec 5,","http://www.mielec.rzochow.diecezja.tarnow.pl/","mielec_rzochow@diecezja.tarnow.pl","17- 58-28-101","ks. mgr Jerzy Ptak","7:30, 9:30, 11:00, 16:30","7:00, 19:00 (17:00)","","","http://www.diecezja.tarnow.pl/index.php/schematyzm/m/446-mielec-sw-marka"
"św. Mateusza Ap. Ew.","","39-300 Mielec,","ul. bł. ks. Romana Sitki 3, 39-300 Mielec,","http://www.mateusz.mielec.diecezja.tarnow.pl","mielec4@diecezja.tarnow.pl","17-58-62-228","ks. mgr lic. Janusz Kłęczek","6:30, 8:00, 9:30, 11:00, 12:30, 16:30, 18:00, Os. Wojsław 8:30, 11:00, św. Marka 10:00","6:00, 7:00, 7:30, 18:00","","","http://www.diecezja.tarnow.pl/index.php/schematyzm/m/445-mielec-sw-mateusza"
"Trójcy Przenajświętszej","","39-303 Mielec,","ul. Kardynała Stefana Wyszyńskiego 14,, 39-303 Mielec,","http://www.ptp.tarnow.opoka.org.pl/","ptp@tarnow.opoka.org.pl","17-58-25-307","ks. mgr Stanisław Składzień","6:30, 7:30, 9:00, 10:30, 12:00, 14:30, 18:00","6:30, 18:00","","","http://www.diecezja.tarnow.pl/index.php/schematyzm/m/443-mielec-trojcy-przenajswietszej"
"św. Jana Chrzciciela","","Mikluszowice 45, 32-708 Dziewin,","Mikluszowice 45, 32-708 Dziewin,","http://mikluszowice.parafia.info.pl/","mikluszowice@diecezja.tarnow.pl","12-28-17-125","Ks. Józef Piech","7:00, 9:00, 11:00, 16:00, Bogucice 8:30","6:30, śr., pt., sob. Także 17:00 (18:00)Odpust:27 grudnia - św. Jana Ewangelisty, 24 czerwca - św. J","","","http://www.diecezja.tarnow.pl/index.php/schematyzm/m/447-mikluszowice"
"Najświętszego Serca Pana Jezusa","","Mikołajowice, 33-121 Bogumiłowice,","Mikołajowice, 33-121 Bogumiłowice,","http://www.mikolajowice.diecezja.tarnow.pl/","mikolajowice@diecezja.tarnow.pl","14-67-97-234","Ks. mgr Franciszek Cieśla","8:00, 10:30, 16:00","6:30, środy i piatek - godz.18.00 (czas zimowy 17:00) Nowenna do MBNP i Msza św","","","http://www.diecezja.tarnow.pl/index.php/schematyzm/m/448-mikolajowice"
"świętych Męczenników Kosmy i Damiana","","Milik 31, 33-370 Muszyna,","Milik 31, 33-370 Muszyna,","","milk@diecezja.tarnow.pl","18-47-14-850","ks. mgr Wiesław Nowak","7:30, 11:00, Andrzejówka 9:30","19:00 (18:00), wt. Andrzejówka 17:30 (16:30)","","","http://www.diecezja.tarnow.pl/index.php/schematyzm/m/449-milik"
"Najśw. Maryi Panny Częstochowskiej","","Mochnaczka Niżna 46, 33-383 Tylicz,","Mochnaczka Niżna 46, 33-383 Tylicz,","","mochnaczka@diecezja.tarnow.pl","18-47-61-825","ks. Jan Godek","8:00, 10:30, 15:00","7:00, śr., pt. 18:00 (czas zimowy 17:00)","","","http://www.diecezja.tarnow.pl/index.php/schematyzm/m/451-mochnaczka"
"św. Marcina B.","","33-236 Mogilno 145,","33-236 Mogilno 145,","http://www.parafiamogilno.pl","mogilno@diecezja.tarnow.pl","18-44-05-318","ks. mgr Emil Myszkowski","7:00, 9:00, 11:00, 16:00, Koniuszowa 14:00","6:30, 18:00 (17:00)","","","http://www.diecezja.tarnow.pl/index.php/schematyzm/m/452-mogilno"
"Najświętszego Serca Pana Jezusa","","Mokrzyska, 32-800 Brzesko,","ul. Dobrego Pasterza 2,, Mokrzyska, 32-800 Brzesko,","http://www.mokrzyska.diecezja.tarnow.pl","mokrzyska@diecezja.tarnow.pl","14-68-68-020","ks. mgr Jan Panek","7:30, 10:30, 16:00 (15:00)","7:00, śr. 18:00 (17:00), V i X 18:00","","","http://www.diecezja.tarnow.pl/index.php/schematyzm/m/453-mokrzyska"
"Miłosierdzia Bożego","","34-600 Limanowa,","ul. Jana Pawła II 1, 34-600 Limanowa,","http://www.parafia.mordarka.pl","","18-337-22-64","ks. mgr Zbigniew Stabrawa","7:30, 11:00, 15:00","pn, śr, ptk: 17:00; wt, czk, sb: 7:00","","","http://www.diecezja.tarnow.pl/index.php/schematyzm/m/931-mordarka"
"Matki Bożej Szkaplerznej","","38-321 Moszczenica Małopolska 243,","38-321 Moszczenica Małopolska 243,","","moszczenica@diecezja.tarnow.pl","18-35-41-001","ks. mgr Tadeusz Machał","7:00, 9:00, 11:00, 16:00","6:30, śr. 18:30","","","http://www.diecezja.tarnow.pl/index.php/schematyzm/m/454-moszczenica"
"św. Mikołaja Bpa","","Moszczenica Niżna 130, 33-340 Stary Sącz,","Moszczenica Niżna 130, 33-340 Stary Sącz,","http://www.parafiamoszczenica.pl","moszczenica_nizna@diecezja.tarnow.pl","18-44-60-223","ks. mgr Tadeusz Brzeziński","7:00, 9:00, 11:00","7:00, czw., pt., sob. 18:00","","","http://www.diecezja.tarnow.pl/index.php/schematyzm/m/455-moszczenica-nizna"
"świętych Apostołów Piotra i Pawła","","Mszanka 32, 38-332 Wola Łużańska,","Mszanka 32, 38-332 Wola Łużańska,","","mszanka@diecezja.tarnow.pl","18-35-21-189","ks. mgr Jacek Mikulski","7:00, 9:30, 15:00","7:00, pon., śr., pt. 18:00 (16:00)","","","http://www.diecezja.tarnow.pl/index.php/schematyzm/m/456-mszanka"
"Najświętszego Serca Pana Jezusa","","Muchówka 56, 32-722 Królówka,","Muchówka 56, 32-722 Królówka,","parafiamuchowka.pl","muchowka@diecezja.tarnow.pl","14-612-93-20","ks. mgr Paweł Bartula","7:00, 10:00, 15:00 z nieszporami","6:30, śr., pt. 19:00 (17:00)","","","http://www.diecezja.tarnow.pl/index.php/schematyzm/m/457-muchowka"
"Bł. M. Teresy Ledóchowskiej","","33-370 Muszyna,","ul. Kościuszki 8b,, 33-370 Muszyna,","","muszyna2@diecezja.tarnow.pl","18-47-14-127","ks. mgr Franciszek Niemiec","8:00, 10:00, 17:00","8:00 lub 18:00","","","http://www.diecezja.tarnow.pl/index.php/schematyzm/m/459-muszyna-bl-m-t-ledochowskiej"
"św. Józefa Oblubieńca NMP","","33-370 Muszyna,","ul. Kościelna 62,, 33-370 Muszyna,","http://www.muszyna.diecezja.tarnow.pl","muszyna1@diecezja.tarnow.pl","18-47-14-008","ks. mgr Paweł Stabach","6:00, 8:00, 9:15, 10:30, 11:45, 16:30, 19:00 (czas zimowy 15:00, 17:00)","6:30, 9:00, 19:00 (czas zimowy 17:00)","","","http://www.diecezja.tarnow.pl/index.php/schematyzm/m/458-muszyna"
"świętych Apostołów Filipa i Jakuba Mł.","","Mystków 9, 33-334 Kamionka Wielka,","Mystków 9, 33-334 Kamionka Wielka,","http://www.mystkow.diecezja.tarnow.pl","mystkow@diecezja.tarnow.pl","18-44-56-662","ks. mgr lic. Józef Głowa","7:15, 9:00, 11:00, 16:00","6:30, 18:30","","","http://www.diecezja.tarnow.pl/index.php/schematyzm/m/460-mystkow"
"św. Stanisława BM","","Młyńczyska 107, 34-606 Łukowica,","Młyńczyska 107, 34-606 Łukowica,","","mlynczyska@diecezja.tarnow.pl","18-33-35-276","ks. mgr Benedykt Szlęzak","8:00, 11:00, 15:00","wt., czw., sob. 7:00, pon., śr., pt. 18:00 (17:00)","","","http://www.diecezja.tarnow.pl/index.php/schematyzm/m/450-mlynczyska"
"Dobrego Pasterza","","Nagawczyna, 39-200 Dębica,","Nagawczyna, 39-200 Dębica,","http://www.parafianagawczyna.pl","nagawczyna@diecezja.tarnow.pl","14-67-72-294","ks. Mieczysław Jakóbczyk","7:30, 9:00, 10:30, 17:00","7:00, śr., czw., pt. 18:00 (17:30 - czas zimowy)","","","http://www.diecezja.tarnow.pl/index.php/schematyzm/n/461-nagawczyna"
"św. Antoniego Padewskiego","","39-203 Nagoszyn 12,","39-203 Nagoszyn 12,","www.nagoszyn.diecezja.tarnow.pl","nagoszyn@diecezja.tarnow.pl","14-682-37-32","ks. dr hab Kazimierz Talarek","7:00, 8:15, 9:30, 11:00, 17:00","6:30, 18:30 (17:00)","","","http://www.diecezja.tarnow.pl/index.php/schematyzm/n/462-nagoszyn"
"Nawiedzenia Najśw. Maryi Panny","","33-335 Nawojowa 25,","33-335 Nawojowa 25,","www.nawojowa.diecezja.tarnow.pl","nawojowa@diecezja.tarnow.pl","18-44-57-142,","ks. mgr Henryk Madziar","7:00, 9:00, 10:30, 12:00, 18:00 (17:00 - zima); Bącza 9:00; Frycowa 7:00, 12:00 (VII i VIII tylko 7:00); Czaczów 9:30, 11:00 (VII i VIII tylko 12:00) Złotne 10:30.","6:30, 18:00 (17:00 - zima)","","","http://www.diecezja.tarnow.pl/index.php/schematyzm/n/463-nawojowa"
"Najśw. Maryi Panny Królowej Polski","","Nieciecza 185, 33-240 Żabno,","Nieciecza 185, 33-240 Żabno,","","nieciecza@diecezja.tarnow.pl","14-64-56-739","ks. mgr Krzysztof Pasyk","8:00, 10:00, 17:00","7:00, sob. 17:00, V, X, W. Post, Adwent - 18:00","","","http://www.diecezja.tarnow.pl/index.php/schematyzm/n/464-nieciecza"
"Siedmiu Boleści Najśw. Maryi Panny","","33-205 Nieczajna 336,","33-205 Nieczajna 336,","","nieczajna@diecezja.tarnow.pl","14-64-28-103","ks. Stanisław Bieleń","8:00, 10:30, 16:00","6:30","","","http://www.diecezja.tarnow.pl/index.php/schematyzm/n/465-nieczajna"
"Matki Bożej Nieustającej Pomocy","","33-132 Niedomice,","ul. Tysiąclecia 26,, 33-132 Niedomice,","","niedomice@diecezja.tarnow.pl","14-64-57-542","ks. mgr Jan Toboła","7:30, 9:30, 11:00, 16:00 (wakacje: 10:00, 16:00)","6:30, 19:00 (17:00)","","","http://www.diecezja.tarnow.pl/index.php/schematyzm/n/466-niedomice"
"św. Feliksa M","","Niedzieliska 115, 32-820 Szczurowa,","Niedzieliska 115, 32-820 Szczurowa,","http://www.niedzieliska.diecezja.tarnow.pl/","niedzieliska@diecezja.tarnow.pl","14-67-14-131","ks. mgr Józef Masłoń","7:00, 10:30, 16:00","7:00 (V-17:30, X-18:00)","","","http://www.diecezja.tarnow.pl/index.php/schematyzm/n/467-niedzieliska"
"Najśw. Maryi Panny Królowej Polski","","Niedźwiedza 8, 32-854 Porąbka Uszewska,","Niedźwiedza 8, 32-854 Porąbka Uszewska,","","niedzwiedza@diecezja.tarnow.pl","14-66-56-121","ks. Stanisław Dudek","8:00, 10:30, 16:00","7:00, śr., pt. 18:00 (16:00-okr.zimowy)","","","http://www.diecezja.tarnow.pl/index.php/schematyzm/n/468-niedzwiedza"
"św. Stanisława Kostki","","33-395 Chełmiec","Niskowa 178, 33-395 Chełmiec","www.niskowa.pl","niskowa@diecezja.tarnow.pl","18-44-04-141","ks. mgr Krzysztof Prokop","8.00, 10.00, 15.00","pn, śr, pt - 18.00, wt, czw., sob. - 7.00","","","http://www.diecezja.tarnow.pl/index.php/schematyzm/n/469-niskowa"
"Najświętszego Serca Pana Jezusa","","33-151 Nowa Jastrząbka 27,","33-151 Nowa Jastrząbka 27,","http://www.n_jastrzabka.diecezja.tarnow.pl/","nowa_jastrzabka@diecezja.tarnow.pl","14-678-60-11","ks. mgr Stanisław Łątka","7:00, 9:00, 11:00, 17:00, kaplica 15:00","7:00, 19:00 (17:00)","","","http://www.diecezja.tarnow.pl/index.php/schematyzm/n/470-nowa-jastrzabka"
"Matki Bożej Anielskiej","","33-336 Łabowa, Nowa Wieś 55,","33-336 Łabowa, Nowa Wieś 55,","","nowa_wies@diecezja.tarnow.pl","18 476 11 83","ks. Wojciech Ochalik","7:00, 10:00, Łosie 11:30, Roztoka 8:30","18:00, Roztoka 17:00","","","http://www.diecezja.tarnow.pl/index.php/schematyzm/n/471-nowa-wies"
"Znalezienia Krzyża św.","","34-652 Nowe Rybie 26,","34-652 Nowe Rybie 26,","http://www.nowerybie.parafia.info.pl","nowe_rybie@diecezja.tarnow.pl","18-33-22-105","ks. Kazimierz Basista","7:00, 10:30, 16:00 (15:00)","6:30, 17:00 (16:00)","","","http://www.diecezja.tarnow.pl/index.php/schematyzm/n/472-nowe-rybie"
"św. Wawrzyńca M","","33-310 Nowy Sącz,","ul. Biegonicka 8,, 33-310 Nowy Sącz,","http://www.parafiabiegonice.pl","kontakt@parafiabiegonice.pl","18-44-29-522","ks. mgr lic. Piotr Lisowski","6:00, 7:30, 9:00, 10:30, 15:30 (z nieszporami)","6:00, 18:00 (19:00 - w lipcu i sierpniu)","","","http://www.diecezja.tarnow.pl/index.php/schematyzm/n/481-nowy-sacz-biegonice"
"Ducha Świętego","","33-300 Nowy Sącz,","ul. Ks. P. Skargi 10,, 33-300 Nowy Sącz,","http://www.jezuici.pl/nowysacz/","nowy_sacz1@diecezja.tarnow.pl","18-44-37-198,","O. Józef Polak SJ","5:30, 6:15, 7:30, 9:00, 10:30, 12:00, 16:00, 18:00, 20:00 (akademicka)","6:00, 7:00, 8:00, 9:00, 18:00","","","http://www.diecezja.tarnow.pl/index.php/schematyzm/n/473-nowy-sacz-ducha-swietego"
"Matki Bożej Bolesnej","","33-300 Nowy Sącz,","ul. Kręta 1,, 33-300 Nowy Sącz,","","nowy_sacz4@diecezja.tarnow.pl","18-44-39-679","ks. dr Antoni Koterla","6:30, 9:30, 11:00, 12:30, 16:00, Jamnica 8:00, 14:00, Poręba 8:00, 14:00","6:30, 18:00","","","http://www.diecezja.tarnow.pl/index.php/schematyzm/n/476-nowy-sacz-matki-bozej-bolesnej"
"Matki Bożej Niepokalanej","","33-300 Nowy Sącz","ul. Królowej Jadwigi 44,, 33-300 Nowy Sącz","http://www.mbnsacz.neostrada.pl","nowy_sacz5@diecezja.tarnow.pl","18-44-36-581","ks. mgr Kazimierz Markowicz","6:30, 7:30, 9:00, 10:30, 12:00, 13:30, 19:00","6:00, 6:30, 7:30, 18:00","","","http://www.diecezja.tarnow.pl/index.php/schematyzm/n/477-nowy-sacz-matki-bozej-niepokalanej"
"Najświętszego Serca Pana Jezusa","","33-300 Nowy Sącz,","ul. Zygmuntowska 48,, 33-300 Nowy Sącz,","http://www.kolejowa.pl","nowy_sacz6@diecezja.tarnow.pl","18-448-46-10","o. Stanisław Jopek SJ","6:30, 8:00, 9:30, 11:00, 12:30, 14:00, 15:30, 18:30, 20:00","6:00, 6:30, 7:00, 7:30, 8:00, 8:30, 18:00","","","http://www.diecezja.tarnow.pl/index.php/schematyzm/n/478-nowy-sacz-najswietszego-serca-pana-jezusa"
"Bożego Miłosierdzia","","33-301 Nowy Sącz,","1 Pułku Strzelców Podhalańskich 5, 33-301 Nowy Sącz,","","nowy_sacz9@diecezja.tarnow.pl","18-44-92-113","o. Andrzej Gut OCD","dni powszednie","Odpust parafialny","","","http://www.diecezja.tarnow.pl/index.php/schematyzm/n/482-nowy-sacz-parafia-wojskowa"
"św. Heleny","","33-395 Nowy Sącz-Chełmiec,","ul. św. Heleny 44,, 33-395 Nowy Sącz-Chełmiec,","http://www.helenans.tarnow.opoka.org.pl/","nowy_sacz8@diecezja.tarnow.pl","18-44-30-421,","Ks. mgr Stanisław Michalik","6:30, 8:00, 9:30, 11:00, 12:15, 13:00, 18:00","7:00, 18:00","","","http://www.diecezja.tarnow.pl/index.php/schematyzm/n/480-nowy-sacz-sw-heleny"
"św. Jana Chrzciciela","","33-300 Nowy Sącz,","ul. Zagranicznik 4,, 33-300 Nowy Sącz,","http://www.poreba_mala.diecezja.tarnow.pl","nowy_sacz-poreba@diecezja.tarnow.pl","+48 601 686 584","ks. mgr Eugeniusz Mrożek","7:00, 9:00, 11:00, 16:00","6:30, środy i piątki 6:30, 18:00 (17:00)","","","http://www.diecezja.tarnow.pl/index.php/schematyzm/n/1333-nowy-sacz-sw-jana-chrzciciela"
"św. Jana Pawła II","","33-300 Nowy Sącz,","Batalionów Chłopskich 39a, 33-300 Nowy Sącz,","http://www.kaplicabarskie.pl","nowy_sacz_jp2@diecezja.tarnow.pl","515022018","ks. mgr Zbigniew Biernat","8:00, 10:00, 11:30, 16:00","poniedziałek, środa, czwartek i sobota - 6:00","","","http://www.diecezja.tarnow.pl/index.php/schematyzm/73-informacje-o-parafiach-w-diecezji/n/5369-nowy-sacz-sw-jana-pawla-ii"
"św. Kazimierza","","33-300 Nowy Sącz,","ul. Sygańskiego 3, 33-300 Nowy Sącz,","http://www.nsacz.kazimierza.diecezja.tarnow.pl","nowy_sacz2@diecezja.tarnow.pl","18-44-37-552","ks. dr Jan Siedlarz","6:30, 8:00, 9:30, 11:00, 12:15, 15:15, 18:00, 19:30, St. Cmentarz 7:00, 8:30, 10:00, 11:30 i 17:00","6:00, 7:00, 8:00, 9:00, 18:00, St. Cmentarz 6:30","","","http://www.diecezja.tarnow.pl/index.php/schematyzm/n/474-nowy-sacz-sw-kazimierza"
"św. Małgorzaty","","33-300 Nowy Sącz,","Pl. Kolegiacki 1,, 33-300 Nowy Sącz,","http://www.swmalgns.tarnow.opoka.org.pl/","nowy_sacz3@diecezja.tarnow.pl","18-44-35-698; 18-44-36-198","ks. dr Jerzy Jurkiewicz","6:00,7:30,9:00,10:30,12:00,14:00,17:00,19:00 (VII-VIII 21:00), Falkowa 9:00, 12:00, Januszowa 10:30","6:00, 6:30, 7:00, 7:30, 8:00, 8:30, 9:00, 18:00","","","http://www.diecezja.tarnow.pl/index.php/schematyzm/n/475-nowy-sacz-sw-malgorzaty"
"św. Rocha","","33-300 Nowy Sącz,","ul. Bohaterów Orła Białego 40a,, 33-300 Nowy Sącz,","http://nowysaczswrocha.diecezja.tarnow.pl/","nowy_sacz7@diecezja.tarnow.pl","18-44-29-556","ks. mgr Józef Janas","7:30, 9:30, 11:00, 12:15, 17:00","6:30, 18:00 (17:00)","","","http://www.diecezja.tarnow.pl/index.php/schematyzm/n/479-nowy-sacz-sw-rocha"
"Najśw. Maryi Panny Częstochowskiej","","33-300 Nowy Sącz,","ul. Myśliwska 1,, 33-300 Nowy Sącz,","","nowy_sacz_zabelcze@diecezja.tarnow.pl","18-44-13-509","ks. mgr Eugeniusz Mrożek","7:00, 9:00, 11:00","19:00 (17:00)","","","http://www.diecezja.tarnow.pl/index.php/schematyzm/n/483-nowy-sacz-zabelcze"
"Najśw. Maryi Panny Wniebowziętej","","32-720 Nowy Wiśnicz,","Pl. Kościelny 2,, 32-720 Nowy Wiśnicz,","http://www.parafiawisnicz.pl/","nowy_wisnicz@diecezja.tarnow.pl","14-61-28-545","ks. mgr Krzysztof Wąchała","6:30, 7:45, 9:00, 10:00 (kaplica w Połomiu Dużym) 11:00 - dla dzieci, 15:00, 17:00","6:30, 7:00, 17:00 (lato 18:00)","","","http://www.diecezja.tarnow.pl/index.php/schematyzm/n/484-nowy-wisnicz"
"Trójcy Przenajświętszej","","Obidza 222, 33-389 Jazowsko,","Obidza 222, 33-389 Jazowsko,","","obidza@diecezja.tarnow.pl","18-44-47-105","ks. mgr Jan Gwóźdź","7:30, 10:00, 12:00","18:00 (17:00)","","","http://www.diecezja.tarnow.pl/index.php/schematyzm/o/485-obidza"
"Znalezienia Krzyża św.","","34-452 Ochotnica Dolna 102,","34-452 Ochotnica Dolna 102,","http://www.parafia.ochotnica.pl","ochotnica_dolna@diecezja.tarnow.pl","18-26-24-666","ks. mgr Paweł Legutko","7:00, 9:00, 11:30, 16:00, Młynne 10:15","7:00, wt., śr., czw., pt., sob. 17:00","","","http://www.diecezja.tarnow.pl/index.php/schematyzm/o/486-ochotnica-dolna"
"Najśw. Maryi Panny Wniebowziętej","","34-453 Ochotnica Górna 218a,","34-453 Ochotnica Górna 218a,","http://www.par-och-gor.iaw.pl","ochotnica_gorna@diecezja.tarnow.pl","18-26-24-186","ks. dr Jan Mikulski","7:00, 9:00, 11:00, 16:00, Jamne 10:00","7:00, 17:00 (w okresie letnim 18:00, we wakacje 19:00)","","","http://www.diecezja.tarnow.pl/index.php/schematyzm/o/487-ochotnica-gorna"
"św. Katarzyny Aleksandryjskiej PM","","39-104 Ocieka 351,","39-104 Ocieka 351,","","ocieka@diecezja.tarnow.pl","17-22-35-742","ks. Jan Gaworczyk","7:00, 9.00, 11:00, 17:00, kaplica w Bliźnie 14:00","7:00, 18:00","","","http://www.diecezja.tarnow.pl/index.php/schematyzm/o/488-ocieka"
"Oczyszczenia Najśw. Maryi Panny","","Odporyszów 127, 33-240 Żabno,","Odporyszów 127, 33-240 Żabno,","","odporyszow@diecezja.tarnow.pl","14-64-56-984","ks. mgr Ryszard Kowalski CM","6:30, 8:30, 10:00, 11:30, 17:00 ","6:30, 7:00, 18:00",": 7:00, 9:00, 16:00, 18:00","","http://www.diecezja.tarnow.pl/index.php/schematyzm/o/489-odporyszow"
"Trójcy Przenajświętszej","","Okocim 32, 32-800 Brzesko 3,","Goetzów Okocimskich 82, Okocim 32, 32-800 Brzesko 3,","","okocim@diecezja.tarnow.pl","14-66-32-044","ks. dr Wiesław Pieja","7:00, 9:00, 10:30, 16:00 (V-VI 18:00), nieszpory 16:30","6:30, 7:00, śr., sob., 18:00","","","http://www.diecezja.tarnow.pl/index.php/schematyzm/o/490-okocim"
"Narodzenia Najśw. Maryi Panny","","Okulice 54, 32-712 Bratucice,","Okulice 54, 32-712 Bratucice,","http://www.parokulice.tarnow.opoka.org.pl/","okulice@diecezja.tarnow.pl","14-68-51-094, 14-61-20-974","ks. mgr Roman Majoch","7:00, 9:00, 11:00, 16:00 (15:00), Buczków 10:00","6:00, 17:00 (18:00, 19:00)","","","http://www.diecezja.tarnow.pl/index.php/schematyzm/o/491-okulice"
"św. Katarzyny PM","","33-210 Olesno,","ul. Długa 31a,, 33-210 Olesno,","www.olesno.diecezja.tarnow.pl","olesno@diecezja.tarnow.pl","14-64-11-014","ks. mgr Jan Rybak","7:00, 9:00, 11:00, 15:00, Podborze 8:00, Dąbrówki Breńskie 10:00","6:30, 18:00","","","http://www.diecezja.tarnow.pl/index.php/schematyzm/o/492-olesno"
"Najśw. Maryi Panny Królowej Polski","","Olszanka 95, 33-386 Podegrodzie,","Olszanka 95, 33-386 Podegrodzie,","http://www.parafiaolszanka.pl","olszanka@diecezja.tarnow.pl","18-44-90-240","ks. Paweł Pająk","7:00, 9:00, 11:00","7:00, pon., śr., pt. 18:30","","","http://www.diecezja.tarnow.pl/index.php/schematyzm/o/493-olszanka"
"Imienia Najśw. Maryi Panny","","32-831 Olszyny 29,","32-831 Olszyny 29,","","olszyny2@diecezja.tarnow.pl","14-67-91-201","ks. Jakub Rozum","7:00, 10:00, 16:00","6:30, śr. 18:00","","","http://www.diecezja.tarnow.pl/index.php/schematyzm/o/495-olszyny-imienia-najsw-maryi-panny"
"Podwyższenia Krzyża","","33-164 Olszyny k. Jasła 288,","33-164 Olszyny k. Jasła 288,","http://www.parolszyny.tarnow.opoka.org.pl/","olszyny1@diecezja.tarnow.pl","14-65-32-646","ks. mgr Dariusz Nawalaniec","7:30, 9:00, 10:30, 16:00","6:30, 7:00, śr. 7:00, 17:00 (18:00)","","","http://www.diecezja.tarnow.pl/index.php/schematyzm/o/494-olszyny"
"Najśw. Maryi Panny Królowej Polski","","39-103 Ostrów 95,","39-103 Ostrów 95,","","ostrow@diecezja.tarnow.pl","17-74-51-047","ks. mgr Józef Rusnarczyk","7:30, 10:30, 16:00","18:00","","","http://www.diecezja.tarnow.pl/index.php/schematyzm/o/497-ostrow"
"świętych Apostołów Piotra i Pawła","","33-250 Otfinów 26,","33-250 Otfinów 26,","","otfinow@diecezja.tarnow.pl","14-64-52-309","ks. mgr Tadeusz Rzeźnik","7:00, 10:00, 16:00, Kłyż 8:30","6:30, 19:00","","","http://www.diecezja.tarnow.pl/index.php/schematyzm/o/498-otfinow"
"Najśw. Maryi Panny Wniebowziętej","","38-247 Ołpiny 56,","38-247 Ołpiny 56,","","olpiny_par@diecezja.tarnow.pl","14-65-19-214","ks. mgr Kazimierz Skrobot","7:00, 9:00, 11:00, 18:00","6:30, 18:00","","","http://www.diecezja.tarnow.pl/index.php/schematyzm/o/496-olpiny"
"św. Justyny PM","","32-842 Paleśnica 39,","32-842 Paleśnica 39,","","palesnica@diecezja.tarnow.pl","14-66-54-117","ks. dr Paweł Biel","7:00, 9:30, 16:00","6:30","","","http://www.diecezja.tarnow.pl/index.php/schematyzm/p/499-palesnica"
"Matki Bożej Pocieszenia","","Pasierbiec 98, 34-601 Limanowa 3,","Pasierbiec 98, 34-601 Limanowa 3,","http://www.pasierbiec.diecezja.tarnow.pl","pasierbiec@diecezja.tarnow.pl","18-33-76-261,","ks. mgr Józef Waśniowski","7:00, 9:00, 11:00, 16:00","6:30, 11:00, 18:00 (6:30, 17:00)","","","http://www.diecezja.tarnow.pl/index.php/schematyzm/p/500-pasierbiec"
"Matki Bożej Różańcowej","","Paszczyna 148A, 39-207 Brzeźnica Dębicka,","Paszczyna 148A, 39-207 Brzeźnica Dębicka,","","paszczyna@diecezja.tarnow.pl","14-68-25-720","ks. Stanisław Łącz","7:30, 10:00, 15:00","7:00 lub 18:00 (17:00)","","","http://www.diecezja.tarnow.pl/index.php/schematyzm/p/501-paszczyna"
"Matki Bożej Nieustającej Pomocy","","33-327 Paszyn 197,","33-327 Paszyn 197,","www.parafiapaszyn.sacz.pl","paszyn@diecezja.tarnow.pl","18-44-02-797","ks. mgr Jerzy Bulsa","7:00, 9:00, 11:00, 16:00","7:00, śr. 7:00, 17:00 (18:00)","","","http://www.diecezja.tarnow.pl/index.php/schematyzm/p/502-paszyn"
"Najśw. Maryi Panny Królowej świata","","Pawęzów 27a, 33-103 Tarnów 5","Pawęzów 27a, 33-103 Tarnów 5","http://www.pawezow.net/Parafia","pawezow@diecezja.tarnow.pl","14-62-51-186","ks. mgr Tadeusz Wszołek","7:00, 10:00, nieszpory 15:00","6:30","","","http://www.diecezja.tarnow.pl/index.php/schematyzm/p/503-pawezow"
"Matki Bożej Nieustającej Pomocy","","Piątkowa 11, 33-300 Nowy Sącz,","Piątkowa 11, 33-300 Nowy Sącz,","","piatkowa@diecezja.tarnow.pl","18-44-10-292, 18-44-10-399","ks. Stanisław Jewuła","7:00, 9:00, 11:00, 18:00, Boguszowa 10:00","7:00, 18:00","","","http://www.diecezja.tarnow.pl/index.php/schematyzm/p/504-piatkowa"
"św. Jana Chrzciciela","","39-220 Pilzno,","ul. Lwowska 3,, 39-220 Pilzno,","http://www.pilzno.diecezja.tarnow.pl/","pilzno@diecezja.tarnow.pl","14-67-21-021, 14-67-22-488","ks. mgr Józef Jabłoński","6:30, 8:00, 9:00, 10:30, 12:00, 18:00 (17:00)","6:30, 7:00 18:00 (17:00)","","","http://www.diecezja.tarnow.pl/index.php/schematyzm/p/505-pilzno"
"św. Michała Archanioła","","Piotrkowice 8, 33-170 Tuchów,","Piotrkowice 8, 33-170 Tuchów,","http://www.piotrkowice.diecezja.tarnow.pl/","piotrkowice@diecezja.tarnow.pl","14-65-20-454","ks. mgr Stefan Michalski","7:30, 10:30, 16:00 (15:00), Łowczów 9:00","6:30, 7:00","","","http://www.diecezja.tarnow.pl/index.php/schematyzm/p/506-piotrkowice"
"św. Jana Ewangelisty","","34-653 Pisarzowa 20,","34-653 Pisarzowa 20,","","pisarzowa@diecezja.tarnow.pl","18-33-28-104","ks. Andrzej Bąk","7:30, 10:45, 16:00","18:00 (17:00)","","","http://www.diecezja.tarnow.pl/index.php/schematyzm/p/507-pisarzowa"
"Matki Bożej Nieustającej Pomocy","","33-350 Piwniczna Zdrój,","ul. Kosarzyska 31,, 33-350 Piwniczna Zdrój,","http://www.parafia-kosarzyska.piwniczna.com","piwniczna_kosarzyska@diecezja.tarnow.pl","18-44-64-115","ks. mgr Rafał Poręba","8:00, 11:00, 18:00 (17:00)","6:30, 18:00 (17:00)","","","http://www.diecezja.tarnow.pl/index.php/schematyzm/p/508-piwniczna-kosarzyska"
"Narodzenia Najśw. Maryi Panny","","33-350 Piwniczna Zdrój,","ul. Krakowska 6,, 33-350 Piwniczna Zdrój,","http://www.parafia-nnmp.tarnow.opoka.org.pl/","piwniczna_zdroj@diecezja.tarnow.pl","18-44-64-020","Ks. mgr Krzysztof Czech","7:00, 8:30, 10:00, 11:30, 19:00 (17:00)","6:30, 8:00, 19:00 (17:00)","","","http://www.diecezja.tarnow.pl/index.php/schematyzm/p/509-piwniczna-zdroj"
"Najśw. Maryi Panny Wniebowziętej","","33-171 Pleśna 71,","33-171 Pleśna 71,","http://www.plesna.diecezja.tarnow.pl","plesna@diecezja.tarnow.pl","14-679-81-16","ks. mgr Józef Bobowski","7:00, 9:00, 11:30, 18:00 (17:00), Rychwałd 10:15","6:00, 6:30, 18:00 (17:00)","","","http://www.diecezja.tarnow.pl/index.php/schematyzm/p/510-plesna"
"św. Jakuba St. Ap.","","33-386 Podegrodzie 57,","33-386 Podegrodzie 57,","http://www.podegrodzie.diecezja.tarnow.pl","podegrodzie@diecezja.tarnow.pl","18-44-59-031","ks. mgr Józef Wałaszek","7:00, 9:00, 11:00, 16:00, Naszacowice 13:15, Mokra Wieś 14:30, Gostwica 8:00","6:00, 6:30, 18:00 (17:00)","","","http://www.diecezja.tarnow.pl/index.php/schematyzm/p/511-podegrodzie"
"Przemienienia Pańskiego","","Podgrodzie 91c, 39-200 Dębica,","Podgrodzie 91c, 39-200 Dębica,","","podgrodzie@diecezja.tarnow.pl","14-67-74-073","ks. mgr Jan Michalik","7:30, 10:00, 16:00 (15:00)","7:00","","","http://www.diecezja.tarnow.pl/index.php/schematyzm/p/512-podgrodzie"
"Podwyższenia Krzyża św.","","Podole 4, 33-318 Gródek n.D.,","Podole 4, 33-318 Gródek n.D.,","","podole@diecezja.tarnow.pl","18-44-01-053","ks. Adam Urbański","7:00, 9:30, 11:00, 16:00","6:30, 18:00","","","http://www.diecezja.tarnow.pl/index.php/schematyzm/p/514-podole"
"Miłosierdzia Bożego","","Podłopień 300, 34-650 Tymbark,","Podłopień 300, 34-650 Tymbark,","","podlopien@diecezja.tarnow.pl","18-33-25-135","ks. mgr Wiesław Orwat","7:00, 10:00, 15:00","6:30, 19:00 (17:00)","","","http://www.diecezja.tarnow.pl/index.php/schematyzm/p/513-podlopien"
"św. Józefa Oblubieńca NMP","","33-152 Pogórska Wola 87,","33-152 Pogórska Wola 87,","http://www.pogorska_wola.diecezja.tarnow.pl","pogorska_wola@diecezja.tarnow.pl","14-674-70-05","ks. mgr lic. Jerzy Borczewski","7:30, 9:30, 11:00, 16:00","7:00, 18:00","","","http://www.diecezja.tarnow.pl/index.php/schematyzm/p/515-pogorska-wola"
"świętych Apostołów Szymona i Judy Tadeusza","","Pogwizdów 1, 32-700 Bochnia","Pogwizdów 1, 32-700 Bochnia","","pogwizdow@diecezja.tarnow.pl","14-685-61-50","ks. mgr Bronisław Kowalik","7:30, 9:00, 10:30, 15:00","6:30, 18:00 (16:45)","","","http://www.diecezja.tarnow.pl/index.php/schematyzm/p/516-pogwizdow"
"św. Andrzeja Ap.","","Polna 31, 38-331 Stróże,","Polna 31, 38-331 Stróże,","http://www.polna.diecezja.tarnow.pl/","polna@diecezja.tarnow.pl","18-44-72-782","ks. mgr Władysław Szczerba","7:00, 9:00, 11:00,","7:00, śr. 18:30 (17:00), I pt. I I sob. 7:00, 18:30 (17:00)",": 9:00, 11:00, 18:00 (17:00)","","http://www.diecezja.tarnow.pl/index.php/schematyzm/p/517-polna"
"św. Andrzeja Ap.","","32-854 Porąbka Uszewska 363,","32-854 Porąbka Uszewska 363,","http://www.porabka_uszewska.diecezja.tarnow.pl","porabka_uszewska@diecezja.tarnow.pl","14-66-56-702,","ks. mgr Józef Golonka","7:00, 10:00, 18:00 (17:00)","6:30, śr. 18:00 (17:00)","","","http://www.diecezja.tarnow.pl/index.php/schematyzm/p/518-porabka-uszewska"
"świętych Apostołów Piotra i Pawła","","Poręba Radlna 6, 33-112 Tarnowiec,","Poręba Radlna 6, 33-112 Tarnowiec,","http://www.porebaradlna.diecezja.tarnow.pl","poreba_radlna@diecezja.tarnow.pl","14-67-95-122","ks. Jerzy Gawle","7:00, 10:00, 17:00, 16:00","6:30","","","http://www.diecezja.tarnow.pl/index.php/schematyzm/p/519-poreba-radlna"
"św. Bartłomieja Ap.","","Poręba Spytkowska 28, 32-800 Brzesko,","ul. św. Bartłomieja 105, Poręba Spytkowska 28, 32-800 Brzesko,","http://www.porebaspytkowska.diecezja.tarnow.pl","poreba_spytkowska@diecezja.tarnow.pl","14-68-67-777,14-68-66-268, 14-66-31-041","ks. Stanisław Boryczka","7:00, 9:00, 11:00, 16:00 (15:00)","6:30, 18:00 (17:00)","","","http://www.diecezja.tarnow.pl/index.php/schematyzm/p/520-poreba-spytkowska"
"św. Jakuba Mł. Ap.","","Powroźnik 50, 33-370 Muszyna","Powroźnik 50, 33-370 Muszyna","","powroznik@diecezja.tarnow.pl","18-47-11-644","Ks. mgr Janusz Kiełbasa","7:00, 11:00, Wojkowa 9:15","6:30, śr., pt. 18:00","","","http://www.diecezja.tarnow.pl/index.php/schematyzm/p/521-powroznik"
"Najśw. Maryi Panny Wniebowziętej","","Przeczyca 1, 39-230 Brzostek,","Przeczyca 1, 39-230 Brzostek,","http://www.przeczyca.org","przeczyca@diecezja.tarnow.pl","14-68-30-725","ks. mgr lic. Marek Marcićkiewicz","7:00, 11:00, 16:00, Zagórze 7:30, 9:30, Kamienica Dolna 9:00, 15:00","7:00, 19:00 (17:00), Zagórze 7:30","","","http://www.diecezja.tarnow.pl/index.php/schematyzm/p/523-przeczyca"
"Wniebowzięcia NMP","","39-320 Przecław,","ul. Kolejowa 11,, 39-320 Przecław,","http://www.przeclaw.diecezja.tarnow.pl","przeclaw@diecezja.tarnow.pl","17-58-10-110","ks. Stanisław Kudlik","6:30, 8:00, 9:30, 11:30, Wylów 10:15","6:30, 18:30 (17:00)","","","http://www.diecezja.tarnow.pl/index.php/schematyzm/p/522-przeclaw"
"św. Jana Kantego","","Przyborów 215, 32-823 Szczepanów,","Przyborów 215, 32-823 Szczepanów,","","przyborow@diecezja.tarnow.pl","14-68-47-047","ks. mgr Zdzisław Oćwieja","7:00, 10:00, 14:00","6:30, pn., śr., pt. 18:00","","","http://www.diecezja.tarnow.pl/index.php/schematyzm/p/524-przyborow"
"Niepokalanego Serca Najśw. Maryi Panny","","Przybysławice 157, 33-273 Marcinkowice k. Brzeska,","Przybysławice 157, 33-273 Marcinkowice k. Brzeska,","www.przybyslawice.diecezja.tarnow.pl","przybyslawice@diecezja.tarnow.pl","14-645-25-46","ks. mgr Piotr Bodziony","8:00, 10:00, 15:00","7:00 lub 18:00","","","http://www.diecezja.tarnow.pl/index.php/schematyzm/p/525-przybyslawice"
"Matki Bożej Różańcowej","","Przydonica 32, 33- 318 Gródek n.D.,","Przydonica 32, 33- 318 Gródek n.D.,","http://www.przydonica.org/","przydonica@diecezja.tarnow.pl","18-44-43-830","ks. mgr Janusz Szczypka","7:30, 10:00, 16:00 (15:00)","6:30, śr., pt. 18:00 (17:00)","","","http://www.diecezja.tarnow.pl/index.php/schematyzm/p/526-przydonica"
"św. Jana Chrzciciela","","Przysietnica 333, 33-342 Barcice","Przysietnica 333, 33-342 Barcice","","przysietnica@diecezja.tarnow.pl","18-44-80-245","ks. mgr Jan Wąchała","dni powszednie","7:00, 9:00, 11:00","","","http://www.diecezja.tarnow.pl/index.php/schematyzm/p/527-przysietnica"
"św. Mikołaja B.","","34-604 Przyszowa 64,","34-604 Przyszowa 64,","","przyszowa@diecezja.tarnow.pl","18-33-36-028","ks. mgr Jan Gajda","7:00, 10:30, 15:00, Stronie: 9:00, 14:00","6:30, 17:00","","","http://www.diecezja.tarnow.pl/index.php/schematyzm/p/528-przyszowa"
"Imienia Najśw. Maryi Panny","","33-333 Ptaszkowa 91,","33-333 Ptaszkowa 91,","http://www.ptaszkowa.pl/parafia.php","ptaszkowa@diecezja.tarnow.pl","18-445-17-78","ks. mgr Józef Kmak","7:00, 9:00, 11:00, 16:00","6:30, 19:00 (17:00)","","","http://www.diecezja.tarnow.pl/index.php/schematyzm/p/529-ptaszkowa"
"św. Józefa Rzemieślnika","","39-205 Pustków 66,","39-205 Pustków 66,","","pustkow@diecezja.tarnow.pl","14-68-21-182","ks. Józef Hamiga","7:00, 10:00, 15:00","7:00, 17:00","","","http://www.diecezja.tarnow.pl/index.php/schematyzm/p/530-pustkow"
"św. Stanisława BM","","39-206 Pustków 3, Pustków-Osiedle 30,","39-206 Pustków 3, Pustków-Osiedle 30,","http://pustkow.freehost.pl/index.php","pustkow_osiedle@diecezja.tarnow.pl","14-677-33-99","ks. mgr Roman Woźny","7:00, 9:00, 11:00, 16:00","7:00, 18:00","","","http://www.diecezja.tarnow.pl/index.php/schematyzm/p/531-pustkow-osiedle"
"św. Stanisława BM","","Pustynia 150a, 39-200 Dębica,","Pustynia 150a, 39-200 Dębica,","","pustynia@diecezja.tarnow.pl","14-68-27-287","ks. Kazimierz Gołas","niedziele: 7:00, 9:00, 11:00, 16:00 święta: 7:00, 9:00, 16:00, 18:00","6:30, 18:00 (17:00)","","","http://www.diecezja.tarnow.pl/index.php/schematyzm/p/532-pustynia"
"Najśw. Maryi Panny Wspomożenia Wiernych","","33-207 Radgoszcz,","ul. Kościelna 38,, 33-207 Radgoszcz,","","radgoszcz2@diecezja.tarnow.pl","14-641-43-71","ks. mgr Andrzej Nowak","8:00, 10:30, 15:00","7:00, wt., śr., sob. 18:00","","","http://www.diecezja.tarnow.pl/index.php/schematyzm/r/534-radgoszcz"
"św. Kazimierza","","33-207 Radgoszcz,","Pl. św. Kazimierza 15,, 33-207 Radgoszcz,","http://www.radgoszcz.diecezja.tarnow.pl","radgoszcz1@diecezja.tarnow.pl","14-641-41-05","Ks. dr Marek Łabuz","7:00, 10:00, 11:30, 16:00, Narożniki 8:30","6:30, 7:00","","","http://www.diecezja.tarnow.pl/index.php/schematyzm/r/533-radgoszcz"
"Przemienienia Pańskiego","","39-310 Radomyśl Wielki,","ul. Piłsudskiego 4,, 39-310 Radomyśl Wielki,","","radomysl_wielki@diecezja.tarnow.pl","14-66-67-215","ks. Marian Marszałek","7:00, 9:00, 10:30, 16:00","6:30, 7:00, 18:00, wt., sob. 6:30, 7:00","","","http://www.diecezja.tarnow.pl/index.php/schematyzm/r/536-radomysl-wielki"
"św. Jana Chrzciciela","","33-130 Radłów,","ul. Biskupska 5,, 33-130 Radłów,","www.radlow.diecezja.tarnow.pl","radlow_par@diecezja.tarnow.pl","14-69-18-933, wikariusze: 14-69-18-918","ks. mgr Janusz Maziarka","7:00, 8:30, 9:45, 11:00, 16:00, Niwka 7:30, 12:00","6:00, 6:30, 17:00 (18:30)","","","http://www.diecezja.tarnow.pl/index.php/schematyzm/r/535-radlow"
"Narodzenia Najśw. Maryi Panny","","32-725 Rajbrot 43,","32-725 Rajbrot 43,","http://rajbrot.parafialnastrona.pl/","rajbrot@diecezja.tarnow.pl","14-61-38-040","ks. Tadeusz Mróz","7:00, 9:00, 10:30, 15:00, kaplica 14:30","6:30, 7:00 (śr., pt. 17:00)","","","http://www.diecezja.tarnow.pl/index.php/schematyzm/r/537-rajbrot"
"św. Michała Archanioła","","38-312 Ropa 227,","38-312 Ropa 227,","","ropa_par@diecezja.tarnow.pl","18-35-34-119","ks. mgr Stanisław Porębski","7:00, 8:45, 10:00, 11:15, 18:00 (16:00)","6:30, 7:00 (śr., pt. 18:00 16:00)","","","http://www.diecezja.tarnow.pl/index.php/schematyzm/r/538-ropa"
"Najświętszego Serca Pana Jezusa","","Róża 234a, 39-216 Stara Jastrząbka,","Róża 234a, 39-216 Stara Jastrząbka,","","roza@diecezja.tarnow.pl","14-68-24-064","Ks. mgr Stanisław Góral","8:00, 10:00, 14:00","7:00 lub 18:00","","","http://www.diecezja.tarnow.pl/index.php/schematyzm/r/540-roza"
"Św. Wojciecha BM i Podwyższenia Krzyża św.","","Rożnów 124, 33-316 Rożnów","Rożnów 124, 33-316 Rożnów","http://www.roznow.diecezja.tarnow.pl","roznow@diecezja.tarnow.pl","18-44-03-003","ks. mgr Marek Truś","7:00, 9:00, 11:00 i 19:00(VII-VIII), 18:00(IV-VI), 17:00(IX-III)","7:00 i 19:00(VII-VIII), 18:00(IV-VI), 17:00(IX-III; ale XII-II tylko śr., piąt. i sob.)","","","http://www.diecezja.tarnow.pl/index.php/schematyzm/r/539-roznow"
"Najśw. Maryi Panny Szkaplerznej","","39-315 Ruda 123,","39-315 Ruda 123,","","ruda@diecezja.tarnow.pl","14-68-34-165","Ks. mgr Roman Wrona","7:30, 9:30, 11:00","7:00","","","http://www.diecezja.tarnow.pl/index.php/schematyzm/r/541-ruda"
"NMP Różańcowej","","Rudka 102, 33-122 Wierzchosławice,","Rudka 102, 33-122 Wierzchosławice,","","rudka@diecezja.tarnow.pl","14-67-97-213","ks. mgr Bogusław Maciaszek","7:00, 10:00, 11:30, 16:00 (w lecie 18:00)","6:30, śr. i pt. 17:00; I śr., czw., pt., sob., 17:00 (w lecie 18:00)","","","http://www.diecezja.tarnow.pl/index.php/schematyzm/r/542-rudka"
"Chrystusa Dobrego Pasterza","","Rudy Rysie 51, 32-820 Szczurowa,","Rudy Rysie 51, 32-820 Szczurowa,","http://www.rudyrysie.diecezja.tarnow.pl","rudy_rysie@diecezja.tarnow.pl","14-67-14-554","ks. mgr Bogusław Pasierb","8:00, 10:00, ","7:00 lub 18:00 (17:00)","17:00","","http://www.diecezja.tarnow.pl/index.php/schematyzm/r/543-rudy-rysie"
"św. Katarzyny PM","","33-160 Ryglice,","ul. Ks. J. Wyrwy 6,, 33-160 Ryglice,","","ryglice@diecezja.tarnow.pl","14-654-10-17","ks. mgr Franciszek Kuczek","7:00, 9:00, 11:00, 16:30, Joniny 7:45, 15:00","6:30, 18:00","","","http://www.diecezja.tarnow.pl/index.php/schematyzm/r/544-ryglice"
"św. Józefa Rzemieślnika, kościół pw. Świętej Rodziny","","33-343 Rytro 271,","33-343 Rytro 271,","http://parafiarytro.pl/","rytro@diecezja.tarnow.pl","18-44-69-086","ks. mgr Antoni Myjak","6:30, 8:00, 9:30, 11:00, 18:00 (17:00)","7:00, 18:00 (17:00)","","","http://www.diecezja.tarnow.pl/index.php/schematyzm/r/545-rytro"
"św. Józefa Rzemieślnika","","Rzędzianowice 319, 39-300 Mielec,","Rzędzianowice 319, 39-300 Mielec,","","rzedzianowice@diecezja.tarnow.pl","17-58-43-693","ks. Antoni Sowa","7:30, 9:30, 11:00, (V, X, Wlk. Post 7:30, 11:00, 15:00 lub 17:00)","7:00 lub 19:00 (17:00)","","","http://www.diecezja.tarnow.pl/index.php/schematyzm/r/550-rzedzianowice"
"Najśw. Maryi Panny Wniebowziętej","","Rzepiennik Biskupi 274, 33-163 Rzepiennik Strzyżewski,","Rzepiennik Biskupi 274, 33-163 Rzepiennik Strzyżewski,","","rzepiennik_biskupi@diecezja.tarnow.pl","14-65-30-064","ks. mgr Piotr Witecki","7:00, 8:45, 11:30, 16:00, Rzepiennik Bpi 10:15, Kołkówka 14:30","6:30, śr. pierwsze pt. i sob. 18:00 (16:30)","","","http://www.diecezja.tarnow.pl/index.php/schematyzm/r/546-rzepiennik-biskupi"
"Miłosierdzia Bożego","","33-163 Rzepiennik Strzyżewski 67,","33-163 Rzepiennik Strzyżewski 67,","","rzepiennik_strzyzewski@diecezja.tarnow.pl","14-65-30-040","ks. Czesław Kaput","7:30, 10:30, 16:00","7:00, 7:30, sob. i pierwsze pt. 18:00 (16:00)","","","http://www.diecezja.tarnow.pl/index.php/schematyzm/r/547-rzepiennik-strzyzewski"
"Najśw. Maryi Panny Królowej Polski","","Rzepiennik Suchy 1, 33-163 Rzepiennik Strzyżewski,","Rzepiennik Suchy 1, 33-163 Rzepiennik Strzyżewski,","","rzepiennik_suchy@diecezja.tarnow.pl","14-65-31-519","ks. mgr Henryk Chlipała","7:30, 10:00 (XII-IV 10:30)","7:00, czw., pt., sob. 18:00 (17:00)","","","http://www.diecezja.tarnow.pl/index.php/schematyzm/r/548-rzepiennik-suchy"
"Trójcy Przenajświętszej i św. Leopolda","","32-765 Rzezawa,","ul. Kościelna 23,, 32-765 Rzezawa,","http://www.rzezawa.diecezja.tarnow.pl","rzezawa@diecezja.tarnow.pl","14-68-58-330","Ks. Stefan Broniak","7.00;  8.30;  10.00;  11.30;  18.00","6.30;  18.00","","","http://www.diecezja.tarnow.pl/index.php/schematyzm/r/549-rzezawa"
"Ducha świętego","","33-114 Rzuchowa 250,","33-114 Rzuchowa 250,","www.rzuchowa.parafialnastrona.pl","rzuchowa@diecezja.tarnow.pl","14-674-61-19","Ks. mgr Jan Burdek","7:30, 10:00, 16:00","dzień powszedni - 18.00, pon, wt. i pt dodatkowo o 7.00","","","http://www.diecezja.tarnow.pl/index.php/schematyzm/r/551-rzuchowa"
"św. Bartłomieja Ap.","","33-220 Samocice 14,","33-220 Samocice 14,","","samocice@diecezja.tarnow.pl","14-641-55-23","ks. mgr Zygmunt Kogut","7:30, 10:30","7:00","","","http://www.diecezja.tarnow.pl/index.php/schematyzm/s/552-samocice"
"św. Andrzeja Ap.","","33-321 Siedlce k. Nowego Sącza 11,","33-321 Siedlce k. Nowego Sącza 11,","","siedlce@diecezja.tarnow.pl","18-44-17-519","ks. mgr Jan Bajor","7:00, 9:00, 11:00, 16:00, Janczowa 12:00, Trzycierz 10:00","6:30, 17:00 (16:00, lato 18:00)","","","http://www.diecezja.tarnow.pl/index.php/schematyzm/s/553-siedlce"
"- rektorat bł. Karoliny Kózka","","Siedlec 80, 33-130 Radłów","Siedlec 80, 33-130 Radłów","","siedlec@diecezja.tarnow.pl","14-678-23-22","Ks. Jan Wąchała","8:00, 14:00","18:00 (17:00)","","","http://www.diecezja.tarnow.pl/index.php/schematyzm/s/554-siedlec"
"świętych Apostołów Piotra i Pawła","","38-324 Siedliska k. Bobowej 88","38-324 Siedliska k. Bobowej 88","","siedliska@diecezja.tarnow.pl","18-35-50-651","Ks. Władysław Skoczeń","7:00, 10:30, 18:00","6:30, 18:00","","","http://www.diecezja.tarnow.pl/index.php/schematyzm/s/555-siedliska"
"Narodzenia Najśw. Maryi Panny","","39-231 Siedliska Bogusz 164","39-231 Siedliska Bogusz 164","","siedliska_bogusz@diecezja.tarnow.pl","14-68-33-770","ks. mgr lic. Ryszard Radoń","7:00, 9:30, 11:00, 15:00","6:30, 18:00","","","http://www.diecezja.tarnow.pl/index.php/schematyzm/s/556-siedliska-bogusz"
"rektorat św. Mikołaja","","Siedliska 5, 38-350 Bobowa","Siedliska 5, 38-350 Bobowa","","siedliska1@diecezja.tarnow.pl","18-351-41-20","ks. mgr Jacek Kupiec","8:30, 14:30","codziennie 7:00, środa 17:00 (czas zimowy 16:00)","","","http://www.diecezja.tarnow.pl/index.php/schematyzm/77-informacje-o-parafiach-w-diecezji/s/3202-siedliska-rektorat-sw-mikolaja"
"Chrystusa Króla","","33-172 Siedliska Tuchowskie 228,","33-172 Siedliska Tuchowskie 228,","","siedliska_tuchowskie@diecezja.tarnow.pl","14-65-27-250","ks. mgr Jan Wieciech","7:00, 10:30, 15:30","7:00 lub 18:30","","","http://www.diecezja.tarnow.pl/index.php/schematyzm/s/557-siedliska-tuchowskie"
"św. Stanisława BM","","Siedliszowice 203, 33-250 Otfinów,","Siedliszowice 203, 33-250 Otfinów,","","siedliszowice@diecezja.tarnow.pl","14-64-52-466","ks. mgr Józef Ciejka","8:00, 10:00, 15:00","7:15 lub 18:00 (17:00)","","","http://www.diecezja.tarnow.pl/index.php/schematyzm/s/558-siedliszowice"
"Matki Bożej Łaskawej","","Siekierczyna 68, 34-600 Limanowa,","Siekierczyna 68, 34-600 Limanowa,","","siekierczyna@diecezja.tarnow.pl","18-33-29-695","ks. mgr Marian Cebula","7:00, 9:00, 10:00,","7:00","","","http://www.diecezja.tarnow.pl/index.php/schematyzm/s/559-siekierczyna"
"Ofiarowania w świątyni i Wniebowstąpienia Pana Jezusa","","33-181 Siemiechów 280,","33-181 Siemiechów 280,","","siemiechow@diecezja.tarnow.pl","14-65-04-213","ks. mgr Bogdan Więcek","7:00, 9:00, 10:30, kaplica 16:00","6:30, 7:00","","","http://www.diecezja.tarnow.pl/index.php/schematyzm/s/560-siemiechow"
"św. Stanisława BM","","Sienna 17, 33-318 Gródek n.D.,","Sienna 17, 33-318 Gródek n.D.,","","sienna@diecezja.tarnow.pl","18-44-17-880","Ks. mgr Andrzej Dźwigaj","7:30, 10:30, 16:00 (17:00)","7:00","","","http://www.diecezja.tarnow.pl/index.php/schematyzm/s/561-sienna"
"św. Mikołaja B.","","34-625 Skrzydlna 48,","34-625 Skrzydlna 48,","http://www.skrzydlna.diecezja.tarnow.pl","skrzydlna@diecezja.tarnow.pl","18-33-31-039","ks. dr Marek Krupa","7:00, 9:00, 11:00, 16:00","7:00, 18.00 (w zimie 17.00)","","","http://www.diecezja.tarnow.pl/index.php/schematyzm/s/562-skrzydlna"
"św. Józefa Oblubieńca NMP","","Skrzyszów 187, 39-103 Ostrów,","Skrzyszów 187, 39-103 Ostrów,","","skrzyszow@diecezja.tarnow.pl","17-22-35-722","ks. mgr lic. Janusz Skrzypek","7:30, 10:00, 15:00","poniedziałek, czwartek, sobota 7:00; wtorek, środa, piątek 18:00 (17:00 czas zimowy)","","","http://www.diecezja.tarnow.pl/index.php/schematyzm/s/563-skrzyszow-sw-jozefa"
"św. Stanisława BM","","33-156 Skrzyszów 1,","33-156 Skrzyszów 1,","http://www.skrzyszow.diecezja.tarnow.pl","skrzyszow1@diecezja.tarnow.pl","14-674-50-44","ks. mgr Zdzisław Gniewek","7:00, 9:00, 11:00, 18:00 (17:00)","6:30, 18:00 (17:00)","","","http://www.diecezja.tarnow.pl/index.php/schematyzm/s/564-skrzyszow-sw-stanislawa"
"św. Stanisława BM","","33-202 Smęgorzów 124,","33-202 Smęgorzów 124,","","smegorzow@diecezja.tarnow.pl","14-642-15-26","ks. mgr Bogdan Lebryk","7:00, 10:00, 15:30 (lato 16:30), Sutków 8:30","6:45, Sutków czw. 15:00","","","http://www.diecezja.tarnow.pl/index.php/schematyzm/s/569-smegorzow"
"Wszystkich świętych","","Sobolów 23, 32-742 Sobolów","Sobolów 23, 32-742 Sobolów","http://www.sobolow.parafia.info.pl/","sobolow@diecezja.tarnow.pl","14-68-54-480","ks. mgr Stanisław Jachym","7:30, 9:00, 11:00, 15:30, Stradomka 10:00","7:00, śr., sob. 18:00","","","http://www.diecezja.tarnow.pl/index.php/schematyzm/s/570-sobolow"
"Narodzenia Najśw. Maryi Panny","","34-443 Sromowce Wyżne,","ul. Flisacka 43, Sromowce Niżne, 34-443 Sromowce Wyżne,","http://www.sromowce.com","sromowce_nizne@diecezja.tarnow.pl","18-26-28-650","Ks. mgr Marek Kądzielawa","6.45, 11:00, 19:00 (V-X), 7:30, 9:00, 11:00 (XI-IV)","19:00 (V-X), 17:00 (XI-IV)","","","http://www.diecezja.tarnow.pl/index.php/schematyzm/s/571-sromowce-nizne"
"świętych Apostołów Piotra i Pawła","","39-216 Stara Jastrząbka 44,","39-216 Stara Jastrząbka 44,","","stara_jastrzabka@diecezja.tarnow.pl","14-676-22-78","Ks. mgr Jan Ćwik","7:15, 9:00, 10:30","6:30","","","http://www.diecezja.tarnow.pl/index.php/schematyzm/s/572-stara-jastrzabka"
"św. Józefa Rzemieślnika","","Stara Wieś 695, 34-600 Limanowa,","Stara Wieś 695, 34-600 Limanowa,","","stara_wies@diecezja.tarnow.pl","18-33-29-324","ks. mgr Marian Tyrka","8:00, 11:00, 15:00","7:00, 18:00 (17:00)","","","http://www.diecezja.tarnow.pl/index.php/schematyzm/s/573-stara-wies"
"Najśw. Maryi Panny Częstochowskiej","","Stare Żukowice 93, 33-151 Nowa Jastrząbka,","Stare Żukowice 93, 33-151 Nowa Jastrząbka,","","stare_zukowice@diecezja.tarnow.pl","14-678-65-05","ks. mgr Stanisław Kita","7:00, 10:00, 17:00 (czas letni)","Pn, Śr i Pt -  18:00 (17:00)","","","http://www.diecezja.tarnow.pl/index.php/schematyzm/s/574-stare-zukowice"
"Miłosierdzia Bożego","","33-340 Stary Sącz","Kazimierza Wielkiego 16, 33-340 Stary Sącz","http://www.parafia-mb.iap.pl","stary_sacz1@diecezja.tarnow.pl","18-44-61-209","ks. mgr Janusz Ryba","7.00; 8.30; 10.00 dla dzieci, 11.30 i 16.30","6.30; 17.30","","","http://www.diecezja.tarnow.pl/index.php/schematyzm/s/576-stary-sacz-milosierdzia-bozego"
"św. Elżbiety Węgierskiej","","33-340 Stary Sącz,","ul. Mickiewicza 2,, 33-340 Stary Sącz,","http://www.parafia.stary.sacz.pl/","stary_sacz@diecezja.tarnow.pl","18-44-60-599","ks. mgr Marek Tabor","6:30, 8:00, 9:15, 11:00, 12:15, 13:30, 18:30 (I niedz. miesiąca) Klasztor 7:00, 8:40, 11:00, 17:00,","6:00, 6:30, 7:00, 18:00 Klasztor 6:30, 18:00","","","http://www.diecezja.tarnow.pl/index.php/schematyzm/s/575-stary-sacz-sw-elzbiety"
"św. Wojciecha BM","","32-721 Stary Wiśnicz 213,","32-721 Stary Wiśnicz 213,","http://www.starywisnicz.pl","stary_wisnicz@diecezja.tarnow.pl","14-68-56-233","ks. mgr Ryszard Kołodziej","7:00, 9:00, 11:00, 15:30, Nieszpory 15:00","6:30, 7:00 (czwartek 17:00)","","","http://www.diecezja.tarnow.pl/index.php/schematyzm/s/577-stary-wisnicz"
"świętych Apostołów Piotra i Pawła","","Stasiówka 138a, 39-200 Dębica,","Stasiówka 138a, 39-200 Dębica,","","stasiowka@diecezja.tarnow.pl","14-67-63-278","ks. mgr Bogdan Wiszyński","7:30, 10:30, ","6:30, śr., pt. 18:00 (17:00)","8:00, 10:30, 16:30","","http://www.diecezja.tarnow.pl/index.php/schematyzm/s/578-stasiowka"
"św. Wojciecha BM","","38-325 Staszkówka 263,","38-325 Staszkówka 263,","","staszkowka@diecezja.tarnow.pl","18-35-41-133","ks. mgr Krzysztof Jarmuła","7:30, 10:30, 15:00 ","pn, wt, śr - 7:00; śr, czw, psb - 18:00 (w zimie 16:30)","","","http://www.diecezja.tarnow.pl/index.php/schematyzm/s/579-staszkowka"
"Wszystkich Świętych i Niepokalanego Serca NMP","","39-218 Straszęcin 86,","39-218 Straszęcin 86,","http://www.parafiastraszecin.pl","kancelaria@parafiastraszecin.pl","14-68-23-494, do chorych (24h) 785195959","ks. mgr Bogusław Czech","7.00, 9.00, 9.15 (szpital), 11.00, 12.30 i 16.00 Głowaczowa – kaplica: 8.00 i 10.00","codziennie w kościele w Straszęcinie godz. 6. 30 i 18. 00","","","http://www.diecezja.tarnow.pl/index.php/schematyzm/s/580-straszecin"
"Najświętszego Serca Pana Jezusa","","Stróża 124, 34-625 Skrzydlna","Stróża 124, 34-625 Skrzydlna","","stroza@diecezja.tarnow.pl","18-33-31-152","ks. mgr Eugeniusz Kamionka","7:30, 10:00, 15:00","7:00, śr., pt. 19:00","","","http://www.diecezja.tarnow.pl/index.php/schematyzm/s/581-stroza"
"Najśw. Maryi Panny Królowej Polski","","33-331 Stróże 38","33-331 Stróże 38","http://www.stroze.parafia.info.pl","stroze@diecezja.tarnow.pl","18-445-18-87","ks. mgr Stanisław Betlej","7.00, 8.30, 10.00, 11.30, (16.00 od września do czerwca), 18.10","codziennie rano: 6.30; o godz. 18.00 (w okresie jesienno-zimowym 17.00) pon., śr., pt.","","","http://www.diecezja.tarnow.pl/index.php/schematyzm/s/582-stroze"
"św. Maksymiliana M. Kolbego","","Stróżna 206, 38-350 Bobowa,","Stróżna 206, 38-350 Bobowa,","","strozna@diecezja.tarnow.pl","18-35-14-205","Ks. Antoni Bochenek","dni powszednie","Odpust parafialny","","","http://www.diecezja.tarnow.pl/index.php/schematyzm/s/583-strozna"
"św. Sebastiana M","","32-822 Strzelce Wielkie 220,","32-822 Strzelce Wielkie 220,","","strzelce_wielkie@diecezja.tarnow.pl","14-67-16-222","ks. Stanisław Tabiś","7:30, 9:00, 10:30, 15:00","6:30 (7:00)","","","http://www.diecezja.tarnow.pl/index.php/schematyzm/s/584-strzelce-wielkie"
"Ducha świętego","","Sufczyn 1, 32-852 Dębno,","Sufczyn 1, 32-852 Dębno,","","sufczyn@diecezja.tarnow.pl","14-66-58-061","ks. Adam Bajorek","7:30, 9:30 (Łopoń), 11:00, 16:00","6:30, 18:00 (17:00-okr.zimowy)","","","http://www.diecezja.tarnow.pl/index.php/schematyzm/s/585-sufczyn"
"Najśw. Maryi Panny Królowej Polski","","38-246 Szerzyny, Swoszowa 77,","38-246 Szerzyny, Swoszowa 77,","","swoszowa@diecezja.tarnow.pl","14-65-17-534","ks. mgr Kazimierz Pszeniczny","8:00, 10:30","7:30","","","http://www.diecezja.tarnow.pl/index.php/schematyzm/s/586-swoszowa"
"św. Michała Archanioła","","38-331 Szalowa 14,","38-331 Szalowa 14,","www.parafiaszalowa.pl","szalowa@diecezja.tarnow.pl","18-35-22-414","ks. Mieczysław Górski","7:00, 9:30, 11:00, 16:00, Bieśnik 8:30","7:00, 17:00 (latem o 18:00)","","","http://www.diecezja.tarnow.pl/index.php/schematyzm/s/587-szalowa"
"św. Andrzeja Boboli M.","","Szarwark 211, 33-200 Dąbrowa Tarnowska,","Szarwark 211, 33-200 Dąbrowa Tarnowska,","http://www.szarwark.diecezja.tarnow.pl","szarwark@diecezja.tarnow.pl","14-64-21-272","ks. mgr Waldemar Patulski","7:00, 10:30, 15:00","6:00, w śr., czw., pt. również o 17:00 (18:00, 19:00)","","","http://www.diecezja.tarnow.pl/index.php/schematyzm/s/588-szarwark"
"Najświętszego Serca Pana Jezusa","","34-607 Szczawa 327,","34-607 Szczawa 327,","","szczawa@diecezja.tarnow.pl","18-33-24-026","ks. mgr Leon Królczyk","7:00, 9:00, 11:00, 17:00","7:00, 18:00 (17:00)","","","http://www.diecezja.tarnow.pl/index.php/schematyzm/s/589-szczawa"
"św. Wojciecha BM","","34-460 Szczawnica,","ul. Jana Wiktora 1a,, 34-460 Szczawnica,","parafia.szczawnica.pl ","szczawnica@diecezja.tarnow.pl","18-26-22-575","ks. dr Tomasz Kudroń","6:00, 7:30, 9:00, 10:30, 12:00, 19:00 (17:00)","6:15, 7:00, 19:00 (17:00)","","","http://www.diecezja.tarnow.pl/index.php/schematyzm/s/590-szczawnica"
"św. Marii Magdaleny i św. Stanisława Bpa","","32-823 Szczepanów 49,","32-823 Szczepanów 49,","http://www.bazylikaszczepanow.pl","szczepanow@diecezja.tarnow.pl","14-66-38-006","ks. mgr Władysław Pasiut","6:30, 8:00, 9:15, 11:00, 15:30, (","6:00, śr., czw., 18:00 (17:00)","18:00)","","http://www.diecezja.tarnow.pl/index.php/schematyzm/s/592-szczepanow"
"Niepokalanego Serca Maryi","","Szczepanowice 112, 33-114 Rzuchowa,","Szczepanowice 112, 33-114 Rzuchowa,","","szczepanowice@diecezja.tarnow.pl","14-674-62-38","Ks. Władysław Kiełb","7:00, 8:15, 9:30, 16:00","18:00","","","http://www.diecezja.tarnow.pl/index.php/schematyzm/s/591-szczepanowice"
"św. Marii Magdaleny","","33-230 Szczucin","Rynek 19, 33-230 Szczucin","","szczucin@diecezja.tarnow.pl","14-643-62-26","ks. mgr Zygmunt Warzecha","7:00, 9:00, 11:00, 12:30, 18:00 (17:00) Radwan 8:00, 9:30 (wakacje: 8:00) Dąbrowica 11:00 (wakacje: 10:00)","6:30, 7:00, 18:00 (17:00)","","","http://www.diecezja.tarnow.pl/index.php/schematyzm/s/593-szczucin"
"św. Bartłomieja Ap.","","32-820 Szczurowa, Rynek 10,","32-820 Szczurowa, Rynek 10,","http://www.szczurowa.diecezja.tarnow.pl","szczurowa@diecezja.tarnow.pl","14-67-14-646","ks. mgr lic. Wiesław Majka","7:00, 9:00, 10:30, 16:00, Górka 9:30, 11:00 Rajsko 8:00","6:30, śr., sob także 17:00, Górka śr., pt. 17:00, Rajsko czw. 17:00","","","http://www.diecezja.tarnow.pl/index.php/schematyzm/s/594-szczurowa"
"Najśw. Maryi Panny Wniebowziętej i św. Stanisława BM","","34-623 Szczyrzyc 1,","34-623 Szczyrzyc 1,","http://www.szczyrzyc.cystersi.pl/","szczyrzyc@diecezja.tarnow.pl","18-33-20-569, 18-33-20-570","o. Alojzy Piotr Pucia O.Cist","7:00, 8:30, 10:00, 11:30, 15:00","6:30, 7:00, 7:30, 19:00 (17:00)","","","http://www.diecezja.tarnow.pl/index.php/schematyzm/s/595-szczyrzyc"
"Matki Bożej Różańcowej","","33-128 Szerzyny 287,","33-128 Szerzyny 287,","","szerzyny@diecezja.tarnow.pl","14-65-17-382","ks. mgr Adam Ptak","7:00, 11:00, 12:30, 16:00, Podlesie 9:00","18:00, pn., pt., sob. 7:00","","","http://www.diecezja.tarnow.pl/index.php/schematyzm/s/596-szerzyny"
"Matki Bożej Pośredniczki Łask","","34-460 Szczawnica, Szlachtowa 39","34-460 Szczawnica, Szlachtowa 39","","szlachtowa@diecezja.tarnow.pl","18-26-22-752","ks. mgr Marek Bach","7:00, 11:30, Jaworki 9:30 święta 7:00, 18:00, Jaworki 10:00","7:00, śr., pt., sob. 17:00 (lato 19:00)","","","http://www.diecezja.tarnow.pl/index.php/schematyzm/s/597-szlachtowa"
"św. Stanisława BM i św. Barbary M","","Szyk 7, 34-620 Jodłownik,","Szyk 7, 34-620 Jodłownik,","","szyk@diecezja.tarnow.pl","18-33-21-108","ks. mgr Grzegorz Ochał","8:00, 11:00, 15:00","6:30","","","http://www.diecezja.tarnow.pl/index.php/schematyzm/s/598-szyk"
"Matki Bożej Szkaplerznej","","38-311 Szymbark 315,","38-311 Szymbark 315,","http://www.parafia-szymbark.pl/","szymbark@diecezja.tarnow.pl","18-35-13-013","ks. Stefan Tabor","7:00, 9:00, 10:45, 16:00","6:30, 7:00 (śr., pt. 18:00, 16:00)","","","http://www.diecezja.tarnow.pl/index.php/schematyzm/s/599-szymbark"
"Najświętszej Marii Panny Szkaplerznej","","33-158 Szynwałd 1,","33-158 Szynwałd 1,","http://www.szynwald.diecezja.tarnow.pl/","szynwald@diecezja.tarnow.pl","14-674-20-12","ks. mgr Józef Michalski","6:30, 9:00, 11:00, 16:00, świniogóra 7:45","7:00, (środa, piątek - 18:00)","","","http://www.diecezja.tarnow.pl/index.php/schematyzm/s/600-szynwald"
"św. Andrzeja Ap.","","34-615 Słopnice 40,","34-615 Słopnice 40,","parafia.slopnice.pl ","slopnice@diecezja.tarnow.pl","18-33-26-015","ks. mgr Jan Gniewek","7:00, 9:00, 10:15, 11:30, 17:00","6:30, 7:00, 18:00","","","http://www.diecezja.tarnow.pl/index.php/schematyzm/s/565-slopnice"
"Najśw. Maryi Panny Częstochowskiej","","Słopnice Górne 849, 34-615 Słopnice,","Słopnice Górne 849, 34-615 Słopnice,","parafiagorne.slopnice.pl","slopnice_gorne@diecezja.tarnow.pl","18-33-48-295","ks. Stanisław Kumiega","7:30, 10:00, 16:00 (15:00)","6:30, śr., pt. 18:00 (16:00)","","","http://www.diecezja.tarnow.pl/index.php/schematyzm/s/566-slopnice-gorne"
"Najśw. Maryi Panny Królowej Polski","","Słotowa 176, 39-223 Strzegocice,","Słotowa 176, 39-223 Strzegocice,","","slotowa@diecezja.tarnow.pl","14-67-24-111","Ks. Stanisław Saj","7:00, 10:00, 16:00","6:30","","","http://www.diecezja.tarnow.pl/index.php/schematyzm/s/567-slotowa"
"Trójcy Przenajświętszej","","33-230 Szczucin, Słupiec 25,","33-230 Szczucin, Słupiec 25,","","slupiec@diecezja.tarnow.pl","14-643-12-95","ks. mgr Ryszard Kapałka","8:00, 11:00","7:00, śr. 18:00 (16:00)","","","http://www.diecezja.tarnow.pl/index.php/schematyzm/s/568-slupiec"
"św. Andrzeja Boboli M.","","38-313 Śnietnica 32,","38-313 Śnietnica 32,","","snietnica@diecezja.tarnow.pl","18-35-16-206","ks. mgr Józef Rosiek","7:30, 11:00, Stawisza 9:30","7:00","","","http://www.diecezja.tarnow.pl/index.php/schematyzm/2010-11-28-21-10-08/601-snietnica"
"św. Maksymiliana Marii Kolbego","","33-114 Rzuchowa","Świebodzin 216, 33-114 Rzuchowa","http://www.swiebodzin.diecezja.tarnow.pl/","swiebodzin@diecezja.tarnow.pl","14-67-95-858","ks. mgr Wojciech Sroka","8.00, 10.30, 16.00","pn 7.00, wt-sb 17.00 (zima), 18.00 (lato)","","","http://www.diecezja.tarnow.pl/index.php/schematyzm/2010-11-28-21-10-08/602-swiebodzin"
"Najśw. Maryi Panny Królowej Polski","","Świniarsko 235, 33-395 Chełmiec,","Świniarsko 235, 33-395 Chełmiec,","http://www.parswiniarsko.seva.pl/","swiniarsko@diecezja.tarnow.pl","18-44-30-072","ks. Józef Makowski","7:00, 9:00, 11:00, 16:00; święta nieobowiązkowe: 7:00, 10:30, 16:00, 18:00.","pn.-pt.: 6:00, 18:00; dodatkowo: pt.: 15:00, sb.:17:00","","","http://www.diecezja.tarnow.pl/index.php/schematyzm/2010-11-28-21-10-08/603-swiniarsko"
"św. Mikołaja Bpa.","","Tabaszowa 72, 33-312 Tęgoborze,","Tabaszowa 72, 33-312 Tęgoborze,","","tabaszowa@diecezja.tarnow.pl","18-44-49-137","ks. mgr Zbigniew Dudek","7:00, 10:30, Rąbkowa 9:00, ","18:30 (17:00)","7:00, 17:00, Rąbkowa 8:00","","http://www.diecezja.tarnow.pl/index.php/schematyzm/t/604-tabaszowa"
"bł. Karoliny Kózkównej","","33-100 Tarnów,","pl. Ojca Świętego Jana Pawła II nr 1, 33-100 Tarnów,","http://www.karolina.diecezja.tarnow.pl/","tarnow9@diecezja.tarnow.pl","14-624-22-11","ks. mgr Stanisław Dutka","6:00, 7:30, 9:00, 10:30, 12:00, 16:00, 18:00 20:00 ","6:30, 7:30, 18:00","6:00, 7:30, 9:00, 16:00, 18:00,","","http://www.diecezja.tarnow.pl/index.php/schematyzm/t/614-tarnow-bl-karoliny-kozkownej"
"Chrystusa Dobrego Pasterza","","33-100 Tarnów,","ul. 16 Pułku Piechoty 10,, 33-100 Tarnów,","http://www.dobrypasterz.tarnow.opoka.org.pl/","tarnow7@diecezja.tarnow.pl","14-622-29-19","ks. Jan Ptak","7:00, 8:30, 10:00, 11:15, 12:30, 18.30 (IX-VI), 19.30 (VII-VIII)","6:30, 7:00, 18:00","","","http://www.diecezja.tarnow.pl/index.php/schematyzm/t/612-tarnow-chrystusa-dobrego-pasterza"
"Narodzenia Najśw. Maryi Panny","","33-100 Tarnów,","ul. Kapitulna 2,, 33-100 Tarnów,","http://www.katedra.tarnow.opoka.org.pl/","tarnow_katedra@diecezja.tarnow.pl","14-62-14-501, wikariusze 14-62-15-885","ks. dr Adam Nita","6:00, 7:30, 9:00, 10:30, 12:00, 15:00, 16:00, 18:30, 20:00","6:00, 7:00, 8:00, 9:00, 12:00, 18:00","","","http://www.diecezja.tarnow.pl/index.php/schematyzm/t/616-tarnow-katedra"
"Niepokalanego Serca Najśw. Maryi Panny","","33-102 Tarnów 4,","ul. Zagumnie 23,, 33-102 Tarnów 4,","http://www.klikowa.diecezja.tarnow.pl","tarnow_klikowa@diecezja.tarnow.pl","14-626-65-14","ks. mgr Tadeusz Wiszniewski","7:00, 9:00, 11:00, 18:00, ","6:30, 18:00","zamiast 7:00, 10:00, 16:00, 18:00","","http://www.diecezja.tarnow.pl/index.php/schematyzm/t/617-tarnow-klikowa"
"św, Krzyża i Matki Bożej Nieustającej Pomocy","","33-103 Tarnów 5,","ul. Krzyska 112,, 33-103 Tarnów 5,","http://www.parafiakrzyz.intarnet.pl/","tarnow_krzyz@diecezja.tarnow.pl","14-625-12-78","Ks. mgr Zdzisław Puścizna","7:00, 9:00, 10:30, 12:00, 18:00, w okresie wakacyjnym 7:00, 9:00, 11:00, 18:00","6:30, 18:00","","","http://www.diecezja.tarnow.pl/index.php/schematyzm/t/618-tarnow-krzyz"
"Matki Bożej Szkaplerznej","","33-100 Tarnów,","ul. Najświętszej Panny Marii 1,, 33-100 Tarnów,","http://www.mbsz.diecezja.tarnow.pl","tarnow1@diecezja.tarnow.pl","14-62-13-175","ks. mgr Piotr Mamak","6:30, 8:30, 10:30, 18:30, nowy kościół 7:30, 9:00, 12:00, 17:30","6:00, 6:30, 7:30, 18:30, nowy kościół 17:30","","","http://www.diecezja.tarnow.pl/index.php/schematyzm/t/606-tarnow-matki-bozej-szkaplerznej"
"Miłosierdzia Bożego","","33-100 Tarnów","ul. Klikowska 21,, 33-100 Tarnów","http://www.mb.diecezja.tarnow.pl","tarnow3@diecezja.tarnow.pl","14-627-73-33, 14-627-82-98","ks. mgr Czesław Haus","6:00, 7:30, 9:00, 10:30, 12:00, 18:00, 19:30, ","6:00, 6:30, 8:00, 18:00","dodatkowo 16:30","","http://www.diecezja.tarnow.pl/index.php/schematyzm/t/608-tarnow-milosierdzia-bozego"
"Najśw. Maryi Panny Królowej Polski","","33-101 Tarnów 3,","ul. Zbylitowska 5,, 33-101 Tarnów 3,","http://www.moscice.diecezja.tarnow.pl","tarnow_moscice@diecezja.tarnow.pl","14-63-19-750","ks. dr Jacek Nowak","6:00, 7:15, 8:30, 10:00, 11:30, 17:00, 19:00 (wa-kacje: 20:00)","6:00, 6:30, 7:00, 18:00 (wakacje: 19:00)","","","http://www.diecezja.tarnow.pl/index.php/schematyzm/t/619-tarnow-moscice"
"Najświętszego Serca Pana Jezusa","","33-100 Tarnów,","ul. Lwowska 102,, 33-100 Tarnów,","http://www.nspj.diecezja.tarnow.pl/","tarnow8@diecezja.tarnow.pl","14-621-21-12","ks. dr Adam Kardyś","5:30, 7:00, 8:30, 10:00, 11:30, 14:00, 18:00, 20:00; w ","6:00, 6:30, 7:00, 18:00",": 5.30; 7.00; 8.30; 10.00; 11.30; 14:00, 18.00, 20:00","","http://www.diecezja.tarnow.pl/index.php/schematyzm/t/613-tarnow-najswietszego-serca-pana-jezusa"
"św. Józefa i Matki Bożej Fatimskiej","","33-100 Tarnów,","Al. Matki Bożej Fatimskiej 39,, 33-100 Tarnów,","http://mbfatimskiej.diecezja.tarnow.pl/","tarnow6@diecezja.tarnow.pl","14-622-22-86","ks. dr Stanisław Bilski","6:30, 8:00, 9:30, 11:00, 12:30, 15:30, 18:30, 20:00, ","6:00, 6:45, 7:30, 18:30",": 6:00, 7:00, 8:00, 9:30, 17:00","","http://www.diecezja.tarnow.pl/index.php/schematyzm/t/611-tarnow-sw-jozefa-i-mb-fatimskiej"
"św. Krzyża i św. Filipa Neri w Tarnowie","","33-100 Tarnów,","ul. Piłsudskiego 9,, 33-100 Tarnów,","http://filipini.eu","tarnow2@diecezja.tarnow.pl","14-626-26-21, 14-626-26-92","ks. mgr Maciej Mitera COr","6:30, 8:00, 9:15, 10:30, 12:00, 15:30, 17:00, 18:30 (19:00 w okresie od 1.V do30.IX), 20:30 (21:00 w okresie od 1.V do30.IX)","6:30, 7:00, 8:30, 18:30 (19:00 w okresie od 1.V do30.IX)","","","http://www.diecezja.tarnow.pl/index.php/schematyzm/t/607-tarnow-sw-krzyza-i-sw-filipa-neri"
"św. Maksymiliana M. Kolbego","","33-100 Tarnów,","ul. Urszulańska 9,, 33-100 Tarnów,","http://www.maksymilian.diecezja.tarnow.pl","tarnow4@diecezja.tarnow.pl","14-621-65-36,","ks. dr Grzegorz Rzeźwicki","6:30, 7:30, 9:00, 10:30, 12:00, 18:30","7:00, 8:00, 18:30","","","http://www.diecezja.tarnow.pl/index.php/schematyzm/t/609-tarnow-sw-maksymiliana-kolbego"
"świętej Rodziny","","33-100 Tarnów,","ul. Krakowska 41,, 33-100 Tarnów,","http://www.familia.tarman.pl","tarnow5@diecezja.tarnow.pl","14-62-21-122","ks. mgr Zdzisław Góra CM","5:30, 6:30, 8:00, 9:30, 11:00, 12:30, 16:00, 18:00, 20:00, Nieszpory 17:00","6:00, 6:30, 7:00, 8:00, 18:00","","","http://www.diecezja.tarnow.pl/index.php/schematyzm/t/610-tarnow-sw-rodziny"
"św. Stanisława Kostki","","33-101 Tarnów 3,","ul. Pszenna 3a,, 33-101 Tarnów 3,","http://www.swstkostka.tarnow.opoka.org.pl/","tarnow10@diecezja.tarnow.pl","14-62-67-533","ks. dr Zbigniew Krzyszowski","7:00, 9:00, 11:00, (14:00 - II niedz.), 17:00","7:00, 18:00 (17:30)","","","http://www.diecezja.tarnow.pl/index.php/schematyzm/t/615-tarnow-sw-stanislawa-kostki"
"Trójcy Przenajświętszej","","33-100 Tarnów,","ul. Tuchowska 5,, 33-100 Tarnów,","http://www.tarnow_terlikowka.diecezja.tarnow.pl","tarnow_terlikowka@diecezja.tarnow.pl","14-626-88-85","ks. mgr Daniel Pietryka","6:30, 8:00, 9:30, 10:45, 12:00, 18:00 [wiosna-lato] 17:00 [jesień-zima]","6:30, 18:00 [wiosna-lato] 17:00 [jesień-zima]","","","http://www.diecezja.tarnow.pl/index.php/schematyzm/t/620-tarnow-terlikowka"
"św. Józefa Rzemieślnika","","33-112 Tarnowiec,","ul. Tarnowska 108,, 33-112 Tarnowiec,","http://www.tarnowiec.diecezja.tarnow.pl","tarnowiec@diecezja.tarnow.pl","14-679-51-21,","ks. mgr Stanisław Skowron","8:00, 10:00, 19:00","6:30, 19:00","","","http://www.diecezja.tarnow.pl/index.php/schematyzm/t/605-tarnowiec"
"św. Stanisława Bp","","33-312 Tęgoborze 12,","33-312 Tęgoborze 12,","","tegoborze@diecezja.tarnow.pl","18-44-49-355","ks. mgr Stanisław Berdzik","7:00, 9:00, 10:30, 17:00, Skrzętlna 14:00","7:00, 19:00","","","http://www.diecezja.tarnow.pl/index.php/schematyzm/t/621-tegoborze"
"Świętych Pustelników Świerada i Benedykta","","Tropie 6, 33-316 Rożnów","Tropie 6, 33-316 Rożnów","http://www.tropie.tarnow.opoka.org.pl/","tropie@diecezja.tarnow.pl","18-44-03-076","ks. mgr Andrzej Piórek","6:30, 8:30, 10:30, 17:00 (czas zimowy 16:00); Roztoka-Brzeziny: 14:00","6:30, 7:00 lub w śr., pt., sob. 18:00 ( VI-VII 19:00; czas zimowy 17:00)","","","http://www.diecezja.tarnow.pl/index.php/schematyzm/t/622-tropie"
"Najśw. Maryi Panny Wniebowziętej","","Trzciana 283, 39-304 Czermin,","Trzciana 283, 39-304 Czermin,","","trzciana1@diecezja.tarnow.pl","17-77-40-548","ks. mgr Andrzej Gadzina","7:00, 9:00, 11:00, Nieszpory 15:00","6:30","","","http://www.diecezja.tarnow.pl/index.php/schematyzm/t/624-trzciana-nmp-wniebowzietej"
"św. Małgorzaty PM","","32-733 Trzciana k. Bochni 1,","32-733 Trzciana k. Bochni 1,","http://www.parafiatrzciana.pl/","trzciana2@diecezja.tarnow.pl","14-61-36-013","ks. mgr Władysław Midura","7:00, 9:00, 11:00, 15:00","6:30, 18:00 (16:00)","","","http://www.diecezja.tarnow.pl/index.php/schematyzm/t/623-trzciana"
"Najśw. Maryi Panny Częstochowskiej","","Trzemesna 73, 33-170 Tuchów,","Trzemesna 73, 33-170 Tuchów,","","trzemesna@diecezja.tarnow.pl","14-674-43-19","ks. Adam Wojciechowski","7:30, 10:30, 15:00","7:00, wt., śr., pt. 18:00 (17:00)","","","http://www.diecezja.tarnow.pl/index.php/schematyzm/t/625-trzemesna"
"św. Wojciecha BM","","Trześń 276, 39-331 Chorzelów,","Trześń 276, 39-331 Chorzelów,","","trzesn@diecezja.tarnow.pl","17-58-41-380, 17-58-38-147","ks. Wojciech Chochół","7:00, 9:00, 10:30 (","6:30 lub 18:00 (17:00)","17:00)","","http://www.diecezja.tarnow.pl/index.php/schematyzm/t/626-trzesn"
"Matki Bożej Pocieszenia","","Trzetrzewina 194, 33-395 Chełmiec,","Trzetrzewina 194, 33-395 Chełmiec,","http://www.trzetrzewina.diecezja.tarnow.pl/","trzetrzewina@diecezja.tarnow.pl","18-44-30-499","ks. mgr Edward Mikoś","7:30, 11:00, 16:00, Niskowa 8:15, 10:00","6:30, śr. 6:30, 17:30, Niskowa 18:15","","","http://www.diecezja.tarnow.pl/index.php/schematyzm/t/627-trzetrzewina"
"Nawiedzenia Najśw. Maryi Panny","","33-170 Tuchów,","ul. Wysoka 1,, 33-170 Tuchów,","http://www.klasztor.tuchow.pl/","tuchow2@diecezja.tarnow.pl","14-632-72-00","o. mgr lic. Bogusław Augustowski CSsR","6:00, 7:30, 9:00, 10:30, 12:00, 16:00, 19:00 (18:00)","6:00, 7:00, 8:00, 19:00 (18:00)","","","http://www.diecezja.tarnow.pl/index.php/schematyzm/t/629-tuchow-nawiedzenia-nmp"
"św. Jakuba St. Ap.","","33-170 Tuchów,","ul. Kościuszki 8a,, 33-170 Tuchów,","http://www.tuchow.diecezja.tarnow.pl/","tuchow1@diecezja.tarnow.pl","14-652-55-10","ks. mgr Alfons Górowski","6:30, 8:30, 10:00, 11:30, 14:00, 18:00 Dąbrówka 9:00, Meszna Opacka 10:00","6:30, 7:00, 18:00","","","http://www.diecezja.tarnow.pl/index.php/schematyzm/t/628-tuchow-sw-jakuba"
"św. Katarzyny PM","","33-167 Turza,","33-167 Turza,","","turza@diecezja.tarnow.pl","14-65-31-010","ks. mgr Zenon Macko","7:30, 10:00, 17:00","19:00 (16:30), śr., sob. 7:00","","","http://www.diecezja.tarnow.pl/index.php/schematyzm/t/630-turza"
"Matki Bożej Fatimskiej","","Tworkowa, 32-863 Tymowa","Tworkowa, 32-863 Tymowa","","tworkowa@diecezja.tarnow.pl","14-68-42-169","ks. Ryszard Łątka","8.30, 11.00","Środa i piątek 17.00, pozostałe dni 7.00","","","http://www.diecezja.tarnow.pl/index.php/schematyzm/t/631-tworkowa"
"świętych Apostołów Piotra i Pawła","","33-383 Tylicz, Rynek 15,","33-383 Tylicz, Rynek 15,","www.parafiatylicz.pl","tylicz@diecezja.tarnow.pl","18-47-11-310","Ks. mgr Marian Stach","7:00, 9:00, 11:15, 18:30, Muszynka 10:00","6:30, 18:00 (XI-III 17:00)","","","http://www.diecezja.tarnow.pl/index.php/schematyzm/t/632-tylicz"
"św. Mikołaja B.","","34-451 Tylmanowa 101,","34-451 Tylmanowa 101,","http://www.tylmanowa.diecezja.tarnow.pl","tylmanowa@diecezja.tarnow.pl","18-26-25-023","ks. Marek Mroczek","8:00, 9:15, 10:45, 16:00","7:00, śr., pt. również 18:30","","","http://www.diecezja.tarnow.pl/index.php/schematyzm/t/633-tylmanowa"
"Narodzenia Najśw. Maryi Panny","","34-650 Tymbark 57,","34-650 Tymbark 57,","http://www.tymbark.tarnow.opoka.org.pl/","tymbark@diecezja.tarnow.pl","18-33-25-201","ks. mgr Edward Nylec","1.09-30.06: 7:00, 8:30, 10:00, 11:15, 16:00, Piekiełko 10:00, 15:00, 1.07-31.08: 6:30, 7:45, 9:00, 1","6:30, 7:00, 18:00 (17:00)","","","http://www.diecezja.tarnow.pl/index.php/schematyzm/t/634-tymbark"
"Św. Mikołaja Bpa","","Tymowa 4a, 32-863 Tymowa","Tymowa 4a, 32-863 Tymowa","http://www.parafiatymowa.pl","tymowa@diecezja.tarnow.pl","14-68-60-525","ks. mgr Jerzy Kawik","7:00, 9:00, 11:00","6:30, 18:00 (czas zimowy 17:00)","","","http://www.diecezja.tarnow.pl/index.php/schematyzm/t/635-tymowa"
"św. Michała Archanioła","","34-603 Ujanowice 1,","34-603 Ujanowice 1,","ujanowice.pl","ujanowice@diecezja.tarnow.pl","18-33-34-024","ks. mgr Wiesław Dzięgiel","7:00, 10:30, 13:00, Sechna 9:00, Strzeszyce 11:30","6:30, 7:00","","","http://www.diecezja.tarnow.pl/index.php/schematyzm/u/636-ujanowice"
"Matki Bożej Nieustającej Pomocy","","38-315 Uście Gorlickie 88,","38-315 Uście Gorlickie 88,","","uscie_gorlickie@diecezja.tarnow.pl","18-35-30-720","ks. mgr Wiesław Czaja","7:00, 14:00, Kwiatoń 9:00, Oderne 10:30","6:30, śr., pt. 17:00","","","http://www.diecezja.tarnow.pl/index.php/schematyzm/u/638-uscie-gorlickie"
"św. Ap. Piotra i Pawła","","32-713 Uście Solne 1,","32-713 Uście Solne 1,","","uscie_solne@diecezja.tarnow.pl","14-67-17-110","ks. mgr Albert Urbaś","8:15, 10:30, 15:00","6:30, sob. 18:00 (16:00)","","","http://www.diecezja.tarnow.pl/index.php/schematyzm/u/639-uscie-solne"
"św. Floriana M.","","32-865 Uszew 130,","32-865 Uszew 130,","http://www.parafia.uszew.pl/","uszew@diecezja.tarnow.pl","14-68-69-300","ks. mgr Jan Kudłacz","7:00, 9:15, 11:00, 16:00","6:30, śr. Pt., 18:00 17:00","","","http://www.diecezja.tarnow.pl/index.php/schematyzm/u/637-uszew"
"św. Franciszka z Asyżu","","Wadowice Dolne 154, 39-308 Wadowice Górne,","Wadowice Dolne 154, 39-308 Wadowice Górne,","http://www.wadowice_dolne.diecezja.tarnow.pl/","wadowice_dolne@diecezja.tarnow.pl","14-66-68-359","Ks. mgr Jacek Naleźny","7:15, 9:00, 10:30, 14:45","6:30, 18:00","","","http://www.diecezja.tarnow.pl/index.php/schematyzm/w/640-wadowice-dolne"
"św. Anny","","39-308 Wadowice Górne 134,","39-308 Wadowice Górne 134,","","wadowice_gorne@diecezja.tarnow.pl","14-66-69-691","ks. mgr Wojciech Duplak","7:30, 9:00, 10:30, 15:00","6:30","","","http://www.diecezja.tarnow.pl/index.php/schematyzm/w/641-wadowice-gorne"
"Podwyższenia Krzyża św.","","Wielka Wieś 1, 32-830 Wojnicz,","Wielka Wieś 1, 32-830 Wojnicz,","http://www.wielka_wies.diecezja.tarnow.pl","wielka_wies@diecezja.tarnow.pl","14-67-91-200","ks. mgr Roman Miarecki","7:30, 10:00, 16:00","7:00, pon., śr., pt. 18:00 (17:00)","","","http://www.diecezja.tarnow.pl/index.php/schematyzm/w/642-wielka-wies"
"Najśw. Maryi Panny Wniebowziętej","","33-311 Wielogłowy 4,","33-311 Wielogłowy 4,","http://www.pwnmp.pl","wieloglowy@diecezja.tarnow.pl","18-44-32-182, 18-44-00-047","ks. mgr Ryszard Mikos","7:00, 9:00, 11:00, 17:00 (16:00),","6:30, 18:00 (17:00)","","","http://www.diecezja.tarnow.pl/index.php/schematyzm/w/643-wieloglowy"
"św. Michała Archanioła","","33-350 Piwniczna, Wierchomla Wielka 15,","33-350 Piwniczna, Wierchomla Wielka 15,","http://www.wierchomla.diecezja.tarnow.pl/","wierchomla_wielka@diecezja.tarnow.pl","18-44-68-229","ks. mgr Tomasz Stachel","8:00, 10:00, lato 18:00, zima 17:00","kaplica : codziennie 7:00, kościół : śr., pt. 18:00 (lato), 17:00 (zima)","","","http://www.diecezja.tarnow.pl/index.php/schematyzm/w/644-wierchomla-wielka"
"Matki Bożej Pocieszenia","","33-122 Wierzchosławice 83 a,","33-122 Wierzchosławice 83 a,","http://www.wierzchoslawice.parafia.info.pl","wierzchoslawice@diecezja.tarnow.pl","14-67-96-494","ks. Jerzy Czuj","6:30, 8:00, 9:30, 11:00, 17:00, ","6:30, 18:00 (17:00)",": 6:30, 8:00, 10:00, 16:00, 18:00","","http://www.diecezja.tarnow.pl/index.php/schematyzm/w/645-wierzchoslawice"
"Najśw. Maryi Panny Wniebowziętej","","33-270 Wietrzychowice 35,","33-270 Wietrzychowice 35,","http://www.wietrzychowice.diecezja.tarnow.pl/","wietrzychowice@diecezja.tarnow.pl","14-64-18-001,","ks. Kazimierz Borczewski","Wietrzychowice - godz. 7:00, 10:00, 15:00; ","godz. 7:00; ","","","http://www.diecezja.tarnow.pl/index.php/schematyzm/w/646-wietrzychowice"
"św. Maksymiliana M.Kolbego","","Wiewiórka 161, 39-209 Zasów","Wiewiórka 161, 39-209 Zasów","","wiewiorka@diecezja.tarnow.pl","14-68-29-120","Ks. mgr Józef Janas","7:30, 10:00, 15:00","PN 7:00; WT-ŚR-CZ 17:00 (zima), 18:00 (lato); PT 7:00 (Pierwszy Piątek 7:00 i 17:00); SB 7:00","","","http://www.diecezja.tarnow.pl/index.php/schematyzm/w/647-wiewiorka"
"św. Stanisława BM","","Wilczyska 94, 38-350 Bobowa,","Wilczyska 94, 38-350 Bobowa,","","wilczyska@diecezja.tarnow.pl","18-35-14-061","ks. mgr Sławomir Gulik","niedziele: 7:30, 09:15, 11:00, ","pon, wt, sob: 7:00, środa, czw, pt: 18:00",": 7:30, 11:00, 17:00","","http://www.diecezja.tarnow.pl/index.php/schematyzm/w/648-wilczyska"
"św. Katarzyny PM","","34-617 Wilkowisko 17,","34-617 Wilkowisko 17,","http://wilkowisko.parafia.info.pl","wilkowisko@diecezja.tarnow.pl","18-33-43-189","ks. mgr Józef Oleksy","7:30, 10:30, 15:00","7:00, śr., pt. 18:00","","","http://www.diecezja.tarnow.pl/index.php/schematyzm/w/649-wilkowisko"
"Najśw. Maryi Panny Wniebowziętej","","Wojakowa 51, 32-862 Porąbka Iwkowska,","Wojakowa 51, 32-862 Porąbka Iwkowska,","http://www.parafia-wojakowa.pl/pl","wojakowa@diecezja.tarnow.pl","14-68-45-147","ks. mgr Józef Nowak","7:00, 9:00, 11:00, 16:00","6:30, 18:00","","","http://www.diecezja.tarnow.pl/index.php/schematyzm/w/650-wojakowa"
"św. Kingi","","38-350 Bobowa","Wilczyska 92, 38-350 Bobowa","","wojnarowa@diecezja.tarnow.pl","18-35-15-076","Ks. mgr Kazimierz Soleński","7.30, 9.30, 13.30","pon, wt, czw, sob 7.00 ; ?r, pt 17.00","","","http://www.diecezja.tarnow.pl/index.php/schematyzm/w/651-wojnarowa"
"św. Wawrzyńca M","","32-830 Wojnicz,","ul. Jagiellońska 23,, 32-830 Wojnicz,","www.wojnicz.diecezja.tarnow.pl","wojnicz_par@diecezja.tarnow.pl","14-67-90-591","ks. dr Jan Gębarowski","6:00, 8:00, 9:30, 11:00, 12:30, 18:00 k. św. Leonarda 16:00 (z wyjątkiem wakacji)","6:00, 6:30, 18:00, k. św. Leonarda 8:00, pt. 15:00","","","http://www.diecezja.tarnow.pl/index.php/schematyzm/w/652-wojnicz"
"Najśw. Maryi Panny Wniebowziętej","","Wola Mędrzechowska 128, 33-221 Mędrzechów,","Wola Mędrzechowska 128, 33-221 Mędrzechów,","","wola_medrzechowska@diecezja.tarnow.pl","14-64-37-769","ks. mgr Tomasz Majchrzak","8:00, 11:00, 15:00","7:00, śr., pt. 18:00 (16:00)","","","http://www.diecezja.tarnow.pl/index.php/schematyzm/w/654-wola-medrzechowska"
"Bożej Opatrzności","","Wola Mielecka, 39-300 Mielec","Wola Mielecka, 39-300 Mielec","http://www.wolamielecka.pl/informacje-o-parafii","z.smolkowicz@interia.pl","fax","ks. mgr Zbigniew Smołkowicz","ndz: 7:30, 9:30, 11:00, 15:30","pn, czw, sob: 7:00; wt, śr, pt: 18:00","","","http://www.diecezja.tarnow.pl/index.php/schematyzm/w/655-wola-mielecka"
"Niepokalanego Serca Najśw. Maryi Panny","","Wola Piskulina 60, 33-390 Łącko,","Wola Piskulina 60, 33-390 Łącko,","","wola_piskulina@diecezja.tarnow.pl","18-44-46-256","ks. mgr Grzegorz Skorupa","7:00, 10:00, 17:00","7:00, wt., pt., sob. 19:00","","","http://www.diecezja.tarnow.pl/index.php/schematyzm/w/656-wola-piskulina"
"Chrystusa Króla Wszechświata","","Wola Przemykowska 102, 32-821 Zaborów,","Wola Przemykowska 102, 32-821 Zaborów,","","wola_przemykowska@diecezja.tarnow.pl","14-67-15-198","ks. mgr Andrzej Mirek","8:00, 10:30, 15:00 (13:00 - czas zimowy)","7:00, śr. 18:00 (16:00 - czas zimowy)","","","http://www.diecezja.tarnow.pl/index.php/schematyzm/w/657-wola-przemykowska"
"Bł. Karoliny Kózka","","Wola Radłowska 44, 33-133 Wał Ruda,","Wola Radłowska 44, 33-133 Wał Ruda,","","wola_radlowska@diecezja.tarnow.pl","14-67-82-507","ks. mgr Czesław Ciurej","7:30, 10:00, 16:00","7:00","","","http://www.diecezja.tarnow.pl/index.php/schematyzm/w/658-wola-radlowska"
"Wniebowstąpienia Pańskiego","","Wola Rogowska 140, 33-270 Wietrzychowice,","Wola Rogowska 140, 33-270 Wietrzychowice,","","wola_rogowska@diecezja.tarnow.pl","14-64-17-666","ks. Julian Zając","7:30, 10:00, 15:00","7:00, śr. 18:30 (17:00)","","","http://www.diecezja.tarnow.pl/index.php/schematyzm/w/659-wola-rogowska"
"Matki Bożej Nieustającej Pomocy","","33-150 Wola Rzędzińska 435,","33-150 Wola Rzędzińska 435,","","wola_rzedzinska1@diecezja.tarnow.pl","14-679-21-25","ks. mgr Stanisław Morańda","6:30, 8:45, 10:30, 12:00, 17:00, nieszpory 16:30","6:30, 7:00, 19:00 (18:00)","","","http://www.diecezja.tarnow.pl/index.php/schematyzm/w/660-wola-rzedzinska-mb-nieustajacej-pomocy"
"p.w. Miłosierdzia Bożego","","33-150 Wola Rzędińska 251G,","33-150 Wola Rzędińska 251G,","http://www.wola_rzedzinska_mb.diecezja.tarnow.pl","wola_rzedzinska2@diecezja.tarnow.pl","14-679-29-13","ks. mgr Stanisław Szufnara","7:30, 10:00, 16:00","6:30, śr., pt. 18:30 (17:00)","","","http://www.diecezja.tarnow.pl/index.php/schematyzm/w/661-wola-rzedzinska-milosierdzia-bozego"
"Najśw. Maryi Panny Częstochowskiej","","38-322 Wola Łużańska 197,","38-322 Wola Łużańska 197,","","wola_luzanska@diecezja.tarnow.pl","18-35-43-307","ks. Jerzy Godzik","7:00, 9:00, 11:00, ","6:30, 16:00",": 7:00, 13:00, 16:00","","http://www.diecezja.tarnow.pl/index.php/schematyzm/w/653-wola-luzanska"
"Najśw. Maryi Panny Wniebowziętej","","38-316 Wysowa Zdrój 9,","38-316 Wysowa Zdrój 9,","","wysowa@diecezja.tarnow.pl","18-35-32-011","ks. mgr Jacek Daniel","8:00, 11:30, 19:00, kościół zdrojowy 9:00, 10:30, Hańczowa 7:30, 17:00","18:00, kościół zdrojowy 19:00, Hańczowa 17:00","","","http://www.diecezja.tarnow.pl/index.php/schematyzm/w/662-wysowa"
"Trójcy Przenajświętszej","","Zabawa 2, 33-133 Wał Ruda,","Zabawa 2, 33-133 Wał Ruda,","http://pz.lap.pl/","zabawa@diecezja.tarnow.pl","14-67-81-448","ks. mgr Zbigniew Szostak","8:00, 10:00, 16:00","święta zniesione 17:00","17:00","","http://www.diecezja.tarnow.pl/index.php/schematyzm/z/663-zabawa"
"Nawiedzenia Najśw. Maryi Panny","","32-821 Zaborów 85,","32-821 Zaborów 85,","http://www.zaborowparafia.eu","zaborow@diecezja.tarnow.pl","14-67-15-151","ks. Piotr Ścipień","7,00. 9,00. 10,30 - w kaplicy w Dołędze 15,00","6,30, środa i piątek 18,00 (17,00)","","","http://www.diecezja.tarnow.pl/index.php/schematyzm/z/664-zaborow"
"św. Maksymiliana M. Kolbego","","Zabrnie 135, 33-230 Szczucin,","Zabrnie 135, 33-230 Szczucin,","","zabrnie@diecezja.tarnow.pl","14-64-31-810","ks. mgr Marek Łopatka","7:00, 10:30, 15:00, Suchy Grunt 9:00","6:30, 7:00, śr., I pt. 18:00","","","http://www.diecezja.tarnow.pl/index.php/schematyzm/z/665-zabrnie"
"św. Stanisława BM","","Zabrzeż 215, 33-390 Łącko,","Zabrzeż 215, 33-390 Łącko,","","zabrzez@diecezja.tarnow.pl","18-44-46-162","ks. Józef Kasiński","7:00, 10:30, 17:00 (9:00, 10:30)","7:00, pon., wt., śr. 18:30 (16:30)","","","http://www.diecezja.tarnow.pl/index.php/schematyzm/z/666-zabrzez"
"Matki Boskiej Bolesnej","","Zaczarnie 357a, 33-140 Lisia Góra","Zaczarnie 357a, 33-140 Lisia Góra","http://www.zaczarnie.diecezja.tarnow.pl","zaczarnie@diecezja.tarnow.pl","14-67-88-560","ks. mgr lic. Robert Filipowicz","7:00, 9:00, 11:00","6:30","","","http://www.diecezja.tarnow.pl/index.php/schematyzm/z/667-zaczarnie"
"św. Wawrzyńca M.","","38-333 Zagórzany 263,","38-333 Zagórzany 263,","http://www.zagorzany.com.pl/Parafia/parafia.php","zagorzany@diecezja.tarnow.pl","18-35-12-627","ks. Bolesław Bawiec","7:00, 9:30, 11:00, 16:00, kaplica 8:30","6:30, 18:00","","","http://www.diecezja.tarnow.pl/index.php/schematyzm/z/668-zagorzany"
"Matki Bożej Anielskiej","","32-840 Zakliczyn n. D.","ul. Klasztorna 2, 32-840 Zakliczyn n. D.","http://www.franciszkaniezakliczyn.pl","zakliczyn1@diecezja.tarnow.pl","14-66-53-440","o. mgr Tomasz Kobierski OFM","dni powszednie","Odpust parafialny","","","http://www.diecezja.tarnow.pl/index.php/schematyzm/z/670-zakliczyn-mb-anielskiej"
"św. Idziego Opata","","32-840 Zakliczyn n.D.,","ul. Mickiewicza 28,, 32-840 Zakliczyn n.D.,","http://www.parafia.zakliczyn.iap.pl","zakliczyn@diecezja.tarnow.pl","14-66-53-431","ks. mgr Paweł Mikulski","6:30, 8:30, 9:30, 11:00, 17:00","6:00, 6:30, 18:00","","","http://www.diecezja.tarnow.pl/index.php/schematyzm/z/669-zakliczyn-sw-idziego"
"św. Jana Ap. Ew.","","33-159 Zalasowa,","ul. Kościelna 2,, 33-159 Zalasowa,","","zalasowa@diecezja.tarnow.pl","14-65-42-008","Ks. mgr Kazimierz Kozyra","7:00, 9:00, 11:00, 16:00 (","6:30, 7:00, śr., pt. wieczorem","18:00)","","http://www.diecezja.tarnow.pl/index.php/schematyzm/z/671-zalasowa"
"św. Maksymiliana M. Kolbego","","Zalesie 200, 34-608 Kamienica,","Zalesie 200, 34-608 Kamienica,","www.zalesie.parafia.info.pl","zalesie@diecezja.tarnow.pl","18-33-46-726","Ks. mgr Ryszard Kochanowicz","7:30, 10:00, 15:00","7:00, 18:00","","","http://www.diecezja.tarnow.pl/index.php/schematyzm/z/672-zalesie"
"św. Józefa Oblubieńca NMP","","33-263 Zalipie 160,","33-263 Zalipie 160,","","zalipie@diecezja.tarnow.pl","14-64-11-902","ks. Stanisław Nakielski","8:00, 11:00, 14:00","7:00 lub 19:00","","","http://www.diecezja.tarnow.pl/index.php/schematyzm/z/673-zalipie"
"św. Stanisława BM","","39-209 Zasów 139,","39-209 Zasów 139,","http://www.zasow.diecezja.tarnow.pl","zasow@diecezja.tarnow.pl","14-68-31-414","Ks. mgr Krzysztof Pietras","7:30, 11:00, 15:00, Dąbie 9:30, 16:00 (14:00)","6:30, 7:00","","","http://www.diecezja.tarnow.pl/index.php/schematyzm/z/674-zasow"
"Narodzenia Najśw. Maryi Panny","","Zawada 147, 39-200 Dębica,","Zawada 147, 39-200 Dębica,","http://www.zawada.tarnow.opoka.org.pl","zawada1@diecezja.tarnow.pl","14-67-75-039","ks. mgr lic. Józef Książek","6:30, 8:00, 9:30, 11:00, 16:30","6:00, 18:00 (17:00)","","","http://www.diecezja.tarnow.pl/index.php/schematyzm/z/675-zawada"
"św. Marcina B","","Zawada 47, 33-112 Tarnowiec,","Zawada 47, 33-112 Tarnowiec,","http://www.zawada.diecezja.tarnow.pl","zawada2@diecezja.tarnow.pl","14-679-55-05","ks. mgr Adam Wyrwa","7:00, 9:00, 11:00, 16:00; ","śr., pt., maj, październik, czw. przed I pt. - 18:00 albo 19:00; I pt. i I sob. miesiąca - rano i po południu; poza tym - 6:30 (ale Roraty - 6:00 codziennie, a w śr. i pt. - także 18:00)","","","http://www.diecezja.tarnow.pl/index.php/schematyzm/z/676-zawada-sw-marcina"
"św. Marii Magdaleny","","Zborowice 14, 33-190 Ciężkowice,","Zborowice 14, 33-190 Ciężkowice,","","zborowice@diecezja.tarnow.pl","14-65-13-012,  14-65-13-176","ks. Andrzej Berdzik","7:00, 10:30, 16:00, Pławna: 9:00","6:30, śr. 18:00","","","http://www.diecezja.tarnow.pl/index.php/schematyzm/z/677-zborowice"
"Podwyższenia Krzyża św.","","Zbylitowska Góra,","ul. Plebańska 7, 33-113 Zgłobice,, Zbylitowska Góra,","http://www.parafiazbylitowska.pl","zbylitowska_gora@diecezja.tarnow.pl","14-674-30-24","ks. mgr Józef Kaczmarski","7:00, 9:00, 11:00, 16:00","7:00, 19:00","","","http://www.diecezja.tarnow.pl/index.php/schematyzm/z/678-zbylitowska-gora"
"św. Bartłomieja Ap.","","Zbyszyce 29, 33-318 Gródek n.D.,","Zbyszyce 29, 33-318 Gródek n.D.,","","zbyszyce@diecezja.tarnow.pl","18-44-32-266","o. Jan Popa CSSp","8:00, 10:30, 19:00 (17:00)","19:00 (17:00)","","","http://www.diecezja.tarnow.pl/index.php/schematyzm/z/679-zbyszyce"
"św. Stanisława BM","","Zdrochec 100, 33-273 Marcinkowice k. Brzeska,","Zdrochec 100, 33-273 Marcinkowice k. Brzeska,","http://www.zdrochec.tarnow.opoka.org.pl/","zdrochec@diecezja.tarnow.pl","14-62-84-428","ks. mgr Stanisław Biskup","8:00, 10:30, 15:00","7:00 lub 18:00","","","http://www.diecezja.tarnow.pl/index.php/schematyzm/z/680-zdrochec"
"Nawiedzenia Najśw. Maryi Panny","","39-311 Zdziarzec 96,","39-311 Zdziarzec 96,","","zdziarzec@diecezja.tarnow.pl","14-68-24-776","ks. mgr Eugeniusz Habura","7:00, 10:30, 15:30, Żarówka 9:00, 14:00","19:00 (18:00 lub 17:00)","","","http://www.diecezja.tarnow.pl/index.php/schematyzm/z/681-zdziarzec"
"św. Mikołaja Bpa","","Zgórsko 61, 39-308 Wadowice Górne","Zgórsko 61, 39-308 Wadowice Górne","www.zgorsko.pl","zgorsko@diecezja.tarnow.pl","14-68-26-163,","ks. mgr Waldemar Rawiński","7:00, 9:00, 11:00, 16:00, Partynia 10:00","6:30, 7:00","","","http://www.diecezja.tarnow.pl/index.php/schematyzm/z/683-zgorsko"
"św. Alberta Chmielowskiego","","33-113 Zgłobice,","ul. Długa 8,, 33-113 Zgłobice,","http://www.zglobice.diecezja.tarnow.pl","zglobice@diecezja.tarnow.pl","14-674-10-94","ks. mgr Andrzej Mikulski","7:00, 9:00, 11:00, 16:00","wt., czw., I pt. miesiąca - 6.30, codziennie 18.30 (IV-IX), 17.30 (X-III)","","","http://www.diecezja.tarnow.pl/index.php/schematyzm/z/682-zglobice"
"Podwyższenia Krzyża","","Ziempniów 87, 39-304 Czermin","Ziempniów 87, 39-304 Czermin","","ziempniow@diecezja.tarnow.pl","17-77-41-291","Ks. mgr Józef Pachut","7:00, 9:00, 11:00","19:00","","","http://www.diecezja.tarnow.pl/index.php/schematyzm/z/684-ziempniow"
"św. Marcina Bpa","","39-221 Łęki Górne, Zwiernik 241,","39-221 Łęki Górne, Zwiernik 241,","","zwiernik@diecezja.tarnow.pl","14-66-65-510","ks. mgr Leszek Kos","7:00, 11:00, 16:00","6:30","","","http://www.diecezja.tarnow.pl/index.php/schematyzm/z/687-zwiernik"
"Narodzenia Najśw. Maryi Panny","","Złockie 33, 33-370 Muszyna,","Złockie 33, 33-370 Muszyna,","","zlockie@diecezja.tarnow.pl","18-47-14-130","ks. Andrzej Klimek","7:00, 9:30, 11:00, 16:00 (15:00), Jastrzębik 8:15, Szczawnik 8:15","19:00 (17:00), Jastrzębik śr., I pt. 18:00, Szczawnik sob., I pt. 18:00","","","http://www.diecezja.tarnow.pl/index.php/schematyzm/z/685-zlockie"
"św. Michała Archanioła","","Złota 32a, 32-859 Złota","Złota 32a, 32-859 Złota","","zlota@diecezja.tarnow.pl","14-66-35-090","ks. dr Stanisław Kądziołka","7:00, 9:00, 11:00, 16:00","6:30, 18:00 (czas zimowy 17:00)","","","http://www.diecezja.tarnow.pl/index.php/schematyzm/z/686-zlota"
"Ducha Świętego","","33-240 Żabno","Rynek 27, 33-240 Żabno","http://www.zabno.diecezja.tarnow.pl","zabno_par@diecezja.tarnow.pl","14-64-56-060","ks. mgr lic. Antoni Mikrut","6:30, 8:00, 9:30, 11:00, 17:00","6:00, 6:30, 18:00","","","http://www.diecezja.tarnow.pl/index.php/schematyzm/2010-11-28-21-12-32/688-zabno"
"Matki Bożej Bolesnej","","Żbikowice 49, 33-314 Łososina Dolna,","Żbikowice 49, 33-314 Łososina Dolna,","","zbikowice@diecezja.tarnow.pl","18-44-48-059","ks. mgr Antoni Marek","7:00, 9:00, 11:00","6:30","","","http://www.diecezja.tarnow.pl/index.php/schematyzm/2010-11-28-21-12-32/689-zbikowice"
"","","39-215 Czarna","Żdżary 149, 39-215 Czarna","http://www.zdzary.diecezja.tarnow.pl","zdzary@diecezja.tarnow.pl","14-682-99-55","ks. mgr lic. Adam Samborski","8:00, 10:00, 15:00","7:00 (pon. i sb.), 17:00 (IX-IV) 18:00 (V-VIII)","","","http://www.diecezja.tarnow.pl/index.php/schematyzm/83-informacje-o-parafiach-w-diecezji/2010-11-28-14-38-02/5528-zdzary"
"św. Anny","","33-370 Muszyna, Żegiestów","33-370 Muszyna, Żegiestów","http://zegiestow.diecezja.tarnow.pl/","zegiestow@diecezja.tarnow.pl","18-47-17-124","ks. mgr Krzysztof Dynarowicz","Żegiestów: 10:00 (11:00 - I Komunia i ur. odpustowa), 15:00; ","Żegiestów: śr i pt - 19:00 (17:00), pozostałe dni 7:00 (8:00)","","","http://www.diecezja.tarnow.pl/index.php/schematyzm/2010-11-28-21-12-32/690-zegiestow"
"","","33-370 Muszyna, Żegiestów Zdrój 3","33-370 Muszyna, Żegiestów Zdrój 3","","zegiestow_zdroj@diecezja.tarnow.pl","18-47-17-293","ks. dr Ireneusz Neznal","8:00, 11:00","16:00 (lato 18:30)","","","http://www.diecezja.tarnow.pl/index.php/schematyzm/2010-11-28-21-12-32/691-zegiestow-zdroj"
"św. Mikołaja B.","","32-731 Żegocina 1,","32-731 Żegocina 1,","http://www.zegocina.pl/parafia/parzeg/parzegocina.htm","zegocina@diecezja.tarnow.pl","14-61-32-077","ks. mgr Leszek Dudziak","7:00, 8:30, 11:00, 16:00, Rozdziele 9:30, 14:30","6:30, 7:00, 18:00 (16:00)","","","http://www.diecezja.tarnow.pl/index.php/schematyzm/2010-11-28-21-12-32/692-zegocina"
"św. Wincentego a Paulo","","Żelazówka 104a, 33-200 Dąbrowa Tarnowska,","Żelazówka 104a, 33-200 Dąbrowa Tarnowska,","http://www.zelazowka.diecezja.tarnow.pl.","zelazowka@diecezja.tarnow.pl","14-64-21-725","ks. mgr Marek Lasek","7:00, 11:00, Brnik 9:00","19:00 (17:00)","","","http://www.diecezja.tarnow.pl/index.php/schematyzm/2010-11-28-21-12-32/693-zelazowka"
"św. Michała Archanioła","","Żeleśnikowa 3, 33-335 Nawojowa,","Żeleśnikowa 3, 33-335 Nawojowa,","http://www.zeleznikowa.diecezja.tarnow.pl","zeleznikowa@diecezja.tarnow.pl","18-44-29-990","ks. mgr Wiesław Skrabacz","7:00, 9:30, 11:00, 16:00, ","6:00, 6:30, śr., I czw., pt. 18:00 (17:00)","7:00, 11:00, 18:00","","http://www.diecezja.tarnow.pl/index.php/schematyzm/2010-11-28-21-12-32/694-zeleznikowa"
"św. Zygmunta","","Żelichów 2, 33-260 Wola Żelichowska,","Żelichów 2, 33-260 Wola Żelichowska,","http://www.parafiazelichow.prv.pl/","zelichow@diecezja.tarnow.pl","14-64-16-047","ks. mgr Jan Król","7:30, 9:30, 15:00 (11:30)","19:00 (17:00)","","","http://www.diecezja.tarnow.pl/index.php/schematyzm/2010-11-28-21-12-32/695-zelichow"
"Najświętszego Serca Pana Jezusa","","Żmiąca 113, 34-603 Ujanowice,","Żmiąca 113, 34-603 Ujanowice,","","zmiaca@diecezja.tarnow.pl","18-33-34-070","ks. mgr Marek Wójcik","7:30, 11:00","7:00, pt. 18:00","","","http://www.diecezja.tarnow.pl/index.php/schematyzm/2010-11-28-21-12-32/696-zmiaca"
"św. Małgorzaty PM","","38-247 Ołpiny Żurowa 2,","38-247 Ołpiny Żurowa 2,","","zurowa@diecezja.tarnow.pl","14-65-18-315","ks. mgr Stanisław Mikołajczyk","7:30, 10:30, 16:00","6:30, śr. 18:00","","","http://www.diecezja.tarnow.pl/index.php/schematyzm/2010-11-28-21-12-32/697-zurowa"
"Trójcy Przenajświętszej","","39-204 Żyraków 138,","39-204 Żyraków 138,","http://www.zyrakow.parafia.info.pl","zyrakow@diecezja.tarnow.pl","14-68-22-659","ks. Józef Jasiurkowski","8:00, 10:30, 16:00","6:30, śr. 18:00","","","http://www.diecezja.tarnow.pl/index.php/schematyzm/2010-11-28-21-12-32/698-zyrakow"
