"name","postal","city","address","www","email","phone","rector","sun","week","fest","latlng","url"
"Parafia Świętego Augustyna i Świętej Anny","","Babiak","Babiak 17, 11-100 Lidzbark Warmiński ","olsztyn.radioplus.pl/","kuriaol@olsztyn.opoka.org.pl","89 766 14 21 ","ks. mgr Sławomir Wiśniewski ","11:00; 13:00; 14:00 - w soboty","18:00","","","http://archwarmia.pl/parafie/parafie/babiak-parafia-swietego-augustyna-i-swietej-anny/"
"Parafia Świętych Apostołów Szymona i Judy Tadeusza","","Runowo","Babiak 17, 11-100 Lidzbark Warmiński ","olsztyn.radioplus.pl/","kuriaol@olsztyn.opoka.org.pl","89 766 14 21 ","ks. mgr Sławomir Wiśniewski ","09:00; 15:00","16:00","","","http://archwarmia.pl/parafie/parafie/runowo-parafia-swietych-apostolow-szymona-i-judy-tadeusza/"
"Parafia Najświętszego Serca Pana Jezusa","","Barciany","ul. Mickiewicza 4, 11-410 Barciany ","olsztyn.radioplus.pl/","juliuszczapiewski@wp.pl","89 753 11 13 ","ks. mgr Juliusz Czapiewski ","09:00; 11:00; 17:00 - od października do kwietnia; 18:00 - od maja do września","07:00; 17:00 - od października do kwietnia; 18:00 - od maja do września","","","http://archwarmia.pl/parafie/parafie/barciany-parafia-naj-wi-tszego-serca-pana-jezusa/"
"Parafia Świętego Wawrzyńca","","Barczewko","Barczewko 61, 11-010 Barczewo ","olsztyn.radioplus.pl/","kuriaol@olsztyn.opoka.org.pl","89 514 15 27 ","ks. kan. Antoni Górzyński ","08:30; 11:30; 10:00","17:00","","","http://archwarmia.pl/parafie/parafie/barczewko-parafia-swietego-wawrzynca/"
"Parafia Świętego Andrzeja Apostoła","","Barczewo","ul. Plac Batorego 1 A, 11-010 Barczewo ","www.ofmbarczew.cal24.pl","kuriaol@olsztyn.opoka.org.pl","89 514 82 65 ","o. Dawid Szulca OFM ","08:00; 09:30; 12:00; 17:00; 10:30","08:00; 17:00","","","http://archwarmia.pl/parafie/parafie/barczewo-parafia-swietego-andrzeja-apostola/"
"Parafia Świętej Anny","","Barczewo","ul. Nowowiejskiego 4, 11-010 Barczewo ","www.swanna.barczewo.pl","m.paszkowski@net.macrosat.pl","89 514 83 34 ","ks. kan. mgr lic. Marek Paszkowski ","08:00; 10:00; 11:30; 18:00; 07:00; 08:45","07:00; 18:00; 07:15","","","http://archwarmia.pl/parafie/parafie/barczewo-parafia-wi-tej-anny/"
"Parafia Świętego Jana Ewangelisty i Opatrzności Bożej","","Bartąg","Bartąg, ul. św. Jana 3, 10-687 Olsztyn ","olsztyn.radioplus.pl/","kuriaol@olsztyn.opoka.org.pl","89 541 03 94 ","ks. mgr Leszek Kuriata ","08:00; 10:00 -  Suma; 12:00 - Msza rodzinna; 15:00 - Msza o Miłosierdziu Bożym, poprzedzona koronką do Miłosierdzia Bożego; 18:00","18:00","","","http://archwarmia.pl/parafie/parafie/bartag-parafia-swietego-jana-ewangelisty-i-opatrznosci-bozej/"
"Parafia Świętego Jacka Odrowąża","","Bartążek","Bartąg, ul. św. Jana 3, 10-687 Olsztyn ","olsztyn.radioplus.pl/","kuriaol@olsztyn.opoka.org.pl","89 541 03 94 ","ks. mgr Leszek Kuriata ","08:00; 10:30","17:00 - w okresie zimowym; 18:00 - w okresie letnim","","","http://archwarmia.pl/parafie/parafie/bartazek-parafia-swietego-jacka-odrowaza/"
"Parafia Świętego Jakuba","","Bartołty Wielkie","Bartołty Wielkie 4, 11-010 Barczewo ","olsztyn.radioplus.pl/","kuriaol@olsztyn.opoka.org.pl","89 514 34 92 ","ks. Paweł Ostrowski ","09:00 - Rasząg; 10:15 - Rumy; 11:30 - Bartołty Wielkie","17:00 - Bartołty Wielkie","","","http://archwarmia.pl/parafie/parafie/bartolty-wielkie-parafia-swietego-jakuba/"
"Parafia Świętego Brata Alberta","","Bartoszyce","ul. Gdańska 2, 11-200 Bartoszyce ","www.albert-bartoszyce.prv.pl","kuriaol@olsztyn.opoka.org.pl","89 764 11 44 ","ks. kan. Władysław Hnatczuk ","08:00; 09:00; 11:30; 13:00; 19:00; 10:30","07:00; 17:00; 19:00","","","http://archwarmia.pl/parafie/parafie/bartoszyce-parafia-swietego-brata-alberta/"
"Parafia Świętego Brunona","","Bartoszyce","ul. Kętrzyńska 46, 11-200 Bartoszyce ","www.swietybrunon.pl","kuriaol@olsztyn.opoka.org.pl","89 762 20 43 ","ks. kap. hon. mgr Jan Jarosz ","08:00; 10:00; 11:15; 12:30; 18:00; 14:00","07:00; 18:00","","","http://archwarmia.pl/parafie/parafie/bartoszyce-parafia-swietego-brunona/"
"Parafia Świętego Jana Chrzciciela","","Bartoszyce","ul. Nowa 1 A, 11-200 Bartoszyce ","olsztyn.radioplus.pl/","kuriaol@olsztyn.opoka.org.pl","89 764 30 50 ","ks. kan. mgr Leszek Dereń ","07:00; 09:30; 11:00; 12:15; 17:00","07:00; 18:00","","","http://archwarmia.pl/parafie/parafie/bartoszyce-parafia-switego-jana-chrzciciela/"
"Parafia Świętego Jana Ewangelisty i Matki Boskiej Częstochowskiej","","Bartoszyce","ul. Mazurska 27, 11-200 Bartoszyce ","farabartoszyce.eu","kuriaol@olsztyn.opoka.org.pl","89 762 28 83 ","ks. kan. dr Artur Oględzki ","08:00; 09:00; 10:00; 11:30; 15:00; 18:00","06:30; 07:00; 18:00","","","http://archwarmia.pl/parafie/parafie/bartoszyce-parafia-switego-jana-ewangelisty-i-matki-boskiej-czestochowskiej/"
"Parafia Świętego Jakuba Starszego","","Osetnik","BAŻYNY 45, 11-130 Orneta ","olsztyn.radioplus.pl/","kuriaol@olsztyn.opoka.org.pl","55 242 15 29 ","ks. mgr lic. Tomasz Kociński ","","","","","http://archwarmia.pl/parafie/parafie/osetnik-parafia-swietego-jakuba-starszego/"
"Parafia św. Mikołaja i św. Rocha","","Bażyny","Bażyny 45, 11-130 Orneta ","olsztyn.radioplus.pl/","kuriaol@olsztyn.opoka.org.pl","55 242 15 29 ","ks. mgr lic. Tomasz Kociński ","09:00","18:00; 19:00","","","http://archwarmia.pl/parafie/parafie/ba-yny-parafia-w-miko-aja-i-w-rocha/"
"Parafia św. Maksymiliana Kolbe","","Bezledy","Bezledy 42, 11-200 Bartoszyce ","olsztyn.radioplus.pl/","kuriaol@olsztyn.opoka.org.pl","89 761 61 21 ","ks. mgr Marek Stabrawa ","09:00; 11:00","17:30","","","http://archwarmia.pl/parafie/parafie/bezledy-parafia-w-maksymiliana-kolbe/"
"Parafia Świętego Bartłomieja Apostoła","","Piotraszewo","BIENIEWO 57, 11-007 Lubomino ","olsztyn.radioplus.pl/","kuriaol@olsztyn.opoka.org.pl","89 616 07 82 ","ks. mgr Mariusz Makowski ","10:30","16:00","","","http://archwarmia.pl/parafie/parafie/piotraszewo-parafia-swietego-bartlomieja-apostola/"
"Parafia Świętej Marii Magdaleny","","Bieniewo","Bieniewo 57, 11-007 Lubomino ","olsztyn.radioplus.pl/","kuriaol@olsztyn.opoka.org.pl","89 616 07 82 ","ks. mgr Mariusz Makowski ","08:30; 12:00","18:00","","","http://archwarmia.pl/parafie/parafie/bieniewo-parafia-swietej-marii-magdaleny/"
"Parafia Niepokalanego Poczęcia Najświętszej Maryi Panny","","Biesal","Biesal, 11-036 Gietrzwałd ","olsztyn.radioplus.pl/","parafiabiesal@neostrada.pl","89 513 13 00 ","ks. dr Bogumił Wykowski ","08:00; 12:00; 18:30 - w soboty; 10:00","17:00","","","http://archwarmia.pl/parafie/parafie/biesal-parafia-niepokalanego-poczecia-najswietszej-maryi-panny/"
"Parafia Świętego Mikołaja i Świętego Antoniego","","Biesowo","Biesowo 29, 11-300 Biskupiec Reszelski ","olsztyn.radioplus.pl/","kuriaol@olsztyn.opoka.org.pl","89 715 39 44 ","ks. mgr Krzysztof Jeżowski ","08:00; 10:00; 11:30; 13:00","17:00; 18:00","","","http://archwarmia.pl/parafie/parafie/biesowo-parafia-swietego-mikolaja-i-swietego-antoniego/"
"Parafia Błogosławionej Karoliny Kózkówny","","Biskupiec Reszelski","ul. Warszawska 13, 11-300 Biskupiec Reszelski ","www.karolina-biskupiec.za.pl","kuriaol@olsztyn.opoka.org.pl","89 715 31 41 ","ks. kap. hon. mgr Krzysztof Brodzik ","07:30; 09:00; 10:30; 12:00; 18:00","08:00; 18:00","","","http://archwarmia.pl/parafie/parafie/biskupiec-reszelski-parafia-b-ogos-awionej-karoliny-kozkowny/"
"Parafia Świętego Jana Chrzciciela","","Biskupiec Reszelski","ul. Plac Kościelny 1, 11-300 Biskupiec Reszelski ","olsztyn.radioplus.pl/","badin@poczta.onet.pl","89 715 22 02 ","ks. kap. hon. mgr Wiesław Badura ","07:30; 09:00; 10:30; 12:00; 18:00; 13:00","07:00; 18:00","","","http://archwarmia.pl/parafie/parafie/biskupiec-reszelski-parafia-swietego-jana-chrzciciela/"
"Parafia Świętego Macieja Apostoła i Najdroższej Krwi Pana Jezusa","","Bisztynek","ul. Kościelna 24, 11-230 Bisztynek ","olsztyn.radioplus.pl/","kuriaol@olsztyn.opoka.org.pl","89 718 80 15 ","ks. mgr lic. Janusz Rybczyński ","09:00; 10:30; 12:00; 18:00; 14:00","07:00; 18:00","","","http://archwarmia.pl/parafie/parafie/bisztynek-parafia-swietego-macieja-apostola-i-najdrozszej-krwi-pana-jezusa/"
"Parafia Świętego Michała Archanioła","","Blanki","Blanki, 11-108 Żegoty ","olsztyn.radioplus.pl/","kuriaol@olsztyn.opoka.org.pl","89 766 08 24 ","ks. mgr lic. Adam Narbut ","11:00","","","","http://archwarmia.pl/parafie/parafie/blanki-parafia-swietego-michala-archaniola/"
"Parafia Nawiedzenia Najświętszej Maryi Panny","","Błudowo","Błudowo 10, 14-420 Młynary ","olsztyn.radioplus.pl/","kuriaol@olsztyn.opoka.org.pl","55 248 63 92 ","ks. Hubert Chodyna ","08:30; 11:30; 13:00; 10:00","17:00","","","http://archwarmia.pl/parafie/parafie/bludowo-parafia-nawiedzenia-najswietszej-maryi-panny/"
"Parafia Świętej Barbary","","Boguchwały","Boguchwały 40, 14-310 Miłakowo ","olsztyn.radioplus.pl/","parafia.rz-kat.boguchwaly@poczta.internetdsl.pl","89 758 00 23 ","ks. kap. hon. dr Zenon Ogórek ","09:00; 10:30; 12:00; 18:00","","","","http://archwarmia.pl/parafie/parafie/boguchwaly-parafia-swietej-barbary/"
"Parafia Świętej Katarzyny","","Braniewo","ul. Katedralna 3, 14-500 Braniewo ","olsztyn.radioplus.pl/","kuriaol@olsztyn.opoka.org.pl","55 243 24 29 ","ks. kap. hon. mgr Leszek Galica ","08:00; 09:30; 11:00; 12:15; 16:00 - poza lipcem i sierpniem; 18:00","08:00; 16:00 - poza lipcem i sierpniem; 18:00","","","http://archwarmia.pl/parafie/parafie/braniewo-parafia-swietej-katarzyny/"
"Parafia Świętego Krzyża","","Braniewo","ul. Świętokrzyska 10, 14-500 Braniewo ","olsztyn.radioplus.pl/","jankwiecien@yahoo.com","55 244 19 96 ","o. mgr Jan Kwiecień CSsR ","08:00; 11:00; 12:15; 17:00; 20:00; 09:30","07:00; 17:00 - listopad - kwiecień; 18:00 - maj - październik","","","http://archwarmia.pl/parafie/parafie/braniewo-parafia-swi-tego-krzyza/"
"Parafia Świętego Antoniego","","Braniewo","ul. Królewiecka 24, 14-500 Braniewo ","www.antonibraniewo.pl","kuriaol@olsztyn.opoka.org.pl","55 243 23 61 ","ks. kan. mgr Edward Woliński ","07:00; 08:30; 10:00; 11:15; 12:30; 18:00","06:30; 18:00","","","http://archwarmia.pl/parafie/parafie/braniewo-parafia-swietego-antoniego/"
"Parafia wojskowo-cywilna Świętego Wojciecha","","Braniewo","ul. Sucharskiego 29, 14-500 Braniewo ","olsztyn.radioplus.pl/","czeslawo7@wp.pl","55 241 56 96 ","ks. kmdr por. Czesław Olszak ","","","","","http://archwarmia.pl/parafie/parafie/braniewo-parafia-wojskowo-cywilna-swietego-wojciecha/"
"Parafia Świętej Katarzyny","","Brąswałd","Brąswałd 11, 11-001 Dywity ","olsztyn.radioplus.pl/","stacht@vp.pl","89 512 05 60 ","ks. kan. mgr lic. Stanisław Tkacz ","08:00; 09:30; 11:00","07:30; 18:00","","","http://archwarmia.pl/parafie/parafie/braswald-parafia-swietej-katarzyny/"
"Parafia Trójcy Przenajświętszej","","Brzydowo","Brzydowo 44, 14-100 Ostróda ","olsztyn.radioplus.pl/","kuriaol@olsztyn.opoka.org.pl","89 647 65 07 ","ks. mgr lic. Jarosław Miller ","08:30; 11:30; 10:00; 13:00","17:00 - w okresie zimowym; 18:00 - w okresie letnim","","","http://archwarmia.pl/parafie/parafie/brzydowo-parafia-trojcy-przenajswietszej/"
"Parafia Świętego Jakuba","","Butryny","Butryny 22, 11-032 Butryny ","olsztyn.radioplus.pl/","kuriaol@olsztyn.opoka.org.pl","89 513 38 28 ","ks. kan. mgr Jan Pietrzyk ","09:00; 10:30; 12:00","16:00; 16:00; 17:00; 18:00","","","http://archwarmia.pl/parafie/parafie/butryny-parafia-swietego-jakuba/"
"Parafia Świętej Katarzyny","","Cerkiewnik","Cerkiewnik 21, 11-040 Dobre Miasto ","olsztyn.radioplus.pl/","kuriaol@olsztyn.opoka.org.pl","89 616 80 95 ","ks. Mirosław Pękała ","08:00; 10:00; 12:00","17:00; 18:30","","","http://archwarmia.pl/parafie/parafie/cerkiewnik-parafia-wi-tej-katarzyny/"
"Parafia Przenajświętszej Trójcy","","Chruściel","Chruściel 31, 14-526 Płoskinia ","olsztyn.radioplus.pl/","raszygo@wp.pl","55 243 11 78 ","ks. mgr Radosław Gołębiewski ","08:30; 11:30","17:00","","","http://archwarmia.pl/parafie/parafie/chrusciel-parafia-przenajswietszej-trojcy/"
"Parafia Podwyższenia Krzyża Świętego","","Chwalęcin","Chwalęcin, 11-130 Orneta ","olsztyn.radioplus.pl/","kuriaol@olsztyn.opoka.org.pl","55 242 15 29 ","ks. mgr lic. Tomasz Kociński ","11:00; 12:00","","","","http://archwarmia.pl/parafie/parafie/chwalecin-parafia-podwyzszenia-krzyza-swietego/"
"Parafia Niepokalanego Poczęcia  Najświętszej Maryi Panny","","Dąbrówno","ul. Ostródzka 6, 14-120 Dąbrówno ","olsztyn.radioplus.pl/","kuriaol@olsztyn.opoka.org.pl","89 647 40 22 ","ks. prał. mgr lic. Marian Glinkowski ","08:00; 12:00; 14:00; 10:00","18:00","","","http://archwarmia.pl/parafie/parafie/d-browno-parafia-niepokalanego-pocz-cia-naj-wi-tszej-maryi-panny/"
"Parafia Najświętszego Serca Pana Jezusa","","Dębowiec","Dębowiec 70, 14-521 Lelkowo ","olsztyn.radioplus.pl/","piotr.piasecki1@poczta.onet.pl","55 244 81 37 ","ks. mgr Piotr Piasecki ","10:00; 08:00 - maj - sierpień; 13:00; 11:30","07:00; 17:00 - w maju, czerwcu i październiku","","","http://archwarmia.pl/parafie/parafie/debowiec-parafia-najswietszego-serca-pana-jezusa/"
"Parafia Świętego Jana Ewangelisty","","Długobór","Długobór, 14-526 Płoskinia ","olsztyn.radioplus.pl/","parafia.dlugobor@gmail.com","55 244 30 02 ","ks. mgr lic. Wiesław Grześkowiak SVD ","09:00; 10:00; 11:00; 12:00","17:00; 18:00","","","http://archwarmia.pl/parafie/parafie/dlugobor-parafia-swietego-jana-ewangelisty/"
"Parafia Świętej Faustyny","","Dobre Miasto","ul. Orła Białego 30, 11-040 Dobre Miasto ","olsztyn.radioplus.pl/","kuriaol@olsztyn.opoka.org.pl","","ks. mgr Leszek Morawski ","10:00; 13:00","18:00","","","http://archwarmia.pl/parafie/parafie/dobre-miasto-parafia-swietej-faustyny/"
"Parafia Najświętszego Zbawiciela i Wszystkich Świętych","","Dobre Miasto","ul. Orła Białego 30, 11-040 Dobre Miasto ","www.zbawiciel.eu","stanzin@interia.pl","89 616 18 04 - proboszcz, 89 616 12 90, 89 615 14 47, 89 616 36 35 – wikariusze ","ks. kap. hon. kan. mgr lic. Stanisław Zinkiewicz ","06:30; 08:30; 10:00; 11:30; 18:00; 13:30","06:00; 07:00; 18:00","","","http://archwarmia.pl/parafie/parafie/dobre-miasto-parafia-najswietszego-zbawiciela-i-wszystkich-swietych/"
"Parafia Błogosławionej Doroty z Mątów","","Dorotowo","Dorotowo 75, 11-034 Stawiguda ","olsztyn.radioplus.pl/","kuriaol@olsztyn.opoka.org.pl","89 513 62 77 ","ks. mgr Piotr Sroga ","09:30 - lipiec - sierpień o godz. 9.00; 11:00; 12:30 - lipiec - sierpień","18:00","","","http://archwarmia.pl/parafie/parafie/dorotowo-parafia-blogoslawionej-doroty-z-matow/"
"Parafia Matki Bożej Ostrobramskiej","","Drogosze","Drogosze 38, 11-410 Barciany ","olsztyn.radioplus.pl/","kuriaol@olsztyn.opoka.org.pl","89 753 25 54 ","ks. kan. Andrzej Drożdżal ","09:00; 11:30","07:30 - (lub 18:00) w okresie letnim, (lub 17:00) w okresie zimowym; 17:00 - (lub 7:30) w okresie zimowym; 18:00 - (lub 7:30) w okresie letnim","","","http://archwarmia.pl/parafie/parafie/drogosze-parafia-matki-bozej-ostrobramskiej/"
"Parafia Świętych Apostołów Piotra i Pawła","","Durąg","Durąg 12, 14-106 Szyldak ","olsztyn.radioplus.pl/","kuriaol@olsztyn.opoka.org.pl","89 647 65 54 ","ks. Zbigniew Błaszkowski ","09:00; 10:30; 12:00","10:30; 18:00","","","http://archwarmia.pl/parafie/parafie/durag-parafia-swietych-apostolow-piotra-i-pawla/"
"Parafia Świętych Apostołów Szymona i Judy Tadeusza","","Dywity","ul. Jana Pawła II 3, 11-001 Dywity ","www.parafiadywity.pl","kazdaw@op.pl","89 512 00 55 ","ks. kan. dr Kazimierz Dawcewicz ","08:00; 10:00; 11:30; 15:00","08:00; 17:00; 18:00","","","http://archwarmia.pl/parafie/parafie/dywity-parafia-swietych-apostolow-szymona-i-judy-tadeusza/"
"Parafia Przenajświętszej Trójcy","","Dźwierzuty","ul. Kościelna 7, 12-120 Dźwierzuty ","olsztyn.radioplus.pl/","kuriaol@olsztyn.opoka.org.pl","89 621 12 29 ","ks. mgr Jarosław Wiszowaty ","09:00; 10:45; 17:00; 13:00; 14:00","07:00; 17:00","","","http://archwarmia.pl/parafie/parafie/d-wierzuty-parafia-przenaj-wi-tszej-trojcy/"
"Parafia Świętego Marcina","","Ełdyty Wielkie","Ełdyty Wielkie, 11-135 Lubomino ","olsztyn.radioplus.pl/","kuriaol@olsztyn.opoka.org.pl","89 616 57 39 ","ks. mgr Wojciech Ciarkowski ","09:00; 11:00","17:00","","","http://archwarmia.pl/parafie/parafie/eldyty-wielkie-parafia-swietego-marcina/"
"Parafia Matki Bożej Królowej Polski","","Faryny","Faryny 56, 12-114 Rozogi ","olsztyn.radioplus.pl/","kuriaol@olsztyn.opoka.org.pl","89 722 67 78; kom. 662 665 164 ","","10:30; 11:30; 08:00; 09:00","16:00","","","http://archwarmia.pl/parafie/parafie/faryny-parafia-matki-bozej-krolowej-polski/"
"Parafia Świętego Antoniego","","Florczaki","Florczaki 40, 14-105 Łukta ","olsztyn.radioplus.pl/","kuriaol@olsztyn.opoka.org.pl","89 647 50 43 ","ks. mgr Mieczysław Jarząbek ","09:00; 11:00; 13:00","17:00; 16:00 - w okresie zimowym; 18:00 - w okresie letnim","","","http://archwarmia.pl/parafie/parafie/florczaki-parafia-swietego-antoniego/"
"Parafia Wniebowzięcia Najświętszej Maryi Panny","","Prosity","FRANKNOWO 12, 11-320 Jeziorany ","olsztyn.radioplus.pl/","kuriaol@olsztyn.opoka.org.pl","89 718 16 09 ","ks. mgr Stanisław Zarzycki ","10:00","","","","http://archwarmia.pl/parafie/parafie/prosity-parafia-wniebowziecia-najswietszej-maryi-panny/"
"Parafia Świętego Stanisława Biskupa Męczennika","","Franknowo","Franknowo 12, 11-320 Jeziorany ","olsztyn.radioplus.pl/","kuriaol@olsztyn.opoka.org.pl","89 718 16 09 ","ks. mgr Stanisław Zarzycki ","08:30; 12:00","17:00; 18:00","","","http://archwarmia.pl/parafie/parafie/franknowo-parafia-wi-tego-stanis-awa-biskupa-m-czennika/"
"Parafia Świętego Marcina","","Jesionowo","FRĄCZKI, 11-001 Dywity ","olsztyn.radioplus.pl/","kuriaol@olsztyn.opoka.org.pl","89 513 20 19 ","ks. kan. mgr Waldemar Cybulski ","10:00","18:00","","","http://archwarmia.pl/parafie/parafie/jesionowo-parafia-swietego-marcina/"
"Parafia Świętej Marii Magdaleny","","Frączki","Frączki 26, 11-001 Dywity ","olsztyn.radioplus.pl/","kuriaol@olsztyn.opoka.org.pl","89 513 20 19 ","ks. kan. mgr Waldemar Cybulski ","08:00; 12:00","17:00","","","http://archwarmia.pl/parafie/parafie/fraczki-parafia-swietej-marii-magdaleny/"
"Parafia Katedralna Wniebowzięcia Najświętszej Maryi Panny","","Frombork","ul. Katedralna 6, 14-530 Frombork ","www.katedra-frombork.pl","kancelaria@katedra-frombork.pl","55 243 72 10 ","ks. kap. hon. kan. dr Jacek Wojtkowski ","08:00; 11:00; 18:00; 09:30 - II i IV niedziela; 09:30 - I i III niedziela","18:00","","","http://archwarmia.pl/parafie/parafie/frombork-parafia-katedralna-wniebowziecia-najswietszej-maryi-panny/"
"Parafia Wniebowzięcia Najświętszej Maryi Panny","","Galiny",", 11-214 Galiny ","olsztyn.radioplus.pl/","kuriaol@olsztyn.opoka.org.pl","89 761 22 18 ","ks. kan. Stanisław Tokarz ","08:00; 11:00; 09:30","07:30 - poniedziałek, wtorek, środa; 18:00 - czwartek, piątek, sobota","","","http://archwarmia.pl/parafie/parafie/galiny-parafia-wniebowziecia-najswietszej-maryi-panny/"
"Parafia Męczenników Podlaskich Błogosławionego Wincentego i Towarzyszy","","Gałajny","Gałajny 19, 11-220 Górowo Iławeckie ","olsztyn.radioplus.pl/","kuriaol@olsztyn.opoka.org.pl","89 761 81 67 ","ks. mgr Wojciech Tyberski ","10:00; 13:00; 11:30","16:00","","","http://archwarmia.pl/parafie/parafie/galajny-parafia-meczennikow-podlaskich-blogoslawionego-wincentego-i-towarzyszy/"
"Parafia Matki Boskiej Królowej Polski","","Garbno","Garbno 4, 11-430 Korsze ","olsztyn.radioplus.pl/","kuriaol@olsztyn.opoka.org.pl","89 754 36 92 ","ks. mgr Paweł Biaduń ","08:30; 11:30; 10:00; 14:00","17:00 - w okresie zimowym; 18:00 - w okresie letnim","","","http://archwarmia.pl/parafie/parafie/garbno-parafia-matki-boskiej-krolowej-polski/"
"Parafia Świętego Michała Archanioła","","Turowo","Gardyny 31, 14-120 Dąbrówno ","olsztyn.radioplus.pl/","adamus1522@wp.pl","89 647 92 57 ","ks. mgr Michał Bekisz ","09:00; 09:00; 10:00; 10:30; 11:15; 12:00","16:00","","","http://archwarmia.pl/parafie/parafie/turowo-parafia-swietego-michala-archaniola/"
"Parafia Świętego Wojciecha","","Gawrzyjałki","Gawrzyjałki 9, 12-100 Szczytno ","olsztyn.radioplus.pl/","kuriaol@olsztyn.opoka.org.pl","89 672 63 58 ","ks. Krzysztof Bors ","07:00; 08:30; 10:30; 10:30; 12:00","16:00; 17:30","","","http://archwarmia.pl/parafie/parafie/gawrzyjalki-parafia-swietego-wojciecha/"
"Parafia Świętego Jana Chrzciciela","","Gierzwałd",", 14-107 Gierzwałd ","olsztyn.radioplus.pl/","kuriaol@olsztyn.opoka.org.pl","89 647 20 61 ","ks. kan. mgr Jan Zalewski ","08:00; 10:00; 12:00; 13:30","17:00","","","http://archwarmia.pl/parafie/parafie/gierzwald-parafia-swietego-jana-chrzciciela/"
"Parafia Narodzenia Najświętszej Maryi Panny","","Gietrzwałd","ul. Kościelna 4, 11-036 Gietrzwałd ","sanktuariummaryjne.pl","biuro@sanktuariummaryjne.pl","89 512 31 02 ","ks. mgr Marcin Chodorowski CRL ","07:00; 09:00; 11:00; 14:00 - od maja do października; 16:00; 18:00","07:00; 12:00; 18:00","","","http://archwarmia.pl/parafie/parafie/gietrzwa-d-parafia-narodzenia-najswietszej-maryi-panny/"
"Parafia Świętego Jana Chrzciciela","","Giławy","Giławy 18, 11-030 Purda ","olsztyn.radioplus.pl/","kuriaol@olsztyn.opoka.org.pl","89 513 37 92 ","","08:30; 10:30","16:30; 18:00","","","http://archwarmia.pl/parafie/parafie/gilawy-parafia-swietego-jana-chrzciciela/"
"Parafia Narodzenia Najświętszej Maryi Panny","","Glaznoty","Glaznoty, 14-100 Ostróda ","olsztyn.radioplus.pl/","kuriaol@olsztyn.opoka.org.pl","89 647 13 22 ","ks. kap. hon. Józef Spisak ","10:00","","","","http://archwarmia.pl/parafie/parafie/glaznoty-parafia-narodzenia-najswietszej-maryi-panny/"
"Parafia Najświętszego Zbawiciela","","Głotowo","Głotowo 38, 11-040 Dobre Miasto ","olsztyn.radioplus.pl/","kuriaol@olsztyn.opoka.org.pl","89 616 12 93 ","ks. kan. dr Marek Proszek ","08:30; 11:00","07:30 - (lub 18:00) w okresie letnim, (lub 17:00) w okresie zimowym; 17:00 - (lub 7:30) w okresie zimowym; 18:00 - (lub 7:30) w okresie letnim","","","http://archwarmia.pl/parafie/parafie/glotowo-parafia-najswietszego-zbawiciela/"
"Parafia Najświętszego Serca Pana Jezusa","","Górowo Iławeckie","ul. Kard. S. Wyszyńskiego 2, 11-220 Górowo Iławeckie ","olsztyn.radioplus.pl/","parafia-gorowo@wp.pl","89 761 11 09 ","ks. kan. mgr Józef Gawrylczyk ","08:00; 10:00; 12:00; 17:30","07:00; 17:30","","","http://archwarmia.pl/parafie/parafie/gorowo-ilaweckie-parafia-najswietszego-serca-pana-jezusa/"
"Parafia Błogosławionej Teresy Ledóchowskiej","","Grabowo","Grabowo 34, 11-700 Mrągowo ","olsztyn.radioplus.pl/","kuriaol@olsztyn.opoka.org.pl","89 742 78 93 ","ks. mgr Witold Moszczyński ","10:00; 08:30; 12:00","18:00; 17:00","","","http://archwarmia.pl/parafie/parafie/grabowo-parafia-blogoslawionej-teresy-ledochowskiej/"
"Parafia Matki Bożej Królowej Polski","","Grom","Grom 11, 12-130 Pasym ","olsztyn.radioplus.pl/","kuriaol@olsztyn.opoka.org.pl","89 621 23 43 ","ks. kap. hon. Adam Czarciński ","08:00; 10:15","16:00 - w okresie zimowy (od października do Wielkanocy); 18:00 - w okresie letnim (od Wielkanocy do października)","","","http://archwarmia.pl/parafie/parafie/grom-parafia-matki-bozej-krolowej-polski/"
"Parafia Błogosławionej Reginy Protmann","","Gronowo","Gronowo, 14-500 Braniewo ","olsztyn.radioplus.pl/","kuriaol@olsztyn.opoka.org.pl","55 243 48 25 ","ks. mgr lic. Piotr Babski ","10:00","15:00 - sobota; 15:00 - pierwszy piątek miesiąca","","","http://archwarmia.pl/parafie/parafie/gronowo-parafia-blogoslawionej-reginy-protmann/"
"Parafia Świętego Wawrzyńca","","Gryźliny","Gryźliny, 11-034 Stawiguda ","www.parafiagryzliny.hekko.pl/","kuriaol@olsztyn.opoka.org.pl","89 519 18 67 ","ks. mgr lic. Marek Gbiorczyk ","08:30; 12:00; 10:30","18:00","","","http://archwarmia.pl/parafie/parafie/gryzliny-parafia-swietego-wawrzynca/"
"Parafia Narodzenia Najświętszej Maryi Panny","","Paluzy","GRZĘDA, 11-230 Bisztynek ","olsztyn.radioplus.pl/","kuriaol@olsztyn.opoka.org.pl","89 718 84 41 ","ks. mgr Wojciech Puszcz ","12:00","17:00 - środy i I piątki miesiąca","","","http://archwarmia.pl/parafie/parafie/paluzy-parafia-narodzenia-najswietszej-maryi-panny/"
"Parafia Świętego Mikołaja","","Grzęda","Grzęda, 11-230 Bisztynek ","olsztyn.radioplus.pl/","kuriaol@olsztyn.opoka.org.pl","89 718 60 41 ","ks. mgr Wojciech Puszcz ","10:30","16:00","","","http://archwarmia.pl/parafie/parafie/grzeda-parafia-swietego-mikolaja/"
"Parafia Świętego Wawrzyńca","","Mingajny","HENRYKOWO, 11-130 Orneta ","olsztyn.radioplus.pl/","kuriaol@olsztyn.opoka.org.pl","55 242 15 43 ","ks. mgr Grzegorz Kurnatowski ","12:00","16:00","","","http://archwarmia.pl/parafie/parafie/mingajny-parafia-wi-tego-wawrzy-ca/"
"Parafia Świętej Katarzyny","","Henrykowo","Henrykowo, 11-130 Orneta ","olsztyn.radioplus.pl/","kuriaol@olsztyn.opoka.org.pl","55 242 15 43 ","ks. mgr Grzegorz Kurnatowski ","08:15; 10:15","","","","http://archwarmia.pl/parafie/parafie/henrykowo-parafia-swietej-katarzyny/"
"Parafia Świętego Jana Ewangelisty","","Ignalin","Ignalin 12, 11-100 Lidzbark Warmiński ","olsztyn.radioplus.pl/","kazimiro12@wp.pl","89 766 15 82 ","ks. Kazimierz Migacz ","08:30; 10:00; 12:00","17:00; 18:10","","","http://archwarmia.pl/parafie/parafie/ignalin-parafia-swietego-jana-ewangelisty/"
"Parafia Świętego Józefa i Matki Boskiej Częstochowskiej","","Jedwabno","ul. Odrodzenia 8, 12-122 Jedwabno ","www.jedwabno.caritas.pl","kuriaol@olsztyn.opoka.org.pl","89 621 30 48 ","ks. kap. hon. mgr Roman Lompa ","09:00; 11:00; 18:00","08:00; 18:00 - w okresie letnim","","","http://archwarmia.pl/parafie/parafie/jedwabno-parafia-swietego-jozefa-i-matki-boskiej-czestochowskiej/"
"Parafia Świętego Bartłomieja","","Jeziorany","ul. Plac Kościelny 2, 11-320 Jeziorany ","www.parafia-jeziorany.vot.pl/","sttan@onet.eu","89 718 10 18 ","ks. kan. mgr Stanisław Jasiński ","08:00; 09:30 - dojazdy; 11:00; 12:30; 18:00","07:00; 18:00","","","http://archwarmia.pl/parafie/parafie/jeziorany-parafia-swietego-bartlomieja/"
"Parafia Świętego Jana Chrzciciela","","Jonkowo","ul. Ks. Hanowskiego 30, 11-042 Jonkowo ","olsztyn.radioplus.pl/","kuriaol@olsztyn.opoka.org.pl","89 512 92 30 ","ks. mgr lic. Krzysztof Chrostek ","08:00; 11:00; 09:30","17:00 - w okresie zimowym lub według zgłoszeń; 18:00 - w okresie letnim; 15:45 - w soboty","","","http://archwarmia.pl/parafie/parafie/jonkowo-parafia-swietego-jana-chrzciciela/"
"Parafia Świętej Moniki","","Kajkowo","Kajkowo, ul. Henrykowska 4, 14-100 Ostróda ","www.kajkowo.pl","parafia@kajkowo.pl","89 646 01 51 ","ks. mgr lic. Andrzej Ciućkowski ","09:00; 11:30","18:00; 19:00","","","http://archwarmia.pl/parafie/parafie/kajkowo-parafia-wi-tej-moniki/"
"Parafia Świętego Brata Alberta Chmielowskiego","","Kamińsk","Kamińsk, 11-220 Górowo Iławeckie ","olsztyn.radioplus.pl/","kuriaol@olsztyn.opoka.org.pl","89 761 70 26 ","ks. kan. mgr Józef Tabaka ","08:45; 10:30","17:00","","","http://archwarmia.pl/parafie/parafie/kaminsk-parafia-swietego-brata-alberta-chmielowskiego/"
"Parafia Narodzenia Najświętszej Maryi Panny","","Kandyty","Kandyty 7, 11-220 Górowo Iławeckie ","olsztyn.radioplus.pl/","kuriaol@olsztyn.opoka.org.pl","89 761 90 38 ","ks. mgr Jerzy Olechnowicz ","09:30; 13:15; 11:30","09:30 - w okresie letnim codziennie oraz w roku szkolnym w soboty; 18:00 - w roku szkolnym: poniedziałek, wtorek, środa, czwartek i piątek; 16:00 - w roku szkolnym: wtorek i czwartek","","","http://archwarmia.pl/parafie/parafie/kandyty-parafia-narodzenia-najswietszej-maryi-panny/"
"Parafia Podwyższenia Krzyża Świętego","","Kanigowo","Kanigowo, 13-100 Nidzica ","olsztyn.radioplus.pl/","kuriaol@olsztyn.opoka.org.pl","89 625 45 60 ","ks. mgr Janusz Samsel ","08:00; 12:00; 10:00","17:00 - poniedziałek, środa, piątek; 17:00 - wtorek, czwartek, sobota","","","http://archwarmia.pl/parafie/parafie/kanigowo-parafia-podwyzszenia-krzyza-swietego/"
"Parafia Świętego Stanisława Kostki","","Karolewo","Karolewo 21, 11-400 Kętrzyn ","olsztyn.radioplus.pl/","kuriaol@olsztyn.opoka.org.pl","89 752 46 27 ","ks. kan. dr Kazimierz Żuchowski ","08:30; 12:00; 10:30; 14:00 - za wyjątkiem wakacji","17:00; 18:00","","","http://archwarmia.pl/parafie/parafie/karolewo-parafia-swietego-stanislawa-kostki/"
"Parafia Świętej Katarzyny","","Kętrzyn","ul. Powstańców Warszawy 5, 11-400 Kętrzyn ","www.swk.olsztyn.opoka.org.pl","swk@olsztyn.opoka.org.pl","89 753 19 70, 89 753 19 60 ","ks. kap. hon. kan. dr Zygmunt Klimczuk ","07:00; 08:30; 10:00; 11:30; 13:00; 18:00","06:30; 07:00; 18:00","","","http://archwarmia.pl/parafie/parafie/ketrzyn-parafia-swietej-katarzyny/"
"Parafia Świętego Jerzego","","Kętrzyn","ul. Zamkowa 5, 11-400 Kętrzyn ","www.bazylika-ketrzyn.olsztyn.opoka.org.pl","bazylika-ketrzyn@olsztyn.opoka.org.pl","89 752 45 35, 89 752 55 80 ","ks. kan. mgr Stanisław Majewski ","06:30; 08:30; 10:00; 11:30; 13:00; 18:00; 08:30","06:30; 07:00; 18:00","","","http://archwarmia.pl/parafie/parafie/ketrzyn-parafia-swietego-jerzego/"
"Parafia Świętego Jacka","","Kętrzyn","ul. Poznańska 23 A, 11-400 Kętrzyn ","olsztyn.radioplus.pl/","kuriaol@olsztyn.opoka.org.pl","89 751 22 07 ","ks. kan. mgr Andrzej Orłowski ","08:00; 11:00; 12:15; 17:00; 09:30","07:00; 17:00","07:00; 11:00; 17:00","","http://archwarmia.pl/parafie/parafie/ketrzyn-parafia-swietego-jacka/"
"Parafia Świętego Brata Alberta","","Kętrzyn","5, 11-400 Kętrzyn ","olsztyn.radioplus.pl/","albinstan@neostrada.pl","89 752 86 64 ","ks. kap. hon. mgr lic. Albin Stankiewicz ","08:00; 10:30; 12:00; 18:00; 20:00 - w lipcu i sierpniu; 09:30","08:00; 18:00 - od października do czerwca","","","http://archwarmia.pl/parafie/parafie/ketrzyn-parafia-swietego-brata-alberta/"
"Parafia Świętej Rozalii","","Kieźliny","Kieźliny 26, 10-371 Olsztyn ","www. kiezliny.republika.pl","passiopg@interia.pl","89 513 50 45 ",", ","09:00; 11:00; 12:30 - od października do maja; 18:00 - od września do maja; 19:00 - od czerwca do sierpnia","18:00; 19:00 - od czerwca do sierpnia","","","http://archwarmia.pl/parafie/parafie/kie-liny-parafia-wi-tej-rozalii/"
"Parafia Matki Boskiej Zwycięskiej","","Łabędnik","Kinkajmy 17, 11-200 Bartoszyce ","www.parafialabednik.mywebzz.com","parafia-labednik@wp.pl","660 898 347 ","ks. mgr Dariusz Sobieraj ","11:00; 09:00","10:00 - sobota; 17:30 - wtorek, czwartek; 17:30 - poniedziałek, środa, piątek","","","http://archwarmia.pl/parafie/parafie/labednik-parafia-matki-boskiej-zwycieskiej/"
"Parafia Świętych Apostołów Piotra i Pawła","","Kiwity","Kiwity 38, 11-106 Kiwity ","olsztyn.radioplus.pl/","kuriaol@olsztyn.opoka.org.pl","89 766 09 10 ","ks. dr Józef Leonowicz ","09:00; 11:00","10:00 - sobota; 16:00 - od 1 października do 31 marca; 17:00 - od 1 kwietnia do 30 września","","","http://archwarmia.pl/parafie/parafie/kiwity-parafia-swietych-apostolow-piotra-i-pawla/"
"Parafia Znalezienia Krzyża Świętego","","Klebark Wielki","Klebark Wielki 32, 10-687 Olsztyn ","www.sanktuarium.info","zpkm.warmia@interia.pl","89 512 43 10 / 89 512 40 31 ","ks. kap. hon. mgr lic. Henryk Błaszczyk ","09:00; 11:00; 18:00 - I niedziela miesiąca; 13:30","17:00 - w okresie zimowym; 18:00","","","http://archwarmia.pl/parafie/parafie/klebark-wielki-parafia-znalezienia-krzy-a-wi-tego/"
"Parafia Świętego Walentego","","Klewki","Klewki 20, 10-687 Olsztyn ","olsztyn.radioplus.pl/","kuriaol@olsztyn.opoka.org.pl","89 512 44 90 ","ks. mgr lic. Mariusz Rybicki ","08:30; 09:45; 11:00; 14:00; 18:00","17:00; 19:00","","","http://archwarmia.pl/parafie/parafie/klewki-parafia-swietego-walentego/"
"Parafia Znalezienia Krzyża Świętego","","Klon","Klon 24, 12-114 Rozogi ","olsztyn.radioplus.pl/","kuriaol@olsztyn.opoka.org.pl","89 722 63 29 ","ks. dr Krzysztof Salamon ","09:00; 11:45","07:00; 17:00","","","http://archwarmia.pl/parafie/parafie/klon-parafia-znalezienia-krzyza-swietego/"
"Parafia Narodzenia Najświętszej Maryi Panny","","Jarandowo","KŁĘBOWO 12, 11-100 Lidzbark Warmiński ","olsztyn.radioplus.pl/","kuriaol@olsztyn.opoka.org.pl","89 766 23 24 ","ks. mgr Roman Cichocki ","09:00","","","","http://archwarmia.pl/parafie/parafie/jarandowo-parafia-narodzenia-najswietszej-maryi-panny/"
"Parafia Świętej Małgorzaty","","Kłębowo","Kłębowo 12, 11-100 Lidzbark Warmiński ","olsztyn.radioplus.pl/","kuriaol@olsztyn.opoka.org.pl","89 766 23 24 ","ks. mgr Roman Cichocki ","10:30; 12:00; 13:00","17:00","","","http://archwarmia.pl/parafie/parafie/klebowo-parafia-swietej-malgorzaty/"
"Parafia Świętego Józefa","","Kobułty","Kobułty 41, 11-300 Biskupiec Reszelski ","www.parafiakobulty.pl","kuriaol@olsztyn.opoka.org.pl","89 716 14 92 ","ks. kap. hon. mgr Andrzej Antonowicz ","08:00; 11:30; 18:00; 10:00","18:00 - od 1. kwietnia do 31. października; 19:00 - od 1. listopada do 31. marca","","","http://archwarmia.pl/parafie/parafie/kobulty-parafia-swietego-jozefa/"
"Parafia Świętego Wawrzyńca","","Kochanówka","Kochanówka 21, 11-100 Lidzbark Warmiński ","olsztyn.radioplus.pl/","kuriaol@olsztyn.opoka.org.pl","89 766 17 25 ","ks. kan. Janusz Oleszkiewicz ","10:00","18:00","","","http://archwarmia.pl/parafie/parafie/kochanowka-parafia-swietego-wawrzynca/"
"Parafia Świętej Elżbiety","","Kraszewo","KOCHANÓWKA 21, 11-100 Lidzbark Warmiński ","olsztyn.radioplus.pl/","kuriaol@olsztyn.opoka.org.pl","89 766 17 25 ","ks. kan. Janusz Oleszkiewicz ","11:30","16:00","","","http://archwarmia.pl/parafie/parafie/kraszewo-parafia-swietej-elzbiety/"
"Parafia Trzech Króli","","Kolno","Kolno 41, 11-311 Kolno k. Reszla ","olsztyn.radioplus.pl/","kuriaol@olsztyn.opoka.org.pl","89 716 32 21 ","ks. mgr Jerzy Waresiak ","09:30; 11:00; 08:00","08:00 - (lub 17:00) w okresie zimowym; 17:00 - (lub 8:00) w okresie zimowym; 18:00 - w okresie letnim","","","http://archwarmia.pl/parafie/parafie/kolno-parafia-trzech-kroli/"
"Parafia Podwyższenia Krzyża Świętego i Matki Boskiej Miłosierdzia","","Korsze","ul. Słowackiego 6, 11-430 Korsze ","www.parafia.korsze.com","slawekskorupski3@wp.pl","89 754 00 56, 89 754 04 20 ","ks. mgr Tomasz Stempkowski ","07:00; 09:00; 11:00; 13:00; 18:00; 13:00; 16:00 - w soboty","07:00; 17:30 - w okresie zimowym; 18:00 - w okresie letnim","","","http://archwarmia.pl/parafie/parafie/korsze-parafia-podwyzszenia-krzyza-swietego-i-matki-boskiej-milosierdzia/"
"Parafia Świętych Apostołów Piotra i Pawła","","Kozłowo","27, 13-124 Kozłowo ","olsztyn.radioplus.pl/","kuriaol@olsztyn.opoka.org.pl","89 626 70 43 ","ks. mgr lic. Andrzej Chędoszko ","09:00; 12:30","17:00","","","http://archwarmia.pl/parafie/parafie/kozlowo-parafia-swietych-apostolow-piotra-i-pawla/"
"Parafia Świętego Krzyża","","Krekole","Krekole 9, 11-106 Krekole ","olsztyn.radioplus.pl/","kuriaol@olsztyn.opoka.org.pl","89 766 22 60 ","ks. mgr Adam Steć ","09:00; 10:30; 12:30","16:00; 17:00","","","http://archwarmia.pl/parafie/parafie/krekole-parafia-swietego-krzyza/"
"Parafia Nawiedzenia Najświętszej Maryi Panny i Świętego Józefa","","Krosno","Krosno Krosno, 11-130 Orneta ","olsztyn.radioplus.pl/","par.krosno@neostrada.pl","55 242 28 84 ","ks. kan. mgr Andrzej Krużycki ","10:00 - w dni odpustów; 12:00; 13:00 - w dni odpustów","17:00","","","http://archwarmia.pl/parafie/parafie/krosno-parafia-nawiedzenia-najswietszej-maryi-panny-i-swietego-jozefa/"
"Parafia Świętego Mikołaja","","Lamkowo","Lamkowo 42, 11-010 Barczewo ","olsztyn.radioplus.pl/","kuriaol@olsztyn.opoka.org.pl","89 514 16 76 ","ks. dr Piotr Wiśniewski ","09:00; 11:00; 13:15","16:00; 18:00","","","http://archwarmia.pl/parafie/parafie/lamkowo-parafia-swietego-mikolaja/"
"Parafia Świętego Jana Chrzciciela","","Lechowo","Lechowo, 14-520 Pieniężno ","olsztyn.radioplus.pl/","kuriaol@olsztyn.opoka.org.pl","55 243 60 03 ","ks. mgr Paweł Władyka ","10:00","","","","http://archwarmia.pl/parafie/parafie/lechowo-parafia-swietego-jana-chrzciciela/"
"Parafia Świętej Marii Magdaleny","","Leginy","Leginy 63, 11-440 Reszel ","olsztyn.radioplus.pl/","kuriaol@olsztyn.opoka.org.pl","89 755 07 50 ","ks. kan. Sebastian Haras ","11:00; 08:30; 15:00 - Msza św. w sobotę (formularz niedzielny) - w okresie zimowym; 17:00 - Msza św. w sobotę (formularz niedzielny) - w okresie letnim; 09:30","17:00","","","http://archwarmia.pl/parafie/parafie/leginy-parafia-swietej-marii-magdaleny/"
"Parafia Niepokalanego Poczęcia Najświętszej Maryi Panny","","Lesiny Wielkie","Lesiny Wielkie 28, 12-160 Wielbark ","olsztyn.radioplus.pl/","kuriaol@olsztyn.opoka.org.pl","89 521 85 09 ","ks. mgr Janusz Piaskowski ","10:00; 11:30","18:00; 17:00","","","http://archwarmia.pl/parafie/parafie/lesiny-wielkie-parafia-niepokalanego-poczecia-najswietszej-maryi-panny/"
"Parafia Świętych Apostołów Piotra i Pawła","","Lidzbark Warmiński","ul. Plac Kościelny 1, 11-100 Lidzbark Warmiński ","www.parafialidzbark.pl","roman.chudzik@wp.pl","89 767 00 26 (kancelaria), 89 767 23 15 (proboszcz) ","ks. kan. mgr Roman Chudzik ","07:30; 09:00; 10:30; 12:00; 18:00; 14:00 - w II i IV niedzielę miesiąca; 16:00","07:00; 08:00; 18:00","","","http://archwarmia.pl/parafie/parafie/lidzbark-warminski-parafia-swietych-apostolow-piotra-i-pawla/"
"Parafia Świętego Andrzeja Boboli","","Lidzbark Warmiński","ul. Polna 34 A, 11-100 Lidzbark Warmiński ","parafia-lidzbark.pl","lidzbarkparafia@gmail.com","695 280 508 ","ks. dr hab. Piotr Duksa, prof. UWM ","08:00; 10:00; 11:30; 17:00","17:00; 18:00","10:00; 17:00; 18:00","","http://archwarmia.pl/parafie/parafie/lidzbark-warminski-parafia-swietego-andrzeja-boboli/"
"Parafia Podwyższenia Krzyża Świętego","","Lidzbark Warmiński","ul. Wiejska 113, 11-100 Lidzbark Warmiński ","olsztyn.radioplus.pl/","kuriaol@olsztyn.opoka.org.pl","89 767 38 98 ","ks. kap. hon. kan. mgr Jerzy Rożentalski ","09:00; 11:00; 18:00 - w soboty; 13:00","18:00","","","http://archwarmia.pl/parafie/parafie/lidzbark-warminski-parafia-podwyzszenia-krzyza-swietego/"
"Parafia Świętego Walentego","","Lipowiec","Lipowiec 13, 12-100 Szczytno ","www.lipowiec.archidiecezja.warmia.pl","ptrjgk@popczta.onet.pl","89 622 00 03 ","ks. mgr Piotr Jagiełka ","08:00; 10:00; 12:00","08:00 - we wtorek i czwartek; 17:00 - w okresie zimowym (poniedziałek, środa, piątek i sobota); 19:00 - w okresie letnim (poniedziałek, środa, piątek i sobota)","","","http://archwarmia.pl/parafie/parafie/lipowiec-parafia-swietego-walentego/"
"Parafia Najświętszej Maryi Panny Królowej Polski","","Lipowina","Lipowina 25 A, 14-500 Braniewo ","olsztyn.radioplus.pl/","jerzy.szlomkowski@neostrada.pl","55 243 14 86 ","ks. kap. hon. Jerzy Szlomkowski ","09:00; 11:00; 16:00","17:00 - od października do kwietnia; 18:00 - od maja do września","","","http://archwarmia.pl/parafie/parafie/lipowina-parafia-najswietszej-maryi-panny-krolowej-polski/"
"Parafia Świętego Benedykta","","Lubajny","Lubajny 46, 14-100 Ostróda ","olsztyn.radioplus.pl/","kuriaol@olsztyn.opoka.org.pl","89 641 01 40 ","ks. mgr lic. Wiesław Kaniuga ","09:00; 11:00","18:00; 20:00 - 13. dnia miesiąca od maja do października nabożeństwa fatimskie","","","http://archwarmia.pl/parafie/parafie/lubajny-parafia-swietego-benedykta/"
"Parafia Świętej Katarzyny","","Lubomino","ul. Szymanowskiego 2/1, 11-135 Lubomino ","olsztyn.radioplus.pl/","kuriaol@olsztyn.opoka.org.pl","89 616 07 10 ","ks. kap. hon. mgr Stanisław Borowiecki ","09:00; 13:00","18:00","","","http://archwarmia.pl/parafie/parafie/lubomino-parafia-swietej-katarzyny/"
"Parafia Świętej Marii Magdaleny","","Lutry","Lutry 37, 11-311 Kolno ","olsztyn.radioplus.pl/","kuriaol@olsztyn.opoka.org.pl","89 716 21 66 ","ks. kap. hon. mgr lic. Lech Kozikowski ","09:00; 11:00; 12:30","17:00","","","http://archwarmia.pl/parafie/parafie/lutry-parafia-swietej-marii-magdaleny/"
"Parafia Matki Bożej Szkaplerznej","","Lwowiec","Lwowiec 16, 11-210 Sępopol ","olsztyn.radioplus.pl/","kuriaol@olsztyn.opoka.org.pl","89 761 49 40 ","ks. mgr Andrzej Makarewicz SDB ","09:00; 10:30","18:00","","","http://archwarmia.pl/parafie/parafie/lwowiec-parafia-matki-bozej-szkaplerznej/"
"Parafia Świętych Apostołów Piotra i Pawła","","Lipica","LWOWIEC 16, 11-210 Sępopol ","olsztyn.radioplus.pl/","kuriaol@olsztyn.opoka.org.pl","89 761 49 40 ","ks. mgr Andrzej Makarewicz SDB ","12:00; 13:00; 13:15","","","","http://archwarmia.pl/parafie/parafie/lipica-parafia-swietych-apostolow-piotra-i-pawla/"
"Parafia Świętego Mikołaja","","Łajsy","Łajsy, 14-520 Pieniężno ","olsztyn.radioplus.pl/","kuriaol@olsztyn.opoka.org.pl","55 243 60 48 ","ks. mgr lic. Franciszek Martyna SVD ","09:00","19:00","","","http://archwarmia.pl/parafie/parafie/lajsy-parafia-swietego-mikolaja/"
"Parafia Świętego Jana Chrzciciela","","Łankiejmy","Łankiejmy, 11-430 Korsze ","olsztyn.radioplus.pl/","kuriaol@olsztyn.opoka.org.pl","89 754 33 62 ","ks. mgr Wiesław Pątkiewicz ","08:30; 09:30; 11:00","08:00","","","http://archwarmia.pl/parafie/parafie/lankiejmy-parafia-swietego-jana-chrzciciela/"
"Parafia Świętego Maksymiliana Marii Kolbego","","Łęgajny","Łęgajny, ul. Olsztyńska 23, 11-010 Barczewo ","olsztyn.radioplus.pl/","randrukiewicz@warmia.oaza.pl","89 514 42 25 ","ks. prał. mgr lic. Ryszard Andrukiewicz ","08:00; 10:00; 17:00 - październik - marzec; 18:00 - kwiecień - wrzesień","17:00 - październik - marzec; 18:00 - kwiecień - wrzesień","","","http://archwarmia.pl/parafie/parafie/legajny-parafia-swietego-maksymiliana-marii-kolbego/"
"Parafia Matki Boskiej Częstochowskiej","","Łukta","ul. Kościelna 4, 14-105 Łukta ","olsztyn.radioplus.pl/","kuriaol@olsztyn.opoka.org.pl","89 647 50 33 ","ks. mgr Jerzy Malewicki ","09:00; 11:00; 13:00","07:30 - od poniedziałku do środy; 18:00 - od czwartku do soboty","","","http://archwarmia.pl/parafie/parafie/lukta-parafia-matki-boskiej-czestochowskiej/"
"Parafia Niepokalanego Serca Maryi Panny","","Łyna","Łyna 31, 13-100 Nidzica ","olsztyn.radioplus.pl/","kuriaol@olsztyn.opoka.org.pl","89 625 20 96 ","ks. mgr Krzysztof Kuleszo ","08:30; 13:00; 10:00; 11:30","17:00 - w okresie zimowym; 18:00 - w okresie letnim","","","http://archwarmia.pl/parafie/parafie/lyna-parafia-niepokalanego-serca-maryi-panny/"
"Parafia Wniebowzięcia Najświętszej Maryi Panny","","Marwałd","Marwałd, 14-120 Dąbrówno ","olsztyn.radioplus.pl/","kuriaol@olsztyn.opoka.org.pl","89 647 43 12 ","","08:30; 12:30; 11:00","18:00","","","http://archwarmia.pl/parafie/parafie/marwald-parafia-wniebowziecia-najswietszej-maryi-panny/"
"Parafia Podwyższenia Krzyża Świętego","","Miłakowo","ul. Kopernika 3, 14-310 Miłakowo ","www.miłakowo.parafia.info.pl","parafiaskrzyzamilakowo@poczta.neostrada.pl","89 758 59 26 ","o. mgr Kalikst Piotr Salak OFM ","07:00; 09:00; 10:30; 12:00; 18:00","07:00; 16:30 - w okresie zimowym; 18:00 - w okresie letnim","","","http://archwarmia.pl/parafie/parafie/milakowo-parafia-podwyzszenia-krzyza-swietego/"
"Parafia Świętej Anny","","Mołtajny","Mołtajny 28 A, 11-410 Barciany ","olsztyn.radioplus.pl/","kuriaol@olsztyn.opoka.org.pl","89 753 20 81 ","ks. mgr Jacek Gonder ","09:00; 12:00; 10:30","17:00 - w okresie zimowym; 18:00 - w okresie letnim","","","http://archwarmia.pl/parafie/parafie/moltajny-parafia-swietej-anny/"
"Parafia Błogosławionego Honorata Koźmińskiego","","Mrągowo","ul. Olsztyńska 16, 11-700 Mrągowo ","olsztyn.radioplus.pl/","honorat@neostrada.pl","89 741 30 09 ","ks. kap. hon. mgr Norbert Bujanowski ","08:00; 09:30; 11:00; 12:30; 13:00 - Karwie; 14:00 - Bagiennice Małe; 15:00 - Bagiennice Nowe; 18:00","07:00; 18:00","","","http://archwarmia.pl/parafie/parafie/mragowo-parafia-blogoslawionego-honorata-kozminskiego/"
"Parafia Matki Bożej Saletyńskiej","","Mrągowo","ul. Słoneczna 1 B, 11-700 Mrągowo ","www.mragowo.saletyni.pl","mragowo.saletyni@gmail.com","89 741 40 41 ","ks. mgr lic. Jan Kijek MS ","07:00; 09:00; 10:30; 12:00; 18:00; 10:30; 09:00","07:00; 18:00","","","http://archwarmia.pl/parafie/parafie/mragowo-parafia-matki-bozej-saletynskiej/"
"Parafia Świętego Wojciecha","","Mrągowo","ul. Królewiecka 32, 11-700 Mrągowo ","olsztyn.radioplus.pl/","sw.wojciech.mragowo@poczta.onet.pl","89 741 21 66 ","ks. kap. hon. mgr lic. Wiesław Świdziński ","07:00; 08:30; 10:30; 12:00; 16:00; 18:00; 09:00","06:30; 07:00; 18:00","","","http://archwarmia.pl/parafie/parafie/mragowo-parafia-swietego-wojciecha/"
"Parafia Świętego Rafała Kalinowskiego","","Mrągowo","ul. Osiedle Grunwaldzkie 19, 11-700 Mrągowo ","www.parafia-mragowo.pl","robkan@wp.pl","89 742 53 44 ","ks. kan. mgr Robert Kaniowski ","08:00; 10:00; 11:30; 18:00","17:00; 18:00","","","http://archwarmia.pl/parafie/parafie/mragowo-parafia-swietego-rafala-kalinowskiego/"
"Parafia Świętego Ojca Pio","","Mrągowo","ul. Osiedle Mazurskie 42, 11-700 Mrągowo ","olsztyn.radioplus.pl/","kuriaol@olsztyn.opoka.org.pl","89 750 56 77 ","ks. mgr Wojciech Serafin ","08:30; 10:00; 11:30; 18:00","07:00 - w soboty; 18:00","","","http://archwarmia.pl/parafie/parafie/mragowo-parafia-swietego-ojca-pio/"
"Parafia Świętego Wawrzyńca","","Muszaki","Muszaki 56, 13-113 Janowo ","olsztyn.radioplus.pl/","kuriaol@olsztyn.opoka.org.pl","89 626 50 36 ","ks. kan. mgr Wiesław Lipka ","09:30; 11:00; 12:45; 14:00","17:00","","","http://archwarmia.pl/parafie/parafie/muszaki-parafia-swietego-wawrzynca/"
"Parafia Świętego Józefa","","Nakomiady","Nakomiady 2, 11-400 Kętrzyn ","olsztyn.radioplus.pl/","kuriaol@olsztyn.opoka.org.pl","89 752 11 87 ","ks. kan. mgr Andrzej Józwik ","09:00; 11:30","17:00 - w okresie zimowym (od 1 X do Niedzieli Palmowej); 18:00 - w okresie letnim","","","http://archwarmia.pl/parafie/parafie/nakomiady-parafia-swietego-jozefa/"
"Parafia Świętego Antoniego Padewskiego","","Napierki","Napierki 43, 12-111 Janowiec Kościelny ","olsztyn.radioplus.pl/","kuriaol@olsztyn.opoka.org.pl","89 625 97 07 ","ks. mgr Marek Kotapka ","11:30; 10:00; 08:30","17:00","","","http://archwarmia.pl/parafie/parafie/napierki-parafia-swietego-antoniego-padewskiego/"
"Parafia Matki Bożej Królowej Polski","","Napiwoda","Napiwoda 90, 13-100 Nidzica ","olsztyn.radioplus.pl/","kuriaol@olsztyn.opoka.org.pl","89 625 91 01 ","ks. kap. hon. kan. mgr Andrzej Bawirsz ","08:30; 13:00; 11:30; 10:00","18:00","","","http://archwarmia.pl/parafie/parafie/napiwoda-parafia-matki-bozej-krolowej-polski/"
"Parafia Świętego Józefa","","Nawiady","Nawiady 36 A, 11-710 Piecki ","olsztyn.radioplus.pl/","kuriaol@olsztyn.opoka.org.pl","89 742 00 30 ","ks. mgr Leonard Klimek ","09:00; 10:45; 13:00","17:00","","","http://archwarmia.pl/parafie/parafie/nawiady-parafia-swietego-jozefa/"
"Parafia Błogosławionej Bolesławy Lament","","Nidzica","ul. Żwirowa 4, 13-100 Nidzica ","www.parafianidzica.pl","parafianidzica@wp.pl","89 625 26 05 ","ks. kan. mgr Adam Turek ","08:00; 10:00; 12:00; 18:30","18:00","","","http://archwarmia.pl/parafie/parafie/nidzica-parafia-blogoslawionej-boleslawy-lament/"
"Parafia Miłosierdzia Bożego","","Nidzica","ul. Robotnicza 12, 13-100 Nidzica ","milosierdzienidzica.pl","kuriaol@olsztyn.opoka.org.pl","89 625 36 06 ","ks. kan. mgr lic. Andrzej Midura ","07:00; 09:00; 11:00; 17:00; 13:00","07:00 - we wtorki; 17:00 - w pozostałe dni tygodnia","","","http://archwarmia.pl/parafie/parafie/nidzica-parafia-milosierdzia-bozego/"
"Parafia Niepokalanego Poczęcia Najświętszej Maryi Panny i Świętego Wojciecha","","Nidzica","ul. Młynarska 12, 13-100 Nidzica ","www.swietywojciech.nidzica.pl","kuriaol@olsztyn.opoka.org.pl","89 625 29 12, 89 625 70 24 ","ks. kap. hon. Tadeusz Lewdarowicz ","07:00; 08:30; 10:00; 11:30; 13:00; 18:00; 15:00; 16:30","06:30; 07:00; 18:00","","","http://archwarmia.pl/parafie/parafie/nidzica-parafia-niepokalanego-poczecia-najswietszej-maryi-panny-i-swietego-wojciecha/"
"Parafia Świętego Jana Ewangelisty","","Nowe Kawkowo","Nowe Kawkowo 29, 11-042 Jonkowo ","www.parafia.kawkowo.jonkowo.pl ","nkparafia@jonkowo.pl","89 512 85 45 ","ks. mgr Krzysztof Lauter ","08:00; 11:00; 09:30","18:00 - kwiecień - wrzesień; 18:00 - październik - marzec","","","http://archwarmia.pl/parafie/parafie/nowe-kawkowo-parafia-swietego-jana-ewangelisty/"
"Parafia Świętego Wojciecha","","Nowy Dwór","Nowy Dwór, ul. Niepodległości 11, 12-100 Szczytno ","olsztyn.radioplus.pl/","edimol@wp.pl","89 624 13 26, 89 624 26 08 ","ks. kan. Edward Molitorys ","13:00; 14:00","14:00; 17:00","","","http://archwarmia.pl/parafie/parafie/nowy-dwor-parafia-swietego-wojciecha/"
"Parafia Bogurodzicy Dziewicy Matki Kościoła","","Olsztyn","ul. Podgórna 1, 10-699 Olsztyn ","olsztyn.radioplus.pl/","pcserm@poczta.onet.pl","89 543 74 72 ; 89 541 97 11 ","ks. kan. mgr lic. Zdzisław Milewicz ","07:00; 08:30; 10:00; 11:30; 13:00; 18:00","07:00; 17:00; 18:00","07:00; 10:00; 17:00; 18:00","","http://archwarmia.pl/parafie/parafie/olsztyn-parafia-bogurodzicy-dziewicy-matki-ko-cio-a/"
"Parafia Błogosławionej Franciszki Siedliskiej","","Olsztyn","ul. bp T. Wilczyńskiego 7, 10-686 Olsztyn ","olsztyn.radioplus.pl/","siedliskaolsztyn@wp.pl","89 541 00 86 ","ks. kan. mgr lic. Romuald Zapadka ","07:00; 08:30; 10:00; 11:30; 13:00; 18:00; 19:00 - w lipcu i sierpniu","07:00; 18:00","","","http://archwarmia.pl/parafie/parafie/olsztyn-parafia-b-ogos-awionej-franciszki-siedliskiej/"
"Parafia Chrystusa Króla","","Olsztyn","ul. Wyspiańskiego 4, 10-287 Olsztyn ","www.olsztyn.franciszkanie.net","olsztyn@franciszkanie.net","89 526 64 11 ","o. Otton Piotr Ratajczak OFM ","06:30; 08:00; 09:30; 11:00; 12:30; 18:00","06:30; 08:30; 18:00","","","http://archwarmia.pl/parafie/parafie/olsztyn-parafia-chrystusa-krola/"
"Parafia Chrystusa Odkupiciela Człowieka","","Olsztyn","11, 10-457 Olsztyn ","www.redemptor.olsztyn.pl","kuriaol@olsztyn.opoka.org.pl","89 534 19 72 ","ks. prał. mgr Andrzej Pluta ","08:00; 10:30 - w czasie roku szkolnego; 16:00; 20:00 - od października do kwietnia; 08:30; 10:00; 11:30; 13:00; 14:00; 18:30; 21:00 - od maja do września","06:30; 07:00; 10:30; 18:30","","","http://archwarmia.pl/parafie/parafie/olsztyn-parafia-chrystusa-odkupiciela-czlowieka/"
"Parafia Matki Boskiej Fatimskiej","","Olsztyn","ul. Bajkowa 15, 10-691 Olsztyn ","www.sanktuariumfatimskie.pl","sanktuariumfatimskie@interia.eu","89 541 72 32 ","ks. kap. hon. mgr Marian Matuszek ","07:00; 08:30; 10:00 - dla dzieci; 11:30; 13:00; 18:00 - dla młodzieży","08:00; 18:00","","","http://archwarmia.pl/parafie/parafie/olsztyn-parafia-matki-boskiej-fatimskiej/"
"Parafia Matki Boskiej Saletyńskiej","","Olsztyn","ul. Morska 29, 10-145 Olsztyn ","www.saletyni.olsztyn.pl","czerebski@wp.pl","89 535 44 10 ","ks. mgr lic. Antoni Skałba MS ","07:00; 08:30; 10:00; 11:30; 13:00 - w roku szkolnym; 18:00","07:00; 18:00","","","http://archwarmia.pl/parafie/parafie/olsztyn-parafia-matki-boskiej-salety-skiej/"
"Parafia Matki Bożej Różańcowej","","Olsztyn","ul. Żytnia 68, 10-823 Olsztyn ","olsztyn.radioplus.pl/","michael_21@interia.pl","89 527 19 20, 89 527 83 57 ","ks. kap. hon. Krzysztof Szarowicz ","08:00; 10:00; 11:30; 13:00; 18:00","08:00; 18:00","08:00; 10:00; 18:00","","http://archwarmia.pl/parafie/parafie/olsztyn-parafia-matki-bozej-rozancowej/"
"Parafia Miłosierdzia Bożego","","Olsztyn","ul. Barcza 2, 10-685 Olsztyn ","olsztyn.radioplus.pl/","milosierdzie.olsztyn@wp.pl","89 542 85 58, 89 542 98 55 ","ks. kap. hon. mgr Józef Romanowski ","07:00; 08:30; 10:00; 12:00; 15:15; 18:00","07:00; 15:15; 17:00; 18:00","","","http://archwarmia.pl/parafie/parafie/olsztyn-parafia-milosierdzia-bozego/"
"Parafia Najświętszego Serca Pana Jezusa","","Olsztyn","ul. Mickiewicza 10, 10-509 Olsztyn ","www.nspj.com.pl","nspj.olsztyn@wp.pl","89 527 26 02 (kancelaria) ","ks. kan. mgr lic. Janusz Wieszczyński ","06:30; 08:00; 09:00; 10:00; 11:00; 12:00; 13:00; 14:00; 17:00; 19:00","06:30; 07:00; 07:30; 08:00; 18:00 - w okresie zimowym; 19:00 - w okresie letnim","","","http://archwarmia.pl/parafie/parafie/olsztyn-parafia-najswietszego-serca-pana-jezusa/"
"Parafia Najświętszej Maryi Panny Ostrobramskiej Matki Miłosierdzia","","Olsztyn","ul. Pana Tadeusza 16 A, 10-461 Olsztyn ","www.olsztyn.kapucyni.eu","olsztyn@kapucyni.eu","89 533 46 24 ","O. Marcin Radomski OFM Cap. ","07:00; 08:30; 10:00; 11:30; 13:00; 18:00","07:00; 08:00; 18:00","07:00; 09:00; 11:00; 18:00","","http://archwarmia.pl/parafie/parafie/olsztyn-parafia-najswietszej-maryi-panny-ostrobramskiej-matki-milosierdzia/"
"Parafia Najświętszej Maryi Panny Wspomożycielki Wiernych","","Olsztyn","ul. Bałtycka 135, 10-041 Olsztyn ","www.parafialikusy.blogspot.com","kuriaol@olsztyn.opoka.org.pl","89 523 81 80, 89 523 84 07 ","ks. mgr Dariusz Makowski SDB ","08:30; 10:00; 18:00","18:00","","","http://archwarmia.pl/parafie/parafie/olsztyn-parafia-najswietszej-maryi-panny-wspomozycielki-wiernych/"
"Parafia Współkatedralna Świętego Jakuba","","Olsztyn","ul. Staszica 12, 10-025 Olsztyn ","katedra.olsztyn.pl","katedra@wm.pl","89 527 32 80, 89 527 07 11 ","ks. prałat kan. dr Andrzej Lesiński ","06:00; 07:00; 08:00; 09:00; 10:00; 11:00; 12:30; 13:30; 19:00; 21:00 - lipiec i sierpień","06:00; 07:00; 08:00; 12:00; 19:00 - w każdy piątek udzielany jest sakrament bierzmowania o godz. 11:30 i po mszy św. o godz. 19:00","","","http://archwarmia.pl/parafie/parafie/olsztyn-parafia-wspolkatedralna-swietego-jakuba/"
"Parafia Najświętszej Maryi Panny  Królowej Polski i Świętych Archaniołów Michała, Rafała i Gabriela","","Olsztyn","ul. Kromera 2A, 10-130 Olsztyn ","parafia.krolowejpolski.olsztyn.pl","kuriaol@olsztyn.opoka.org.pl","89 652 12 44 ","ks. dr Zbigniew Czernik ","08:00; 10:00; 12:00","18:00 - w sobotę Msza Święta niedzielna","","","http://archwarmia.pl/parafie/parafie/olsztyn-parafia-naj-wi-tszej-maryi-panny-krolowej-polski-i-wi-tych-archanio-ow-micha-a-rafa-a-i-gabriela/"
"Parafia Świętego Arnolda","","Olsztyn","ul. Św. Arnolda 1, 11-041 Olsztyn ","www.misjonarze.olsztyn.pl","swarnold@poczta.onet.pl","89 523 96 90 ","ks. dr Stanisław Zyśk SVD ","08:30; 10:00 - z udziałem dzieci; 11:15; 18:00","18:00","","","http://archwarmia.pl/parafie/parafie/olsztyn-parafia-swietego-arnolda/"
"Parafia Świętego Franciszka z Asyżu","","Olsztyn","ul. Dybowskiego 2, 10-723 Olsztyn ","www.uwm.edu.pl/parafia ","kuriaol@olsztyn.opoka.org.pl","89 523 39 36, 89 523 45 36 ","ks. kan. mgr Mirosław Hulecki ","08:00; 09:30; 11:00; 14:00 - w czasie roku akademickiego; 18:00; 20:00 - w czasie roku akademickiego","07:00; 18:00","","","http://archwarmia.pl/parafie/parafie/olsztyn-parafia-swietego-franciszka-z-asyzu/"
"Parafia Świętego Józefa","","Olsztyn","ul. Jagiellońska 41, 10-273 Olsztyn ","www.swjozefolsztyn.eu","kuriaol@olsztyn.opoka.org.pl","89 526 27 50, 89 526 27 61, 89 526 27 52 ","ks. kan. mgr Jerzy Mazur ","06:30; 08:00; 09:00; 10:00; 11:00; 12:00; 13:00; 14:15 - w roku szkolnym; 18:00","06:30; 08:00; 18:00","","","http://archwarmia.pl/parafie/parafie/olsztyn-parafia-swietego-jozefa/"
"Parafia Świętego Jana Bosko","","Olsztyn","ul. Żytnia 68, 10-823 Olsztyn ","olsztyn.radioplus.pl/","gutkowo@salezjanie.pl","89 527 19 20 ","ks. kap. hon. Krzysztof Szarowicz ","","","","","http://archwarmia.pl/parafie/parafie/olsztyn-parafia-swietego-jana-bosko/"
"Parafia Świętego Maksymiliana Marii Kolbego","","Olsztyn","ul. Dworcowa 1 B, 10-699 Olsztyn ","www.swmaksymilian.olsztyn.pl","olsztyn@franciszkanie.gdansk.pl","89 534 64 04 ","o. mgr Daniel Pliszka OFM Conv. ","07:30; 09:00; 10:30; 12:00; 16:00 - w roku szkolnym; 18:00 - w okresie wakacyjnym (lipiec - sierpień); 20:00 - w roku szkolnym","08:00; 18:00","","","http://archwarmia.pl/parafie/parafie/olsztyn-parafia-swietego-maksymiliana-marii-kolbego/"
"Parafia Świętego Wawrzyńca","","Olsztyn","ul. Bałtycka 135, 11-041 Olsztyn ","www.olsztyn.salezjanie.pl","gutkowo@salezjanie.pl","89 523 84 07 ","ks. mgr lic. Antoni Rzymowski SDB ","07:30; 09:00; 12:00; 18:00; 10:30","07:00; 18:00","","","http://archwarmia.pl/parafie/parafie/olsztyn-parafia-swietego-wawrzynca/"
"Parafia Świętego Wojciecha","","Olsztyn","ul. Gałczyńskiego 28, 10-089 Olsztyn ","olsztyn.radioplus.pl/","kuriaol@olsztyn.opoka.org.pl","89 523 58 96, 89 535 24 48 (wikariusz) ","ks. kap. hon. mgr lic. Andrzej Zieliński ","07:30; 09:00; 10:30; 12:00; 18:00","08:00; 18:00","","","http://archwarmia.pl/parafie/parafie/olsztyn-parafia-swietego-wojciecha/"
"Parafia Świętej Anny","","Olsztyn","ul. Morwowa 10, 10-364 Olsztyn ","www.swanna.olsztyn.pl","parafia@swanna.olsztyn.pl","89 526 44 64 ","ks. dr Hubert Tryk ","08:00; 11:00; 18:00; 09:30","18:00","09:30","","http://archwarmia.pl/parafie/parafie/olsztyn-parafia-swietej-anny/"
"Parafia Świętego Mateusza","","Olsztyn","20, 10-693 Olsztyn ","mateusz.olsztyn.pl","parafiamateusz@o2.pl","694 656 078 ","ks. mgr Artur Klepacki ","07:30; 08:30; 10:00; 11:30 - dla dzieci; 13:00; 18:00","18:00 - w soboty; 18:30 - od poniedziałku do piątku","","","http://archwarmia.pl/parafie/parafie/olsztyn-parafia-swietego-mateusza/"
"Parafia Błogosławionej Anieli Salawy","","Olsztynek","ul. Wilcza 11, 11-015 Olsztynek ","www.anielaolsztynek.pl","aniela.salawa@olsztynek.pl","89 519 16 47 ","ks. kan. mgr Sławomir Piniaha ","08:00 - Skansen; 10:00; 11:30; 17:00","17:00","","","http://archwarmia.pl/parafie/parafie/olsztynek-parafia-blogoslawionej-anieli-salawy/"
"Parafia Najświętszego Serca Pana Jezusa","","Olsztynek","ul. Chopina 7, 11-015 Olsztynek ","olsztyn.radioplus.pl/","parafia_nspj_olsztynek@interia.pl","89 519 21 65 ","ks. kan. mgr lic. Stanisław Pietkiewicz ","07:00; 09:00; 10:30; 12:00; 18:00","06:30; 18:00","","","http://archwarmia.pl/parafie/parafie/olsztynek-parafia-najswietszego-serca-pana-jezusa/"
"Parafia Opieki Świętego Józefa","","Opaleniec","Opaleniec 4, 12-160 Wielbark ","olsztyn.radioplus.pl/","kuriaol@olsztyn.opoka.org.pl","89 621 80 01 ","ks. kan. mgr lic. Stanisław Sito ","08:15","","","","http://archwarmia.pl/parafie/parafie/opaleniec-parafia-opieki-swietego-jozefa/"
"Parafia Podwyższenia Krzyża Świętego","","Opin","Opin, 11-130 Orneta ","olsztyn.radioplus.pl/","kuriaol@olsztyn.opoka.org.pl","55 242 28 84 ","ks. kan. mgr Andrzej Krużycki ","10:00","","","","http://archwarmia.pl/parafie/parafie/opin-parafia-podwyzszenia-krzyza-swietego/"
"Parafia Świętego Jana Chrzciciela","","Orneta","ul. Kościelna 3, 11-130 Orneta ","www.orneta.parafia.info.pl","kuriaol@olsztyn.opoka.org.pl","55 242 11 15 ","ks. kan. Krzysztof Józefczyk ","06:30; 08:30; 10:00; 11:30; 18:00; 13:00","06:30; 18:00","","","http://archwarmia.pl/parafie/parafie/orneta-parafia-swietego-jana-chrzciciela/"
"Parafia Niepokalanego Poczęcia Najświętszej Maryi Panny","","Orzechowo","Orzechowo 28, 11-040 Dobre Miasto ","olsztyn.radioplus.pl/","kuriaol@olsztyn.opoka.org.pl","89 672 52 20 ","ks. mgr Roman Kramek ","09:00; 12:00; 10:30","07:30 - w wyjątkiem maja, czerwca i października - w tych miesiącach Msze Święte są w godzinach wieczornych","","","http://archwarmia.pl/parafie/parafie/orzechowo-parafia-niepokalanego-poczecia-najswietszej-maryi-panny/"
"Parafia Świętego Jana Chrzciciela","","Orzechowo","Orzechowo, ul. Pluski, ul. Jeziorna 99, 11-034 Stawiguda ","olsztyn.radioplus.pl/","kuriaol@olsztyn.opoka.org.pl","796 005 042 ","ks. mgr Andrzej Wiśniewski ","10:00; 11:00; 08:30; 16:00 - lipiec, sierpień","08:30 - piątek; 07:00 - środa; 08:30 - sobota; 18:00 - wtorek i czwartek","","","http://archwarmia.pl/parafie/parafie/orzechowo-parafia-swietego-jana-chrzciciela/"
"Parafia Błogosławionych Hiacynty i Franciszka","","Ostróda","ul. Piastowska 6, 14-100 Ostróda ","www.hiacynta.ostroda.pl","kuriaol@olsztyn.opoka.org.pl","89 642 01 26; 89 642 20 26 ","ks. kan. mgr Jerzy Balcer ","08:00; 09:30; 11:00; 17:00; 20:00 - w lipcu i sierpniu","07:00; 17:00","","","http://archwarmia.pl/parafie/parafie/ostroda-parafia-blogoslawionych-hiacynty-i-franciszka/"
"Parafia Niepokalanego Poczęcia Najświętszej Maryi Panny","","Ostróda","ul. Czarnieckiego 3, 14-100 Ostróda ","olsztyn.radioplus.pl/","parafia.npnmp@neostrada.pl","89 646 59 05 ","ks. prał. mgr lic. Roman Wiśniowiecki ","07:00; 09:00; 10:30; 12:00; 13:30; 18:00; 15:00 - w niedzielę prócz I piątku miesiąca; 16:30","06:30; 07:00; 18:00; 19:00 - w każdy czwartek","","","http://archwarmia.pl/parafie/parafie/ostroda-parafia-niepokalanego-poczecia-najswietszej-maryi-panny/"
"Parafia Świętego Dominika Savio","","Ostróda","ul. Dominika Savio 1 1, 14-100 Ostróda ","olsztyn.radioplus.pl/","slo.ostroda@wp.pl","89 642 28 40 ","ks. mgr Piotr Boryczka SDB ","07:30; 09:00; 10:30; 12:00; 18:00","07:00; 18:00","07:00; 10:00; 18:00","","http://archwarmia.pl/parafie/parafie/ostroda-parafia-swietego-dominika-savio/"
"Parafia Świętego Jana Bosko","","Ostróda","ul. Parkowa 30, 14-100 Ostróda ","olsztyn.radioplus.pl/","kuriaol@olsztyn.opoka.org.pl","89 642 32 50 ","ks. mgr Paweł S. Sufleta SDB ","08:00; 09:30; 11:00; 12:15; 18:00","17:00 - od października do kwietnia; 19:00 - od maja do września; 18:00","","","http://archwarmia.pl/parafie/parafie/ostroda-parafia-swietego-jana-bosko/"
"Parafia Świętego Franciszka z Asyżu","","Ostróda","ul. Franciszkańska 1, 14-100 Ostróda ","www.franciszekostroda.pl","ostroda@zakon.nazwa.pl","89 646 65 42 ","o. Kazimierz Trzciński OFM Conv. ","08:00; 10:00 - suma parafialna; 11:30 - rodzinna (dla dzieci); 18:00","08:00 - z Jutrznią; 18:00","","","http://archwarmia.pl/parafie/parafie/ostroda-parafia-swietego-franciszka-z-asyzu/"
"Parafia Świętego Marcina","","Ostróda","ul. Paderewskiego 1 A, 14-100 Ostróda ","olsztyn.radioplus.pl/","kuriaol@olsztyn.opoka.org.pl","89 672 35 82 ","ks. mgr Roman Gałęzowski ","08:00; 10:00; 12:00; 17:00","18:00","","","http://archwarmia.pl/parafie/parafie/ostroda-parafia-swietego-marcina/"
"Parafia Świętego Ojca Pio","","Ostróda","ul. Przedszkolna 16, 14-100 Ostróda ","www.ojciecpio.ostroda.pl","kuriaol@olsztyn.opoka.org.pl","89 646 78 92 ","ks. kan. mgr Jerzy Woliński ","07:30; 09:00; 11:00; 12:30; 17:00 - od 1 XI do 28 II; 18:00","07:30; 17:00 - od 1 XI do 28 II; 18:00","","","http://archwarmia.pl/parafie/parafie/ostroda-parafia-swietego-ojca-pio/"
"Parafia Świętej Faustyny","","Ostróda","ul. Plebiscytowa 48, 14-100 Ostróda ","faustyna-ostroda.pl","faustyna-ostroda@home.pl","89 646 10 82 ","ks. prał. mgr Władysław Szmul ","08:00; 10:00; 12:00; 18:00","18:00","","","http://archwarmia.pl/parafie/parafie/ostroda-parafia-swietej-faustyny/"
"Parafia Najświętszego Serca Pana Jezusa","","Pasym","ul. Ks. Barczewskiego 2, 12-130 Pasym ","olsztyn.radioplus.pl/","kuriaol@olsztyn.opoka.org.pl","89 621 20 16 ","ks. kan. mgr Józef Grażul ","07:15; 09:00; 11:30; 18:00","18:00","","","http://archwarmia.pl/parafie/parafie/pasym-parafia-najswietszego-serca-pana-jezusa/"
"Parafia Matki Bożej Różańcowej","","Piecki","ul. Zwycięstwa 16, 11-710 Piecki ","www.parafia-piecki.pl","kuriaol@olsztyn.opoka.org.pl","89 742 11 46 ","ks. mgr lic. Eugeniusz Pipała ","08:00; 09:30; 11:00; 17:00 - październik - marzec; 18:00 - kwiecień - wrzesień; 14:00","07:30; 17:00 - październik - marzec; 17:00 - październik - marzec; 18:00 - kwiecień - wrzesień; 18:00 - kwiecień - wrzesień","07:30; 10:00","","http://archwarmia.pl/parafie/parafie/piecki-parafia-matki-bozej-rozancowej/"
"Parafia Świętych Apostołów Piotra i Pawła","","Pieniężno","ul. Rynek 8, 14-520 Pieniężno ","olsztyn.radioplus.pl/","fmfm52@yahoo.com","55 243 60 48 ","ks. dr Kazimierz Gergont SVD ","07:00; 10:00; 12:00 - w czasie roku szkolnego; 17:00 - od października do kwietnia; 18:00","07:00; 17:00 - od października do kwietnia; 18:00 - od maja do września","","","http://archwarmia.pl/parafie/parafie/pieniezno-parafia-swietych-apostolow-piotra-i-pawla/"
"Parafia Świętej Małgorzaty","","Pierzchały","Pierzchały 16, 14-526 Płoskinia ","olsztyn.radioplus.pl/","kuriaol@olsztyn.opoka.org.pl","55 243 11 52 ","ks. mgr Radosław Gołębiewski ","11:00","18:00","","","http://archwarmia.pl/parafie/parafie/pierzchaly-parafia-swietej-malgorzaty/"
"Parafia Świętej Marii Magdaleny","","Pieszkowo","Pieszkowo 21, 11-220 Górowo Iławeckie ","olsztyn.radioplus.pl/","szuwpiesz@wo.pl","89 761 85 30 ","ks. mgr Leszek Wojcinowicz ","08:45; 10:30; 12:30","16:00; 17:00","","","http://archwarmia.pl/parafie/parafie/pieszkowo-parafia-swietej-marii-magdaleny/"
"Parafia Świętego Piotra w Okowach","","Pietrzwałd","Pietrzwałd 27, 14-100 Ostróda ","olsztyn.radioplus.pl/","kuriaol@olsztyn.opoka.org.pl","89 647 13 22 ","ks. kap. hon. Józef Spisak ","08:00; 12:00","18:00","","","http://archwarmia.pl/parafie/parafie/pietrzwald-parafia-swietego-piotra-w-okowach/"
"Parafia Świętego Jana Chrzciciela","","Piotrowiec","Piotrowiec, 14-520 Pieniężno ","olsztyn.radioplus.pl/","kuriaol@olsztyn.opoka.org.pl","55 243 60 48 ","ks. dr Kazimierz Gergont SVD ","09:15; 10:30","17:00; 18:00","","","http://archwarmia.pl/parafie/parafie/piotrowiec-parafia-swietego-jana-chrzciciela/"
"Parafia Świętego Wawrzyńca","","Pluty","Pluty 16, 14-520 Pieniężno ","olsztyn.radioplus.pl/","kuriaol@olsztyn.opoka.org.pl","55 244 50 99 ","ks. mgr Jan Puławski ","09:30; 11:00; 13:00","17:00; 18:00","","","http://archwarmia.pl/parafie/parafie/pluty-parafia-swietego-wawrzynca/"
"Parafia Świętej Katarzyny","","Płoskinia","Płoskinia 58, 14-526 Płoskinia ","olsztyn.radioplus.pl/","kuriaol@olsztyn.opoka.org.pl","55 243 13 23 ","ks. kan. mgr Henryk Kamiński ","08:30; 10:30; 12:00","17:00; 19:00","","","http://archwarmia.pl/parafie/parafie/ploskinia-parafia-swietej-katarzyny/"
"Parafia Świętego Michała Archanioła","","Purda Wielka","Purda Wielka, 10-687 Olsztyn ","olsztyn.radioplus.pl/","kuriaol@olsztyn.opoka.org.pl","89 512 22 16 ","ks. kan. mgr Krzysztof Wojciechowski ","08:00; 09:30; 10:45","17:00","","","http://archwarmia.pl/parafie/parafie/purda-wielka-parafia-swietego-michala-archaniola/"
"Parafia Świętej Anny i Świętego Jerzego","","Radostowo","Radostowo 35, 11-320 Jeziorany ","olsztyn.radioplus.pl/","kuriaol@olsztyn.opoka.org.pl","89 718 17 01 ","ks. Marek Choromański ","","","","","http://archwarmia.pl/parafie/parafie/radostowo-parafia-wi-tej-anny-i-wi-tego-jerzego/"
"Parafia Świętego Antoniego","","Radziejewo","Radziejewo 18, 14-520 Pieniężno ","olsztyn.radioplus.pl/","kuriaol@olsztyn.opoka.org.pl","55 243 60 03 ","ks. mgr Paweł Władyka ","08:00; 12:00","18:00","","","http://archwarmia.pl/parafie/parafie/radziejewo-parafia-swietego-antoniego/"
"Parafia Świętego Andrzeja Apostoła i Świętego Rocha","","Ramsowo","Ramsowo 84, 11-010 Barczewo ","olsztyn.radioplus.pl/","kuriaol@olsztyn.opoka.org.pl","89 514 57 15 ","ks. mgr Zbigniew Snarski ","09:00; 11:00","17:00","","","http://archwarmia.pl/parafie/parafie/ramsowo-parafia-swietego-andrzeja-apostola-i-swietego-rocha/"
"Parafia Świętych Apostołów Piotra i Pawła","","Reszel","ul. Słowackiego 9, 11-440 Reszel ","olsztyn.radioplus.pl/","parafia.reszel@wp.pl","89 755 01 05 ","ks. prał. kan. mgr Dyzma Wyrostek ","07:30; 09:00; 10:30; 12:00; 18:00; 14:00; 14:00","07:00; 18:00","","","http://archwarmia.pl/parafie/parafie/reszel-parafia-swietych-apostolow-piotra-i-pawla/"
"Parafia Miłosierdzia Bożego","","Reszki","Reszki 19, 14-100 Ostróda ","olsztyn.radioplus.pl/","kuriaol@olsztyn.opoka.org.pl","89 647 62 22 ","ks. kan. mgr Witold Palewski ","09:00; 10:30; 13:30; 12:00","17:00 - w okresie zimowym; 18:00 - w okresie letnim","","","http://archwarmia.pl/parafie/parafie/reszki-parafia-milosierdzia-bozego/"
"Parafia Matki Boskiej Szkaplerznej","","Rodnowo","15, 11-217 Rodnowo ","olsztyn.radioplus.pl/","kuriaol@olsztyn.opoka.org.pl","89 761 58 37 ","ks. mgr Marek Wilk ","08:00; 11:00; 09:30","17:00","","","http://archwarmia.pl/parafie/parafie/rodnowo-parafia-matki-boskiej-szkaplerznej/"
"Parafia Świętej Małgorzaty","","Rogiedle","Rogiedle 42, 11-135 Lubomino ","olsztyn.radioplus.pl/","kuriaol@olsztyn.opoka.org.pl","89 616 55 70 ","ks. mgr Marian Dziadkiewicz SDB ","08:30; 13:00","17:00","","","http://archwarmia.pl/parafie/parafie/rogiedle-parafia-swietej-malgorzaty/"
"Parafia Świętego Jana Chrzciciela","","Wilczkowo","Rogiedle 42, 11-135 Lubomino ","olsztyn.radioplus.pl/","kuriaol@olsztyn.opoka.org.pl","89 616 55 70 ","ks. mgr Marian Dziadkiewicz SDB ","10:00; 11:30","16:00","","","http://archwarmia.pl/parafie/parafie/wilczkowo-parafia-swietego-jana-chrzciciela/"
"Parafia Świętej Barbary","","Rogóż","Rogóż 26, 11-100 Lidzbark Warmiński ","olsztyn.radioplus.pl/","ingo.czaja@interia.pl","89 766 22 13 ","ks. kan. Ingo Michał Czaja ","09:00; 11:00; 12:30; 13:30","08:00; 08:00; 17:00; 18:00","","","http://archwarmia.pl/parafie/parafie/rogoz-parafia-swietej-barbary/"
"Parafia Świętej Jadwigi Królowej","","Rozdroże","Rozdroże 28, 13-100 Nidzica ","www.republika.pl/parafia_rozdroze","parafia.rozdroze@op.pl","89 625 40 79 ","ks. kan. mgr Józef Stroński ","09:00; 10:30; 12:00","16:00; 19:00","","","http://archwarmia.pl/parafie/parafie/rozdroze-parafia-swietej-jadwigi-krolowej/"
"Parafia Świętej Marii Magdaleny","","Rozogi","32, 12-114 Rozogi ","olsztyn.radioplus.pl/","kuriaol@olsztyn.opoka.org.pl","89 722 60 90 ","ks. prał. mgr Józef Midura ","08:00; 10:00; 12:00","07:00 - (lub 18:00) w okresie letnim, (lub 17:00) w okresie zimowym; 17:00 - (lub 7:00) w okresie zimowym; 18:00 - (lub 7:00) w okresie letnim","","","http://archwarmia.pl/parafie/parafie/rozogi-parafia-swietej-marii-magdaleny/"
"Parafia Świętego Mateusza","","Rożynka","Rożynka, 11-008 Świątki ","www.rozynkakwiecewo.blogspot.com","kuriaol@olsztyn.opoka.org.pl","89 616 96 92 ","ks. mgr lic. Piotr Wójcik ","09:00; 13:00","08:00; 16:00","","","http://archwarmia.pl/parafie/parafie/rozynka-parafia-swietego-mateusza/"
"Parafia Najświętszej Maryi Panny Różańcowej","","Różnowo","Różnowo 20, ul., 11-001 Dywity ","olsztyn.radioplus.pl/","kuriaol@olsztyn.opoka.org.pl","691 693 311 ","ks. mgr Piotr Matwiejczuk ","09:00; 11:00","15:00 - sobota - Dom Pomocy Społecznej; 18:00","","","http://archwarmia.pl/parafie/parafie/ro-nowo-parafia-naj-wi-tszej-maryi-panny-ro-a-cowej/"
"Parafia Świętego Jakuba Apostoła","","Kwiecewo","RÓŻYNKA 69, 11-008 Świątki ","olsztyn.radioplus.pl/","petrus@wp.eu","89 616 96 92 ","ks. mgr lic. Piotr Wójcik ","11:00","17:00","","","http://archwarmia.pl/parafie/parafie/kwiecewo-parafia-swietego-jakuba-apostola/"
"Parafia Świętego Józefa","","Ruszkowo","Ruszkowo 61, 13-214 Uzdowo ","olsztyn.radioplus.pl/","tereszewski@gmail.com","23 696 54 91 ","ks. mgr lic. Mieczysław Tereszewski ","10:00; 12:00; 13:15; 08:20","17:00","","","http://archwarmia.pl/parafie/parafie/ruszkowo-parafia-swietego-jozefa/"
"Parafia Świętego Bonifacego Biskupa i Męczennika","","Rybno","Rybno 47, 11-731 RYBNO ","olsztyn.radioplus.pl/","bonifacy.rybno@wp.pl","89 742 73 13 ","ks. mgr Mieczysław Kruczyk ","09:00; 11:00","08:00; 16:00 - w październiku; 17:00 - w maju","","","http://archwarmia.pl/parafie/parafie/rybno-parafia-wi-tego-bonifacego-biskupa-i-m-czennika/"
"Parafia Wniebowzięcia Najświętszej Maryi Panny","","Rychnowo","Rychnowo 37, 14-105 Szyldak ","www.rychnowo.blog.interia.pl","rychnowo@interia.pl","89 647 25 77 ","","10:00; 12:00; 08:30","07:00; 16:00 - w listopadzie; 16:30 - w październiku; 18:00 - w maju","","","http://archwarmia.pl/parafie/parafie/rychnowo-parafia-wniebowziecia-najswietszej-maryi-panny/"
"Parafia Narodzenia Najświętszej Maryi Panny","","Ryn Reszelski","Ryn Reszelski, 11-311 Kolno k. Reszla ","olsztyn.radioplus.pl/","kuriaol@olsztyn.opoka.org.pl","89 716 32 21 ","ks. mgr Jerzy Waresiak ","","","","","http://archwarmia.pl/parafie/parafie/ryn-reszelski-parafia-narodzenia-najswietszej-maryi-panny/"
"Parafia Najświętszej Maryi Panny Nieustającej Pomocy","","Samin","Samin 16, 14-120 Dąbrówno ","olsztyn.radioplus.pl/","kuriaol@olsztyn.opoka.org.pl","89 647 42 82 ","ks. mgr Wiesław Musiał ","08:30; 12:00; 10:00","18:00","","","http://archwarmia.pl/parafie/parafie/samin-parafia-najswietszej-maryi-panny-nieustajacej-pomocy/"
"Parafia Świętego Antoniego","","Sarnowo","Sarnowo 43, 13-124 Kozłowo ","olsztyn.radioplus.pl/","kuriaol@olsztyn.opoka.org.pl","89 626 70 13 ","ks. kan. mgr Kazimierz Oziewicz ","08:00; 11:30","18:00","","","http://archwarmia.pl/parafie/parafie/sarnowo-parafia-swietego-antoniego/"
"Parafia Chrystusa Króla","","Sątoczno","Sątoczno, 11-430 Korsze ","olsztyn.radioplus.pl/","kuriaol@olsztyn.opoka.org.pl","89 754 31 27 ","ks. mgr Adam Malak SDB ","09:30; 12:00","17:00","","","http://archwarmia.pl/parafie/parafie/satoczno-parafia-chrystusa-krola/"
"Parafia Świętego Jana Chrzciciela","","Unikowo","Sątopy 31, 12-230 Bisztynek ","olsztyn.radioplus.pl/","marekkaz@o2.pl","89 718 70 02 ","","09:30","16:30","","","http://archwarmia.pl/parafie/parafie/unikowo-parafia-swietego-jana-chrzciciela/"
"Parafia Świętego Jodoka","","Sątopy","Sątopy 31, 11-230 Bisztynek ","olsztyn.radioplus.pl/","kuriaol@olsztyn.opoka.org.pl","89 718 70 02 ","ks. Jan Sztygiel ","09:00; 10:00; 12:00","08:00; 18:00; 19:00","","","http://archwarmia.pl/parafie/parafie/satopy-parafia-swietego-jodoka/"
"Parafia Świętego Michała Archanioła","","Sępopol","ul. Kościelna 3, 11-210 Sępopol ","www.sepopol.salezjanie.pl","sepopol@salezjanie.pl","89 761 44 30 ","ks. mgr Stanisław Orpik SDB ","08:00; 11:00; 12:30; 16:00; 09:30; 14:30; 14:30","07:00; 18:00; 19:00 - w I piątek miesiąca","","","http://archwarmia.pl/parafie/parafie/sepopol-parafia-swietego-michala-archaniola/"
"Parafia Świętego Mikołaja","","Sętal","Sętal 10, 11-001 Dywity ","olsztyn.radioplus.pl/","xsylwestern@tlen.pl","89 512 02 94 ","ks. mgr lic. Sylwester Nykiel ","08:30 - Kabikiejmy; 10:00 - Sętal; 11:30 - Nowe Włóki","08:00 - lub 17:00","","","http://archwarmia.pl/parafie/parafie/setal-parafia-swietego-mikolaja/"
"Parafia Świętego Piotra Apostoła","","Momajny","SKANDAWA 1 A, 11-410 Barciany ","olsztyn.radioplus.pl/","agolon@poczta.fm","89 753 30 93 ","ks. mgr Andrzej Golon ","12:00; 09:00; 10:30","17:00","","","http://archwarmia.pl/parafie/parafie/momajny-parafia-swietego-piotra-apostola/"
"Parafia Świętego Wojciecha","","Skandawa","Skandawa 1 A, 11-410 Barciany ","olsztyn.radioplus.pl/","agolon@poczta.fm","89 753 30 93 ","ks. mgr Andrzej Golon ","09:00","","","","http://archwarmia.pl/parafie/parafie/skandawa-parafia-swietego-wojciecha/"
"Parafia Narodzenia Najświętszej Maryi Panny","","Skolity","Skolity 9, 11-008 Świątki ","olsztyn.radioplus.pl/","jmalewicki@op.pl","89 616 96 07 ","ks. mgr Jerzy Banul ","09:00; 10:45; 13:00","17:00","","","http://archwarmia.pl/parafie/parafie/skolity-parafia-narodzenia-najswietszej-maryi-panny/"
"Parafia Najświętszej Maryi Panny Nieustającej Pomocy","","Słupy","Słupy 58 A, 10-381 Olsztyn ","olsztyn.radioplus.pl/","kuriaol@olsztyn.opoka.org.pl","89 513 57 07 ","ks. kan. mgr Zbigniew Meja ","10:30; 12:00","17:30","","","http://archwarmia.pl/parafie/parafie/slupy-parafia-najswietszej-maryi-panny-nieustajacej-pomocy/"
"Parafia Świętej Anny","","Sokolica","Sokolica 24, 11-200 Bartoszyce ","olsztyn.radioplus.pl/","sokolica-parafia@wp.pl","518 543 178 (nr tel. do parafii); 515 280 713 (nr tel. do ks. proboszcza) ","ks. mgr lic. Remigiusz Zaniecki ","08:00; 12:00; 10:00","17:00 - od 1 listopada do 31 marca; 18:00","09:00; 11:00","","http://archwarmia.pl/parafie/parafie/sokolica-parafia-swietej-anny/"
"Parafia Świętego Brata Alberta","","Sorkwity","ul. Szkolna 20, 11-731 Sorkwity ","olsztyn.radioplus.pl/","kuriaol@olsztyn.opoka.org.pl","89 742 81 50 ","ks. prał. mgr Andrzej Świech ","09:00; 11:00; 17:00 - w okresie letnim; 18:00 - w okresie letnim w sobotę; 13:00 - w okresie zimowym","07:00 - (lub 17:00) w okresie letnim, (lub 16:00) w okresie zimowym; 16:00 - (lub 7:00) w okresie zimowym; 17:00 - (lub 17:00) w okresie letnim","","","http://archwarmia.pl/parafie/parafie/sorkwity-parafia-swietego-brata-alberta/"
"Parafia Matki Boskiej Nieustającej Pomocy","","Spychowo","ul. Mazurska 22, 12-150 Spychowo ","olsztyn.radioplus.pl/","kuriaol@olsztyn.opoka.org.pl","89 622 50 48 ","ks. mgr Mirosław Lango ","08:00; 08:00; 10:30; 10:30; 12:00 - w czasie roku szkolnego; 17:00 - w okresie wakacyjnym","07:00 - (lub 17:00) w okresie letnim; 08:00 - (lub 16:00) w okresie zimowym; 16:00 - (lub 8:00) w okresie zimowym; 17:00 - (lub 7:00) w okresie letnim","","","http://archwarmia.pl/parafie/parafie/spychowo-parafia-matki-boskiej-nieustajacej-pomocy/"
"Parafia Podwyższenia Krzyża Świętego","","Srokowo","ul. Piekarska 8, 11-420 Srokowo ","www.parafia-srokowo.pl","parafia-srokowo@wp.pl","89 753 40 22 ","ks. prał. mgr Kazimierz Sawostianik ","08:45; 10:30 - dla dzieci; 12:00; 16:30; 14:30","07:00; 17:00 - w okresie zimowym; 18:00 - w okresie letnim","","","http://archwarmia.pl/parafie/parafie/srokowo-parafia-podwy-szenia-krzy-a-wi-tego/"
"Parafia Świętego Józefa i Wniebowzięcia Najświętszej Maryi Panny","","Stanclewo","Stanclewo 37, 11-300 Biskupiec Reszelski ","www.parafiastanclewo.pl","parafia.stanclewo@gmail.com","89 715 41 87 ","ks. mgr lic. Andrzej Adamczyk ","08:00; 11:30; 10:00","17:00","","","http://archwarmia.pl/parafie/parafie/stanclewo-parafia-swietego-jozefa-i-wniebowziecia-najswietszej-maryi-panny/"
"Parafia Matki Boskiej Królowej Polski","","Stare Jabłonki","ul. Kościelna 2, 14-133 Stare Jabłonki ","olsztyn.radioplus.pl/","kuriaol@olsztyn.opoka.org.pl","89 641 14 12 ","ks. mgr lic. Wiesław Felka SDB ","09:00; 13:00; 17:00 - w miesiącach: IX - IV; 19:00 - w miesiącach: V - VIII; 10:30; 15:30 - w miesiącach: V - VIII; 17:45 - w miesiącach: IX - IV; 12:00","17:00 - w miesiącach: IX - IV; 19:00 - w miesiącach: V - VIII","","","http://archwarmia.pl/parafie/parafie/stare-jablonki-parafia-matki-boskiej-krolowej-polski/"
"Parafia Świętego Jakuba Apostoła","","Stawiguda","ul. Jaśminowa 20, 11-034 Stawiguda ","www.parafiastawiguda.pl","kontakt.parafiastawiguda@gmail.com","89 512 61 09 ","ks. dr hab.Tomasz Szałanda ","08:00; 11:00; 17:00 - od 1 września do 31 maja; 19:00 - od 1 czerwca do 31 sierpnia","17:00","","","http://archwarmia.pl/parafie/parafie/stawiguda-parafia-swietego-jakuba-apostola/"
"Parafia Przenajświętszej Trójcy","","Stębark","Stębark 3, 14-110 Grunwald ","olsztyn.radioplus.pl/","kuriaol@olsztyn.opoka.org.pl","89 647 22 22 ","ks. kan. mgr Zbigniew Żabiński ","07:50; 11:00; 09:30","18:00","","","http://archwarmia.pl/parafie/parafie/stebark-parafia-przenajswietszej-trojcy/"
"Parafia Nawiedzenia Najświętszej Maryi Panny","","Stoczek Klasztorny","Stoczek Klasztorny 30, 11-106 Kiwity ","www.stoczek.pl","kuriaol@olsztyn.opoka.org.pl","89 766 09 11 ","ks. mgr Krzysztof Ziaja MIC ","07:15; 09:00; 11:30; 17:00","07:30; 17:00 - od października do kwietnia; 19:00 - od maja do września","","","http://archwarmia.pl/parafie/parafie/stoczek-klasztorny-parafia-nawiedzenia-najswietszej-maryi-panny/"
"Parafia Świętego Jerzego","","Szalmia","Szalmia 58, 14-526 Płoskinia ","olsztyn.radioplus.pl/","kuriaol@olsztyn.opoka.org.pl","55 243 13 23 ","ks. kan. mgr Henryk Kamiński ","","","","","http://archwarmia.pl/parafie/parafie/szalmia-parafia-swietego-jerzego/"
"Parafia Świętego Mikołaja","","Sząbruk","Sząbruk 1, 11-036 Gietrzwałd ","olsztyn.radioplus.pl/","kuriaol@olsztyn.opoka.org.pl","89 513 05 20 ","ks. mgr Andrzej Trejnowski ","08:00; 10:00; 12:00","17:00","","","http://archwarmia.pl/parafie/parafie/szabruk-parafia-swietego-mikolaja/"
"Parafia Świętego Antoniego Padewskiego","","Szczepankowo","Szczepankowo 17, 14-106 Gierzwałd ","olsztyn.radioplus.pl/","kuriaol@olsztyn.opoka.org.pl","89 647 21 51 ","ks. mgr Tomasz Łojek ","12:00; 10:30; 09:00","17:00","17:00; 16:00","","http://archwarmia.pl/parafie/parafie/szczepankowo-parafia-swietego-antoniego-padewskiego/"
"Parafia Chrystusa Króla","","Szczytno","ul. Tuwima 38, 12-100 Szczytno ","www.chrystuskrol.szczytno.pl","kuriaol@olsztyn.opoka.org.pl","89 624 47 79 ","ks. mgr Mirosław Rudoman ","08:00; 10:00; 12:00; 17:00","17:00; 18:00","","","http://archwarmia.pl/parafie/parafie/szczytno-parafia-chrystusa-krola/"
"Parafia Świętego Brata Alberta","","Szczytno","ul. Wileńska 1, 12-100 Szczytno ","olsztyn.radioplus.pl/","kuriaol@olsztyn.opoka.org.pl","89 624 38 81, 89 624 64 79, 89 624 13 98 ","ks. prał. mgr Lech Lachowicz ","07:00; 09:00; 10:30; 12:00; 17:00; 19:00","07:00; 17:00","07:00; 10:00; 17:00","","http://archwarmia.pl/parafie/parafie/szczytno-parafia-swietego-brata-alberta/"
"Parafia Świętego Krzyża","","Szczytno","ul. Jagiellończyka 1 A, 12-100 Szczytno ","www.swietykrzyzszczytno.edupage.org","kuriaol@olsztyn.opoka.org.pl","89 624 13 51 ","ks. kan. mgr Andrzej Wysocki ","08:30; 10:00; 12:00; 18:00","18:00","10:30; 18:00","","http://archwarmia.pl/parafie/parafie/szczytno-parafia-swietego-krzyza/"
"Parafia Świętego Stanisława Kostki","","Szczytno","ul. Niepodległości 11, 12-100 Szczytno ","www.kostkaszczytno.cba.pl","kuriaol@olsztyn.opoka.org.pl","89 624 13 26, 89 624 26 08 ","ks. kan. Edward Molitorys ","08:00 - w lipcu i sierpniu; 09:00; 10:45; 12:00 - od września do czerwca; 18:00","07:00; 18:00","","","http://archwarmia.pl/parafie/parafie/szczytno-parafia-swietego-stanislawa-kostki/"
"Parafia Wniebowzięcia Najświętszej Maryi Panny","","Szczytno","ul. Konopnickiej 72, 12-100 Szczytno ","olsztyn.radioplus.pl/","parwnmpszczytno@wp.pl","89 624 25 31 ","ks. mgr Andrzej Preuss ","07:00; 08:30; 10:00; 11:30; 13:00; 18:00","07:00; 18:00","07:00; 10:00; 18:00","","http://archwarmia.pl/parafie/parafie/szczytno-parafia-wniebowziecia-najswietszej-maryi-panny/"
"Parafia Świętego Krzyża","","Szestno","Szestno 50, 11-700 Mrągowo ","olsztyn.radioplus.pl/","kuriaol@olsztyn.opoka.org.pl","604 932 802 ","ks. mgr Sylwester Progorowicz ","09:00; 12:00 - 13:00 - wakacje; 10:30","17:00","","","http://archwarmia.pl/parafie/parafie/szestno-parafia-swietego-krzyza/"
"Parafia Świętego Józefa","","Szkotowo","57, 11-701 Szkotowo ","olsztyn.radioplus.pl/","kuriaol@olsztyn.opoka.org.pl","89 626 80 11 ","ks. mgr Dariusz Leśniak ","08:15; 12:00; 14:00; 10:00","08:00 - w okresie zimowym (od 1. grudnia do 31. stycznia); 18:00 - w okresie letnim","","","http://archwarmia.pl/parafie/parafie/szkotowo-parafia-swietego-jozefa/"
"Parafia Świętego Andrzeja Boboli","","Szyldak","ul. Szkolna 1, 14-106 Szyldak ","olsztyn.radioplus.pl/","kuriaol@olsztyn.opoka.org.pl","89 647 66 87 ","ks. mgr Stanisław Dźwil ","09:00; 10:30; 12:00","17:00","","","http://archwarmia.pl/parafie/parafie/szyldak-parafia-swietego-andrzeja-boboli/"
"Parafia Świętego Józefa Robotnika","","Szyleny","Szyleny 16, 14-500 Braniewo ","olsztyn.radioplus.pl/","piotrb10@vp.pl","55 243 38 39 ","ks. mgr lic. Piotr Babski ","08:00; 12:00","16:30 - środa - Nabożeństwo ku czci św. Józefa Robotnika; 17:00","","","http://archwarmia.pl/parafie/parafie/szyleny-parafia-swietego-jozefa-robotnika/"
"Parafia Matki Bożej Częstochowskiej","","Szymany","Szymany, 12-100 Szczytno ","olsztyn.radioplus.pl/","kuriaol@olsztyn.opoka.org.pl","604 525 140 ","ks. mgr Jacek Bacewicz ","09:00; 11:00; 13:00; 16:00 - wtorek i czwartek","08:00; 17:00 - (lub 8:00) w okresie zimowym; 18:00 - (lub 8:00) w okresie letnim","","","http://archwarmia.pl/parafie/parafie/szymany-parafia-matki-bozej-czestochowskiej/"
"Parafia Świętych Kosmy i Damiana","","Świątki","56, 11-008 Świątki ","olsztyn.radioplus.pl/","kuriaol@olsztyn.opoka.org.pl","89 616 98 95 ","ks. mgr Wojciech Ciarkowski ","08:30; 10:30; 12:00; 18:00 - w soboty","17:00 - w okresie zimowym; 18:00 - w okresie letnim","","","http://archwarmia.pl/parafie/parafie/swiatki-parafia-swietych-kosmy-i-damiana/"
"Parafia Nawiedzenia Najświętszej Maryi Panny","","Święta Lipka","Święta Lipka 29, 11-440 Reszel ","www.swlipka.org.pl","wkulisz@jezuici.pl","89 755 35 12, 89 755 35 21, 89 755 14 81 ","O. dr Aleksander Jacyniak ","07:00; 09:00; 11:00; 14:00; 17:00","07:00; 09:50 - od maja do września; 12:00 - od maja do września; 18:00","","","http://archwarmia.pl/parafie/parafie/swieta-lipka-parafia-nawiedzenia-najswietszej-maryi-panny/"
"Parafia Świętego Andrzeja Boboli","","Świętajno","Świętajno, ul. Żymierskiego 19, 12-140 Świętajno k. Szczytna ","olsztyn.radioplus.pl/","kuriaol@olsztyn.opoka.org.pl","89 622 60 24 ","ks. kan. mgr Krzysztof Witwicki ","07:30; 12:00; 17:00; 10:30; 09:00","18:00; 17:30 - w środy i I piątek miesiąca","","","http://archwarmia.pl/parafie/parafie/swietajno-parafia-swietego-andrzeja-boboli/"
"Parafia Świętego Jana Chrzciciela","","Targowo","Targowo 10, 12-120 Dźwierzuty ","olsztyn.radioplus.pl/","xignacyl1@wp.pl","89 621 14 49 ","ks. mgr lic. Tomasz Kowalski ","09:00; 12:00","14:30; 16:00; 16:00; 18:00","","","http://archwarmia.pl/parafie/parafie/targowo-parafia-swietego-jana-chrzciciela/"
"Parafia Świętego Marcina","","Tolkowiec","Tolkowiec 18, 14-526 Płoskinia ","olsztyn.radioplus.pl/","kuriaol@olsztyn.opoka.org.pl","55 243 16 81 ","ks. mgr lic. Jarosław Prusaczyk ","08:00; 10:00; 11:15","17:00","","","http://archwarmia.pl/parafie/parafie/tolkowiec-parafia-swietego-marcina/"
"Parafia Świętego Wojciecha","","Tyrowo","Tyrowo 31, 14-100 Ostróda ","olsztyn.radioplus.pl/","kuriaol@olsztyn.opoka.org.pl","89 647 63 84 ","ks. Leszek Nowak ","09:30; 11:00","08:30; 16:30","","","http://archwarmia.pl/parafie/parafie/tyrowo-parafia-swietego-wojciecha/"
"Parafia Świętego Stanisława Biskupa","","Waplewo","Waplewo 63, 11-015 Olsztynek ","olsztyn.radioplus.pl/","kuriaol@olsztyn.opoka.org.pl","89 513 92 48 ","ks. Janusz Koniec ","08:00; 10:00; 12:00","17:00; 18:00","","","http://archwarmia.pl/parafie/parafie/waplewo-parafia-swietego-stanislawa-biskupa/"
"Parafia Świętego Andrzeja Apostoła","","Wapnik","Wapnik, ul. Szymanowskiego 2/1, 11-135 Lubomino ","olsztyn.radioplus.pl/","kuriaol@olsztyn.opoka.org.pl","89 616 07 10 ","ks. kap. hon. mgr Stanisław Borowiecki ","11:00","15:00 - w I piątek miesiąca","15:00","","http://archwarmia.pl/parafie/parafie/wapnik-parafia-swietego-andrzeja-apostola/"
"Parafia Świętego Antoniego Padewskiego","","Warpuny","Warpuny, ul. Wolności 2, 11-731 Sorkwity ","olsztyn.radioplus.pl/","kuriaol@olsztyn.opoka.org.pl","89 742 94 78 ","ks. prał. dr Rajmund Jodko ","09:00; 11:00","09:00 - lipiec - sierpień; 17:00 - od września do czerwca","","","http://archwarmia.pl/parafie/parafie/warpuny-parafia-swietego-antoniego-padewskiego/"
"Parafia Chrystusa Króla","","Węgój","Węgój 60, 11-300 Biskupiec Reszelski ","olsztyn.radioplus.pl/","kuriaol@olsztyn.opoka.org.pl","89 715 43 65 ","ks. mgr lic. Wojciech Zdanuk ","09:00; 11:00","17:00","","","http://archwarmia.pl/parafie/parafie/wegoj-parafia-chrystusa-krola/"
"Parafia Świętego Jana Nepomucena","","Wielbark","ul. Ogrodowa 4, 12-161 Wielbark ","olsztyn.radioplus.pl/","kuriaol@olsztyn.opoka.org.pl","89 621 80 01 ","ks. kan. mgr lic. Stanisław Sito ","07:00; 09:30; 11:00; 12:30; 17:30","07:00; 09:45 - w I piątek miesiąca; 17:30","","","http://archwarmia.pl/parafie/parafie/wielbark-parafia-swietego-jana-nepomucena/"
"Parafia Wszystkich Świętych","","Wielkie Wierzno","Wielkie Wierzno, ul. Chruściel 43, 14-526 Płoskinia ","olsztyn.radioplus.pl/","kuriaol@olsztyn.opoka.org.pl","55 243 11 78 ","ks. mgr Radosław Gołębiewski ","10:00","","","","http://archwarmia.pl/parafie/parafie/wielkie-wierzno-parafia-wszystkich-swietych/"
"Parafia Chrystusa Króla","","Wigwałd","Wigwałd 8, 11-015 Olsztynek ","olsztyn.radioplus.pl/","kuriaol@olsztyn.opoka.org.pl","89 519 34 77 ","ks. mgr Andrzej Zdziarski ","09:00; 11:00; 13:00","17:00","","","http://archwarmia.pl/parafie/parafie/wigwald-parafia-chrystusa-krola/"
"Parafia Najświętszego Serca Pana Jezusa","","Wilkowo","Wilkowo 41, 11-440 Reszel ","olsztyn.radioplus.pl/","kuriaol@olsztyn.opoka.org.pl","89 752 16 93 ","ks. kan. dr Eugeniusz Bartusik ","07:45; 10:30; 13:00; 15:30 - w soboty w lipcu i sierpniu","17:00","","","http://archwarmia.pl/parafie/parafie/wilkowo-parafia-najswietszego-serca-pana-jezusa/"
"Parafia Matki Boskiej Nieustającej Pomocy","","Winda","Winda, 11-410 Barciany ","olsztyn.radioplus.pl/","kuriaol@olsztyn.opoka.org.pl","89 753 13 19 ","ks. mgr Stanisław Sienicki ","08:00; 12:00; 10:00","17:00","","","http://archwarmia.pl/parafie/parafie/winda-parafia-matki-boskiej-nieustajacej-pomocy/"
"Parafia Świętego Jana Vianneya i Narodzenia NMP","","Wipsowo",", 11-013 Wipsowo ","olsztyn.radioplus.pl/","kuriaol@olsztyn.opoka.org.pl","515 253 211 ","ks. mgr lic. Jan Mucha ","08:00; 11:00","08:00; 17:00","","","http://archwarmia.pl/parafie/parafie/wipsowo-parafia-swietego-jana-vianneya-i-narodzenia-nmp/"
"Parafia Świętego Andrzeja Boboli","","Wojciechy","Wojciechy, 11-200 Bartoszyce ","olsztyn.radioplus.pl/","kuriaol@olsztyn.opoka.org.pl","89 761 55 05 ","ks. mgr Jerzy Mika ","09:00; 12:00","07:00","","","http://archwarmia.pl/parafie/parafie/wojciechy-parafia-swietego-andrzeja-boboli/"
"Parafia Podwyższenia Krzyża Świętego","","Sułowo","Wozławki 49, 11-230 Bisztynek ","olsztyn.radioplus.pl/","kuriaol@olsztyn.opoka.org.pl","89 541 31 14 ","ks. mgr Aleksander Sieńkowski ","08:45 - w okresie zimowym; 12:00 - w okresie letnim","","","","http://archwarmia.pl/parafie/parafie/sulowo-parafia-podwyzszenia-krzyza-swietego/"
"Parafia Świętego Antoniego Opata","","Wozławki","Wozławki 49, 11-230 Bisztynek ","olsztyn.radioplus.pl/","kuriaol@olsztyn.opoka.org.pl","89 541 31 14 ","ks. mgr Aleksander Sieńkowski ","10:00; 17:00 - w okresie zimowym; 18:00 - w okresie letnim","08:00","","","http://archwarmia.pl/parafie/parafie/wozlawki-parafia-swietego-antoniego-opata/"
"Parafia Najświętszej Maryi Panny Królowej Męczenników","","Wójtowo","Wójtowo, ul. Kwiatowa 19, 11-010 Barczewo ","www.parafia.wojtowo.pl","bumbul@parafia.wojtowo.pl","89 513 97 50 ","ks. mgr lic. Krzysztof Bumbul ","09:00; 11:00; 17:00","19:00; 20:00 - 13. dnia miesiąca od maja do października nabożeństwa fatimskie","","","http://archwarmia.pl/parafie/parafie/wojtowo-parafia-najswietszej-maryi-panny-krolowej-meczennikow/"
"Parafia Świętej Marii Magdaleny","","Wrzesina","Wrzesina 28, 11-042 Jonkowo ","olsztyn.radioplus.pl/","kuriaol@olsztyn.opoka.org.pl","89 512 81 60 ","ks. mgr Remigiusz Klimkowski ","09:00; 11:00; 13:00","07:30; 16:30; 18:00","","","http://archwarmia.pl/parafie/parafie/wrzesina-parafia-swietej-marii-magdaleny/"
"Parafia Świętego Maksymiliana Marii Kolbego","","Zagaje","Zagaje 9, 14-521 Lelkowo ","olsztyn.radioplus.pl/","kuriaol@olsztyn.opoka.org.pl","55 244 87 78 ","ks. mgr Jakub Ilczuk ","09:00; 11:00","18:00","","","http://archwarmia.pl/parafie/parafie/zagaje-parafia-swietego-maksymiliana-marii-kolbego/"
"Parafia Świętego Jana Ewangelisty","","Żegoty","Żegoty 39, 11-108 Żegoty ","olsztyn.radioplus.pl/","kuriaol@olsztyn.opoka.org.pl","89 766 08 24 ","ks. mgr lic. Adam Narbut ","09:00; 12:30","17:00; 18:00","","","http://archwarmia.pl/parafie/parafie/zegoty-parafia-swietego-jana-ewangelisty/"
"Parafia Świętej Rodziny","","Żelazna Góra","Żelazna Góra 33 A, 14-500 Braniewo ","olsztyn.radioplus.pl/","kuriaol@olsztyn.opoka.org.pl","55 243 12 70 ","ks. kan. mgr Władysław Kuras ","10:15; 12:15","17:00","","","http://archwarmia.pl/parafie/parafie/zelazna-gora-parafia-swietej-rodziny/"
"Parafia Narodzenia Najświętszej Maryi Panny","","Żydowo","Żydowo 17, 11-200 Bartoszyce ","olsztyn.radioplus.pl/","parafiazydowo@vp.pl","89 763 30 81 ","ks. mgr Mariusz Grabas ","09:00; 10:30; 12:00","08:00","","","http://archwarmia.pl/parafie/parafie/ydowo-parafia-narodzenia-najswietszej-maryi-panny/"
