"name","postal","city","address","www","email","phone","rector","sun","week","fest","latlng","url"
"Parafia Wieczerzy Pańskiej","","","ul. Ks. S. Szulczyka 14/16, 04-965 Warszawa","www.parafiaaleksandrow.pl","parafiaalesandrow@wp.pl","22 872 18 74","Ks. Chrząszcz Wiesław","09:00, 10:30 (z udziałem dzieci), 12:00, 18:00 (dla młodzieży)","(wg ogłoszeń)","","","http://www.diecezja.waw.pl/struktura/parafie/2/"
"Parafia Matki Bożej Królowej Polski","","","ul. Rzeźbiarska 46, 04-620 Warszawa","www.anin.parafia.info.pl","anin.parafia@wp.pl","22 613 07 20","Ks. Doszko Marek","07:00, 08:30, 10:00, 11:30, 13:00 (poza wakacjami), 18:00","07:00, 08:00 (poza wakacjami), 18:00","","","http://www.diecezja.waw.pl/struktura/parafie/3/"
"Parafia Bł. Karoliny Kózkówny","","","ul. Wczasowa 24, 05-127 Białobrzegi","parafiabialobrzegi.pl","","22 772 50 30","Ks. Kruszewski Marek","09:00, 10:30 (kaplica w Ryni), 12:00","17:00 (oprócz poniedziałku), 18:00 (kaplica w Ryni w I piątek miesiąca), 20:00 (w I piątek miesiąca)","","","http://www.diecezja.waw.pl/struktura/parafie/48/"
"Parafia Św. Maksymiliana Kolbego","","","ul. Ks. W. Malinowskiego 34, 05-410 Józefów-Błota","www.parafiablota.pl","proboszcz@parafiablota.pl","22 789 44 14","Ks. Ludwiczak Przemysław","08:00, 10:00 (z udziałem dzieci), 12:00, 17:00","08:00 (w poniedziałek, wtorek i środę), 18:00 (oprócz wtorku)","","","http://www.diecezja.waw.pl/struktura/parafie/1/"
"Parafia Matki Bożej z Guadalupe","","","ul. Mazowiecka 33, Budy Barcząckie, 05-300 Mińsk Mazowiecki","","","722 043 355","Ks. Praszczałek Adam","08:00, 10:00, 12:00, 17:00","","","","http://www.diecezja.waw.pl/struktura/parafie/84/"
"Parafia Św. Jana Chrzciciela","","","pl. Anny Jagiellonki 21, 05-319 Cegłów","www.parafiaceglow.pl","","25 757 01 17","Ks. Cempura Dariusz","09:00, 10:00 (DPS, Mienia 94), 11:30, 18:00","08:00, 18:00","","","http://www.diecezja.waw.pl/struktura/parafie/83/"
"Parafia Wniebowzięcia Najświętszej Maryi Panny","","","pl. kard. Stefana Wyszyńskiego 3, 05-430 Celestynów","www.celestynow.waw.pl","parafia.celestynow@gmail.com","22 719 27 44","Ks. Wasiak Mirosław","07:00, 09:00, 10:30, 12:00, 16:00 (kaplica w Regucie), 18:00","07:00, 18:00","","","http://www.diecezja.waw.pl/struktura/parafie/120/"
"Ośrodek duszpasterski Św. Józefa","","","Choszczówka Stojecka 50A, 05-300 Mińsk Mazowiecki","","","25 759 92 92","","09:00, 11:00","06:30 (w Adwencie)","","","http://www.diecezja.waw.pl/struktura/parafie/94/"
"Parafia Wniebowzięcia Najświętszej Maryi Panny","","","ul. Partyzantów 8, 05-123 Chotomów","www.parafiachotomow.pl","","","Ks. Kołoniecki Leszek","07:30, 09:00, 10:30 (z udziałem dzieci), 12:00, 18:00, 20:00 (w wakacje)","08:00, 18:00","","","http://www.diecezja.waw.pl/struktura/parafie/73/"
"Parafia Bł. Honorata Koźmińskiego","","","ul. Żwirowa 2, Chrośla, 05-311 Dębe Wielkie","www.diecezja.waw.pl/chrosla","","25 757 71 06","Ks. Wnuk Bogusław Józef","09:30 (w wakacje), 11:00, 16:00 (oprócz wakacji)","","","","http://www.diecezja.waw.pl/struktura/parafie/95/"
"Parafia Podwyższenia Krzyża Świętego","","","ul. Kościelna 30, 05-252 Dąbrówka","www.parafiadabrowka.pl","","","Ks. Mackiewicz Jerzy Karol","07:00, 09:00, 10:30 (z udziałem dzieci), 12:00, 17:00","07:00, 17:00","","","http://www.diecezja.waw.pl/struktura/parafie/128/"
"Parafia Świętych Apostołów Piotra i Pawła","","","ul. Kościelna 2, 05-311 Dębe Wielkie","www.facebook.com/ParafiaDebeWielkie","","25 757 78 93","Ks. Zaraś Henryk Michał","07:00, 09:00, 10:30, 12:00, 18:00","07:00, 18:00","","","http://www.diecezja.waw.pl/struktura/parafie/96/"
"Parafia Św. Anny","","","ul. Powstania Styczniowego 83, Długa Kościelna, 05-074 Halinów","www.diecezja.waw.pl/dlugakoscielna","","22 783 60 88","Ks. Ruciński Jan","09:00, 10:30 (z udziałem dzieci), 12:00, 18:00","17:00, 18:00","","","http://www.diecezja.waw.pl/struktura/parafie/153/"
"Parafia Św. Mikołaja","","","ul. Rynek 30A, 05-307 Dobre","www.parafiadobre.pl","","25 757 11 93","Ks. Chojnicki Grzegorz","08:15, 10:00 (poza wakacjami), 11:00 (w wakacje), 12:00 (poza wakacjami), 16:00 (poza wakacjami), 17:00 (w wakacje)","17:00","","","http://www.diecezja.waw.pl/struktura/parafie/147/"
"Parafia Matki Bożej Nieustającej Pomocy","","","ul. Willowa 9, Duczki, 05-200 Wołomin","www.parafiaduczki.pl","","22 776 40 56","Ks. Kałęcki Józef","07:00, 08:30, 10:00, 11:30, 18:00","07:00, 18:00","","","http://www.diecezja.waw.pl/struktura/parafie/166/"
"Parafia Najświętszego Serca Pana Jezusa","","","ul. Narcyzowa 18, 04-930 Warszawa","www.parafia.falenica.pl","parafia@falenica.pl","22 612 74 24","","07:00, 08:30, 10:00, 11:30, 13:00, 18:00","07:00, 18:00","","","http://www.diecezja.waw.pl/struktura/parafie/4/"
"Parafia Św. Józefa Oblubieńca Najświętszej Maryi Panny i Św. Franciszka","","","Franciszków 68, 05-240 Tłuszcz","","","29 591 05 03","Ks. Chyła Jerzy","09:00, 12:00","(8:00 lub 18:00, wg ogłoszeń)","","","http://www.diecezja.waw.pl/struktura/parafie/160/"
"Parafia Św. Wawrzyńca","","","ul. Wawrzyniecka 149, 05-408 Glinianka","www.parafiaglinianka.pl","","22 789 97 97","Ks. Krzesiński Krzysztof","08:00, 10:00, 11:30, 17:00 (od października do kwietnia), 18:00 (od maja do września)","07:30 (oprócz maja i października), 18:00 (w maju i październiku)","","","http://www.diecezja.waw.pl/struktura/parafie/109/"
"Parafia Św. Michała Archanioła","","","ul. Głębocka 119, 03-289 Warszawa","www.archaniol.waw.pl","parafiaglebocka@wp.pl","22 675 88 79","Ks. Ścisłowski Adam Antoni","07:30, 10:00, 11:30, 13:00, 18:00, 20:00","08:00, 18:00","","","http://www.diecezja.waw.pl/struktura/parafie/16/"
"Parafia Św. Kazimierza Królewicza","","","ul. Mazowiecka 45, Grzebowilk, 05-332 Siennica","figowiec.net","parafia.grzebowilk@gmail.com","","Ks. Ryglewicz Janusz Tadeusz","07:30, 09:30 (kaplica w Teresinie), 11:30","06:30 (we wtorek i czwartek), 07:30 (w sobotę), 18:00 (w poniedziałek, środę i piątek)","","","http://www.diecezja.waw.pl/struktura/parafie/97/"
"Parafia Matki Bożej Nieustającej Pomocy","","","Guzew 102, 05-320 Mrozy","mojaparafia.eu/?p=2","guzew@mojaparafia.eu","25 752 67 75","Ks. Długosz Robert","08:45 (kaplica szpitalna w Rudce), 10:00, 11:00","17:00","","","http://www.diecezja.waw.pl/struktura/parafie/139/"
"Parafia Matki Bożej Częstochowskiej","","","Gwizdały 1A, 07-130 Łochów","","","25 675 28 82","O. Kapała Rafał SSCC, od 01.12.2013","07:30, 09:15, 10:45 (kaplica w Kaliskach), 12:30","08:30 (w sobotę), 17:00 (oprócz soboty od października do marca), 18:00 (oprócz soboty od kwietnia do września)","","","http://www.diecezja.waw.pl/struktura/parafie/58/"
"Parafia Najświętszej Maryi Panny Matki Łaski Bożej","","","ul. Okuniewska 61, 05-074 Halinów","www.parafiahalinow.pl","parafiahalinow@gmail.com","22 783 60 74","Ks. Szewczyk Robert Rafał","07:00, 10:00, 12:00 (z udziałem dzieci), 16:00 (poza wakacjami), 19:00","07:00, 18:00","","","http://www.diecezja.waw.pl/struktura/parafie/154/"
"Parafia Św. Faustyny","","","ul. Boryny 8, Helenów, 05-200 Wołomin","www.faustynahelenow.pl","","22 787 10 50","Ks. Węgrzynowicz Ireneusz","09:00, 11:00, 18:00","07:00 (we wtorek oprócz maja, czerwca, października i listopada)","","","http://www.diecezja.waw.pl/struktura/parafie/167/"
"Parafia Matki Bożej Nieustającej Pomocy","","","ul. Nowa 1, Huta Mińska, 05-300 Mińsk Mazowiecki","","","25 758 07 75","Ks. Piotrowski Andrzej Grzegorz","08:00, 11:00, 17:00","18:00","","","http://www.diecezja.waw.pl/struktura/parafie/85/"
"Parafia Św. Antoniego z Padwy","","","ul. Ignaców 11, 05-300 Mińsk Mazowiecki","","parafia.ignacow@wp.pl","25 759 26 11","Ks. Staszczyszyn Edward CM, od 25.06.2004","","","","","http://www.diecezja.waw.pl/struktura/parafie/86/"
"Parafia Matki Bożej Królowej Polski","","","ul. Modlińska 105A, 05-110 Jabłonna","www.parafiajablonna.info","admin@parafiajablonna.info","22 782 42 96","Ks. Sieńkowski Jerzy","07:30, 09:00, 10:30, 12:00, 18:00","07:00, 18:00","","","http://www.diecezja.waw.pl/struktura/parafie/74/"
"Parafia Św. Jakuba Apostoła","","","pl. Gustawa Dreszera 11, 05-280 Jadów","","","25 675 47 79","Ks. Bocheński Wiesław Marian","09:00, 10:30, 12:00","07:00","","","http://www.diecezja.waw.pl/struktura/parafie/59/"
"Parafia Św. Anny","","","05-306 Jakubów 39","","parafia.swannyjakubow@wp.pl","25 757 91 93","Ks. Tempczyk Mirosław","09:00, 10:30, 12:00, 17:00","17:00","","","http://www.diecezja.waw.pl/struktura/parafie/87/"
"Parafia Św. Bartłomieja Apostoła","","","ul. Nowodworska 17, 05-124 Janówek Pierwszy","www.diecezja.waw.pl/janowek","","22 713 89 16","Ks. Gołembiewski Jan Kazimierz","09:30, 11:00, 18:00","(7:00 lub 18:00, wg ogłoszeń)","","","http://www.diecezja.waw.pl/struktura/parafie/106/"
"Parafia Narodzenia Pańskiego","","","ul. Kościelna 2, Jasienica, 05-240 Tłuszcz","www.parafiajasienica.waw.pl","parafiajasienica@neostrada.pl","29 757 36 98","Ks. Kozera Krzysztof","08:00, 10:00 (z udziałem dzieci), 12:00, 18:00","(wg ogłoszeń)","","","http://www.diecezja.waw.pl/struktura/parafie/161/"
"Parafia Św. Wojciecha Biskupa Męczennika","","","ul. Rynek 2, 05-317 Jeruzal","www.jeruzal1.parafia.info.pl","kancelaria@parafiajeruzal.pl","25 752 32 93","Ks. Bajurski Leszek Tomasz","09:00, 11:15","17:00 (w maju)","","","http://www.diecezja.waw.pl/struktura/parafie/140/"
"Parafia Matki Bożej Częstochowskiej","","","ul. Piotra Skargi 24, 05-420 Józefów","www.parafiajozefow.pl","parafia@parafiajozefow.pl","22 789 21 05","Ks. Gniedziejko Kazimierz","07:00, 08:30, 09:30 (w nadzwyczajnej formie Rytu Rzymskiego w dolnym kościele), 10:00, 11:30, 13:00 (poza wakacjami), 18:00, 20:00","06:30 (poza wakacjami), 07:00 (poza Adwentem), 08:30, 18:00","","","http://www.diecezja.waw.pl/struktura/parafie/121/"
"Parafia Św. Jana Chrzciciela","","","ul. Kasprowicza 2, 05-410 Józefów-Michalin","www.parafia.michalin.pl","","22 789 27 27","Ks. Klimek Piotr","08:00, 10:00, 11:30, 13:00 (poza wakacjami), 18:00","07:00, 08:30, 17:30 (poza styczniem, lutym i wakacjami), 18:00","","","http://www.diecezja.waw.pl/struktura/parafie/110/"
"Parafia Najświętszej Maryi Panny Królowej","","","ul. Sienkiewicza 12, 05-119 Legionowo","www.parafia-jozefow.pl","nmp@parafia-jozefow.pl","22 774 84 94","Ks. Kozłowski Marek","09:00, 11:00, 12:30 (z udziałem dzieci), 18:00","06:30 (poza wakacjami), 18:00","","","http://www.diecezja.waw.pl/struktura/parafie/50/"
"Parafia Miłosierdzia Bożego","","","ul. Kościelna 7A, Józefów, 05-254 Kuligów","","","29 757 93 25","Ks. Legutko Andrzej","09:00, 11:30, 16:00","17:00","","","http://www.diecezja.waw.pl/struktura/parafie/129/"
"Parafia Wniebowzięcia Najświętszej Maryi Panny","","","ul. Mickiewicza 2, 05-310 Kałuszyn","www.parafiakaluszyn.strefa.pl","","25 757 67 93","Ks. Szymański Władysław","07:00, 09:00, 11:00, 12:30 (kaplica w Nowych Groszkach), 17:00","07:00","","","http://www.diecezja.waw.pl/struktura/parafie/88/"
"Parafia Wniebowzięcia Najświętszej Maryi Panny","","","ul. Kard. Stefana Wyszyńskiego 6, Kamieńczyk, 07-202 Wyszków","www.diecezja.waw.pl/kamienczyk","parkamienczyk@gmail.com","29 741 17 93","Ks. Klepacki Kazimierz","08:00 (kaplica w Skuszewie), 09:00, 11:00, 12:30 (kaplica w Kukawkach), 18:00 (od kwietnia do października)","17:00 (od listopada do marca), 18:00 (od kwietnia do października)","","","http://www.diecezja.waw.pl/struktura/parafie/60/"
"Parafia Św. Wita","","","ul. Ks. Zaboklickiego 12, 05-480 Karczew","www.parafiakarczew.pl","","22 780 65 19","Ks. Sobczyk Andrzej","07:00, 09:00, 10:30, 12:00, 18:00","07:00, 08:00, 18:00","","","http://www.diecezja.waw.pl/struktura/parafie/122/"
"Parafia Św. Łukasza Ewangelisty","","","ul. Sprawna 9, 03-147 Warszawa","www.swlukasz.pl","parafia@swlukasz.pl","731 953 284","Ks. Knych Marek Adam","08:30, 10:00, 11:15 (z udziałem dzieci), 12:30, 17:00, 18:00 (w sobotę wg formularza niedzielnego), 19:00","08:00 (w sobotę), 18:00, 18:00 (poza sobotą)","","","http://www.diecezja.waw.pl/struktura/parafie/53/"
"Parafia Najświetszej Maryi Panny Królowej Pokoju","","","Kiciny 57, 07-230 Zabrodzie","","","514 189 496","Ks. Śpiewak Zbigniew","09:30, 12:00","07:00","","","http://www.diecezja.waw.pl/struktura/parafie/61/"
"Parafia Św. Anny","","","Kiczki Drugie 32, 05-319 Cegłów","www.parafiakiczki.pl","parafia@parafiakiczki.pl","25 757 81 13","Ks. Safader Sławomir","08:00, 09:30, 11:30","(8:00 lub 17:00, wg ogłoszeń)","","","http://www.diecezja.waw.pl/struktura/parafie/141/"
"Parafia Św. Klemensa Papieża i Męczennika","","","ul. Gen. Fr. Żymirskiego 39, 05-205 Klembów","www.klembow.parafia.rel.pl","","29 777 90 90","Ks. Powała Fabian","08:00, 10:00 (z udziałem dzieci), 12:00, 16:00 (poza wakacjami)","07:30 (od listopada do kwietnia), 08:00 (od listopada do kwietnia), 18:00 (od maja do października)","","","http://www.diecezja.waw.pl/struktura/parafie/168/"
"Ośrodek duszpasterski Chrystusa Najwyższego Kapłana","","","ul. Kobiałka 49, 03-044 Warszawa","www.parafiakobialka.org","parafiakobialka@gmail.com","","","08:30, 10:00, 12:00, 19:00","08:00 (w czwartek), 09:00 (w sobotę), 18:00 (poza czwartkiem)","","","http://www.diecezja.waw.pl/struktura/parafie/49/"
"Parafia Św. Kazimierza Królewicza","","","ul. Królewska 15, 05-230 Kobyłka","www.parafiastefanowka.pl","parafiastefanowka@wp.pl","22 786 14 89","Ks. Śliwka Piotr Marek","08:00, 10:00, 11:30, 13:00 (poza wakacjami), 18:00","07:00, 18:00","","","http://www.diecezja.waw.pl/struktura/parafie/67/"
"Parafia Świętej Trójcy","","","ul. Kościelna 2, 05-230 Kobyłka","www.trojca.org.pl","","22 786 10 28","Ks. Andrzejewski Jan","07:00, 08:30, 10:00 (dla młodzieży), 11:30 (z udziałem dzieci), 13:00, 18:00","07:00, 07:30, 18:00","","","http://www.diecezja.waw.pl/struktura/parafie/66/"
"Parafia Świętej Trójcy","","","ul. Kościuszki 25, 05-340 Kołbiel","www.parafiakolbiel.pl","","25 757 30 19","Ks. Pietrusiński Jan","07:00, 09:00, 10:30, 11:00 (kaplica w Radachówce), 12:00","07:00, 08:00","","","http://www.diecezja.waw.pl/struktura/parafie/98/"
"Parafia Matki Bożej Królowej Polski","","","ul. Czerska 21, 05-400 Otwock","www.parafiaotwock.pl","","22 719 96 50","Ks. Śmigasiewicz Jan","07:00, 08:30, 10:00, 11:30, 13:00, 18:00","07:00, 18:00","","","http://www.diecezja.waw.pl/struktura/parafie/123/"
"Parafia Matki Bożej Jasnogórskiej","","","Królewiec 85, 05-300 Mińsk Mazowiecki","www.diecezja.waw.pl/krolewiec","","25 759 69 66","Ks. Świątkiewicz Arkadiusz","09:00, 11:00 (z udziałem dzieci), 18:00","08:00 (w czwartek), 18:00 (oprócz czwartku)","","","http://www.diecezja.waw.pl/struktura/parafie/99/"
"Parafia Św. Marcina i Mikołaja","","","Kuflew 9, 05-320 Mrozy","","","25 757 88 93","Ks. Kulbat Krzysztof Zbigniew","08:00, 10:00 (kaplica w Sokolniku), 11:30","08:00, 18:00","","","http://www.diecezja.waw.pl/struktura/parafie/142/"
"Parafia Matki Bożej Loretańskiej","","","ul. Kościelna 2, 05-254 Kuligów","","","29 758 00 30","Ks. Kalisiak Robert","09:00, 11:00","","","","http://www.diecezja.waw.pl/struktura/parafie/130/"
"Parafia Świętej Trójcy","","","ul. Rynek 10, 05-334 Latowicz","","parafialatowicz@onet.pl","25 752 11 75","Ks. Mierzejewski Ryszard Stanisław","","","","","http://www.diecezja.waw.pl/struktura/parafie/143/"
"Parafia Matki Bożej Fatimskiej","","","ul. Orląt Lwowskich 8, 05-119 Legionowo","www.mbfatimska.pl","","22 772 82 55","Ks. Chciałowski Tomasz","07:30, 09:00, 11:00 (z udziałem dzieci), 12:30, 18:00 (od października do kwietnia), 19:00 (od maja do września)","17:00 (od października do kwietnia), 18:00, 19:00 (od maja do września)","","","http://www.diecezja.waw.pl/struktura/parafie/75/"
"Parafia Miłosierdzia Bożego","","","ul. Targowa 48, 05-120 Legionowo","","","22 774 44 64","Ks. Och Witold Stanisław","07:30, 09:00, 10:30, 12:00, 13:15, 18:00","16:00 (poza wakacjami), 17:00, 18:00","","","http://www.diecezja.waw.pl/struktura/parafie/76/"
"Parafia Najświętszego Ciała i Krwi Chrystusa","","","ul. Piłsudskiego 47, 05-120 Legionowo","www.diecezja.waw.pl/ncik","ncik@diecezja.waw.pl","22 774 38 78","Ks. Średnicki Hieronim Zbigniew","07:30, 09:00, 10:15, 11:30, 12:45, 16:00 (poza wakacjami), 18:00","07:00, 07:30 (poza wakacjami), 18:00","","","http://www.diecezja.waw.pl/struktura/parafie/77/"
"Parafia Św. Jana Kantego","","","ul. Ks. J. Schabowskiego 2, 05-120 Legionowo","www.jankantylegionowo.pl","","22 774 27 53","Ks. Szcześniak Lucjan","07:00, 08:30, 10:00, 11:30 (z udziałem dzieci), 13:00 (dla młodzieży poza wakacjami), 18:00, 20:00 (w wakacje)","06:15 (w Adwencie), 06:30 (poza Adwentem), 06:45 (w Adwencie), 07:00 (poza Adwentem), 18:00","","","http://www.diecezja.waw.pl/struktura/parafie/78/"
"Parafia Św. Józefa Oblubieńca Najświetszej Maryi Panny","","","ul. Piłsudskiego 5, 05-120 Legionowo","www.legionowo.ordynariat.pl","legionowo@ordynariat.pl","666 210 023","Ks. Pawelak Zenon, od 19.11.2012","07:00, 08:30, 10:00, 11:30 (z udziałem dzieci), 13:00 (poza wakacjami), 18:00 (poza wakacjami), 19:00 (w wakacje)","07:00, 07:30 (poza wakacjami), 18:00","","","http://www.diecezja.waw.pl/struktura/parafie/79/"
"Parafia Św. Szczepana Pierwszego Męczęnnika","","","ul. Głębocka 74, 03-287 Warszawa","www.swietyszczepan.pl","parafia@swietyszczepan.pl","668 127 373","Ks. Paska Marek","08:00, 09:30, 11:00 (z udziałem dzieci), 12:30, 19:00","07:00 (w wakacje), 18:00 (poza wakacjami)","","","http://www.diecezja.waw.pl/struktura/parafie/547/"
"Parafia Św. Antoniego z Padwy","","","ul. Lipowa 1, Lucynów Duży, 07-201 Wyszków","parafia.lucynowduzy.pl","","29 742 45 86","Ks. Niewęgłowski Dariusz","09:00, 10:30, 12:00","08:00 (w środę), 18:00 (poza środą)","","","http://www.diecezja.waw.pl/struktura/parafie/131/"
"Parafia Miłosierdzia Bożego","","","ul. Ługi 58A, 05-400 Otwock","www.diecezja.waw.pl/lugi","","22 788 26 46","Ks. Seta Kazimierz","07:00, 09:00, 10:30 (z udziałem dzieci), 12:00, 18:00","07:00, 18:00","","","http://www.diecezja.waw.pl/struktura/parafie/124/"
"Parafia Najświętszej Maryi Panny Królowej Różańca Świętego","","","ul. Kard. Stefana Wyszyńskiego 5, Majdan, 05-200 Wołomin","www.diecezja.waw.pl/majdan","","22 787 80 41","Ks. Lewiński Bogdan Stanisław","09:00, 11:30","","","","http://www.diecezja.waw.pl/struktura/parafie/169/"
"Parafia Matki Bożej Królowej Polski","","","ul. Jutrzenki 26, 05-260 Marki","www.parafiamarkipustelnik.pl","","22 771 22 91","Ks. Makowski Wojciech Wiesław","07:00, 08:00 (kaplica Sióstr Franciszkanek Rodziny Maryi), 09:00, 10:30, 12:00, 18:00","07:00 (kaplica Sióstr Franciszkanek Rodziny Maryi), 08:00, 18:00","","","http://www.diecezja.waw.pl/struktura/parafie/177/"
"Parafia Najświętszej Maryi Panny Matki Kościoła","","","ul. Ząbkowska 54B, 05-270 Marki","www.nmp-mk.pl","parafianmp@onet.eu","500 396 036","Ks. Gugała Dariusz","07:00, 09:00, 11:00, 18:00","07:00, 18:00","","","http://www.diecezja.waw.pl/struktura/parafie/176/"
"Parafia Św. Andrzeja Boboli","","","al. Józefa Piłsudskiego 248/252, 05-261 Marki","www.marki.michalici.pl","","22 781 14 92","Ks. Żurad Adam CSMA, od 27.07.2014","07:00, 08:30, 10:00, 11:30, 18:00","07:00, 18:00","","","http://www.diecezja.waw.pl/struktura/parafie/68/"
"Parafia Św. Izydora","","","al. Józefa Piłsudskiego 93, 05-270 Marki","www.izydormarki.pl","kancelaria@izydormarki.pl","22 781 10 51","Ks. Sztajerwald Kazimierz Edward","07:00, 09:00, 10:15, 12:00 (z udziałem dzieci), 18:00","07:00, 08:00, 18:00","","","http://www.diecezja.waw.pl/struktura/parafie/175/"
"Parafia Św. Feliksa z Kantalicjo","","","ul. Kościuszkowców 85A, 04-545 Warszawa","www.parafiaswfeliksa.pl","","22 815 46 16","Ks. Czerwiński Bernard","07:00, 08:30, 10:00, 11:30 (z udziałem dzieci poza wakacjami), 13:00, 18:30","06:45 (w Adwencie), 07:00 (poza Adwentem), 08:00, 18:30","","","http://www.diecezja.waw.pl/struktura/parafie/41/"
"Parafia Św. Jana Chrzciciela","","","ul. Kard. Wyszyńskiego 31, Miąse, 05-240 Tłuszcz","www.parafia.miase.pl","","29 757 24 46","Ks. Dobosz Ryszard","09:00, 11:00","17:00 (od października do lutego), 18:00 (od marca do września)","","","http://www.diecezja.waw.pl/struktura/parafie/162/"
"Parafia Dobrego Pasterza","","","ul. Przewodowa 15/21, 04-874 Warszawa","www.dobregopasterza.org.pl","dobregopasterza@dobregopasterza.org.pl","22 243 26 19","Ks. Ożóg Marcin","08:30, 10:30 (z udziałem dzieci), 12:00, 19:00 (poza wakacjami), 20:00 (w wakacje)","06:30 (w Adwencie), 08:30, 18:30","","","http://www.diecezja.waw.pl/struktura/parafie/7/"
"Parafia Matki Bożej Dobrej Rady","","","ul. Szafirowa 58, 04-954 Warszawa","www.parafiamiedzeszyn.pl","","22 872 05 83","Ks. Gajda Witold Józef","08:00, 10:00, 11:30 (z udziałem dzieci), 13:00, 18:00","07:00, 18:00","","","http://www.diecezja.waw.pl/struktura/parafie/6/"
"Parafia Imienia Najświętszej Maryi Panny","","","ul. Bursztynowa 16, 04-749 Warszawa","imieniamaryi.netstrefa.pl","kancelaria@imieniamaryi.netstrefa.pl","22 812 60 90","Ks. Sławiński Grzegorz","07:00, 08:30, 10:00, 11:30 (z udziałem dzieci), 13:00 (poza wakacjami), 18:00 (dla młodzieży)","07:00, 18:00","","","http://www.diecezja.waw.pl/struktura/parafie/8/"
"Parafia Przemienienia Pańskiego","","","ul. Armii Krajowej 34, 05-071 Sulejówek-Miłosna","www.parafiamilosna.pl","milosna@wpraga.opoka.org.pl","22 783 55 39","Ks. Czajkowski Antoni","07:00, 08:00, 09:30, 11:00 (z udziałem dzieci), 12:30, 18:00","07:00, 18:00","","","http://www.diecezja.waw.pl/struktura/parafie/157/"
"Parafia Najświętszego Serca Pana Jezusa","","","ul. Borkowska 1, 05-077 Warszawa-Wesoła","www.parafiastaramilosna.pl","parafiastaramilosna@gmail.com","22 773 39 35","Ks. Cyliński Krzysztof Piotr","08:00, 09:30, 11:00 (z udziałem dzieci), 12:30, 18:00","16:00 (w środę w styczniu)","","","http://www.diecezja.waw.pl/struktura/parafie/44/"
"Parafia Św. Hieronima","","","ul. Rumiankowa 2/4, 05-077 Warszawa-Wesoła","www.swhieronim.waw.pl","parafia@swhieronim.waw.pl","22 773 26 07","Ks. Popis Stanisław","08:00, 10:00, 11:30 (z udziałem dzieci), 13:00, 18:00 (dla młodzieży poza wakacjami), 19:00 (w wakacje)","07:00, 18:00","","","http://www.diecezja.waw.pl/struktura/parafie/45/"
"Parafia Narodzenia Najświetszej Maryi Panny","","","ul. Kościelna 1, 05-300 Mińsk Mazowiecki","www.parafiaminsk.pl","","25 758 25 38","Ks. Sędek Marek Lech","06:30, 08:00, 09:30, 11:00, 12:30, 16:00 (poza wakacjami), 18:00","06:30, 07:00, 08:00, 18:00","","","http://www.diecezja.waw.pl/struktura/parafie/89/"
"Parafia Św. Antoniego z Padwy","","","ul. Stefana Kardynała Wyszyńskiego 54, 05-300 Mińsk Mazowiecki","","","25 758 50 28","Ks. Byrski Jan","07:00, 08:30, 10:00, 11:15, 12:30, 16:00 (poza wakacjami), 18:00","07:00, 07:45 (poza wakacjami), 08:30, 18:00","","","http://www.diecezja.waw.pl/struktura/parafie/100/"
"Parafia Św. Jana Chrzciciela","","","ul. Gen. Sosnkowskiego 43A, 05-300 Mińsk Mazowiecki","","","","Ks. Sobieszek Marian","07:30, 09:00, 11:00, 17:00","07:00","","","http://www.diecezja.waw.pl/struktura/parafie/101/"
"Parafia Św. Michała Archanioła","","","ul. Bolesława Chrobrego 2, 05-300 Mińsk Mazowiecki","www.michal.ordynariat.pl","par.michal@ordynariat.pl","25 754 55 69","Ks. Prus Adam, od 21.04.2013","07:15 (Karmel w Nowych Osinach), 09:00, 10:30, 12:00, 18:00","18:00","","","http://www.diecezja.waw.pl/struktura/parafie/90/"
"Ośrodek duszpasterski Matki Bożej Fatimskiej","","","Mistów 24C, 05-306 Jakubów","www.parafiamistow.pl","","25 757 95 91","","09:00, 11:00","08:30 (w czwartek i sobotę), 18:00 (w poniedziałek, wtorek, środę i piątek)","","","http://www.diecezja.waw.pl/struktura/parafie/91/"
"Parafia Matki Bożej Nieustającej Pomocy","","","ul. Laskowa 38, 05-400 Otwock","www.diecezja.waw.pl/mladz","","22 788 44 33","Ks. Micek Bronisław","09:00, 11:00, 17:00","07:00 (we wtorek), 18:00 (poza wtorkiem)","","","http://www.diecezja.waw.pl/struktura/parafie/115/"
"Parafia Miłosierdzia Bożego","","","ul. Akacjowa 2, Mostówka, 07-230 Zabrodzie","","","29 758 25 33","Ks. Grygier Janusz","09:00, 11:00, 16:00 (od listopada do marca), 18:00 (od kwietnia do października)","07:00 (w czwartki poza majem, czerwcem i paźdiernikiem), 16:00 (poza czwartkiem w okresie od listopada do marca)","","","http://www.diecezja.waw.pl/struktura/parafie/132/"
"Parafia Św. Teresy od Dzieciątka Jezus","","","ul. Św. Teresy 3, 05-320 Mrozy","mojaparafia.eu/?p=3","mrozy@mojaparafia.eu","25 757 41 93","Ks. Pietrzak Krzysztof","08:00, 09:30, 11:45, 18:00","08:00, 18:00","","","http://www.diecezja.waw.pl/struktura/parafie/92/"
"Parafia Św. Jana Chrzciciela","","","ul. Prymasa Tysiąclecia 17, Nadma, 05-261 Marki","www.parafianadma.pl","proboszcz@parafianadma.pl","22 762 33 03","Ks. Mioduchowski Grzegorz","08:30, 10:00, 12:00, 18:00","07:00 (we wtorek), 18:00 (poza wtorkiem)","","","http://www.diecezja.waw.pl/struktura/parafie/69/"
"Parafia Trójcy Świętej","","","ul. Kościelna 41, Niegów, 07-230 Zabrodzie","www.parafianiegow.ns48.pl","","29 757 12 07","Ks. Rybicki Andrzej","07:00, 09:00, 11:30, 17:00 (od października do marca), 18:00 (od kwietnia do września)","07:00, 17:00 (od października do marca), 18:00 (od kwietnia do września)","","","http://www.diecezja.waw.pl/struktura/parafie/133/"
"Parafia Niepokalanego Poczęcia Najświętszej Maryi Panny","","","ul. Plac Wolności 3, 05-126 Nieporęt","www.parafia-nieporet.pl","kontakt@parafia-nieporet.pl","22 774 83 17","Ks. Trojanowski Władysław","07:30, 09:00, 10:30 (z udziałem dzieci), 12:30, 17:00","07:30, 17:00","","","http://www.diecezja.waw.pl/struktura/parafie/51/"
"Parafia Św. Franciszka z Asyżu","","","ul. Strumykowa 25, 03-138 Warszawa","www.swfranciszek.waw.pl","","22 676 60 53","Ks. Józefczyk Jan","08:30, 10:00 (dla młodzieży), 11:30 (z udziałem dzieci), 13:00, 18:00","07:00, 17:30 (w grudniu i styczniu), 18:00 (poza grudniem i styczniem)","","","http://www.diecezja.waw.pl/struktura/parafie/56/"
"Parafia Św. Apostołów Piotra i Pawła","","","ul. Kard. Stefana Wyszyńskiego 1, 05-101 Nowy Dwór Mazowiecki","www.parafiapiotraipawla.pl","","22 775 11 45","Ks. Czyżyk Krzysztof","08:00, 09:30, 11:00, 12:30, 18:00 (poza wakacjami), 20:00 (w wakacje)","07:00 (w środę, czwartek, piątek, sobotę oraz w Adwencie), 18:00","","","http://www.diecezja.waw.pl/struktura/parafie/107/"
"Parafia Św. Michała Archanioła","","","ul. Warszawska 1A, 05-100 Nowy Dwór Mazowiecki","www.ndmswmichal.pl","","22 775 23 32","Ks. Kwiatkowski Andrzej Janusz","07:00, 08:30, 10:00 (dla młodzieży), 11:30 (z udziałem dzieci), 18:00","07:00, 18:00","","","http://www.diecezja.waw.pl/struktura/parafie/108/"
"Parafia Św. Stanisława Kostki","","","ul. Kościelna 1, 05-079 Okuniew","","","22 783 70 15","Ks. Wieczorek Dariusz","07:00, 09:00, 11:30, 18:00","07:00, 18:00","","","http://www.diecezja.waw.pl/struktura/parafie/155/"
"Parafia Matki Bożej Zwycięskiej","","","ul. Materewicza, Ossów, 05-230 Kobyłka","","","22 786 26 43","Ks. Skwarski Dariusz","","","","","http://www.diecezja.waw.pl/struktura/parafie/70/"
"Parafia Św. Stanisława Biskupa i Męczennika","","","Ostrów 23, 05-430 Celestynów","www.parafiaostrow.org","","22 789 75 58","","","","","","http://www.diecezja.waw.pl/struktura/parafie/111/"
"Parafia Najświętszej Maryi Panny Matki Kościoła","","","ul. Słoneczna 5, 05-205 Ostrówek","","","29 777 01 59","Ks. Dębiński Dariusz","","","","","http://www.diecezja.waw.pl/struktura/parafie/170/"
"Parafia Bł. Ignacego Kłopotowskiego","","","ul. Andriollego 73, 05-400 Otwock","www.blklopotowski-otwock.pl","iklopotowski@wp.pl","22 779 50 57","Ks. Krawczyński Cezary","07:30, 09:00, 10:30, 12:00, 18:00","07:00, 18:00","","","http://www.diecezja.waw.pl/struktura/parafie/113/"
"Parafia Matki Bożej Częstochowskiej","","","ul. Sowińskiego 17, 05-402 Otwock","www.parafia-swider.pl","","22 779 51 02","Ks. Koć Witold Anastazy","08:00, 10:00, 11:30, 18:00","06:30 (w Adwencie), 07:00 (poza Adwentem), 18:00","","","http://www.diecezja.waw.pl/struktura/parafie/117/"
"Parafia Niepokalanego Serca Maryi","","","ul. Kornela Ujejskiego 2, 05-400 Otwock","www.parafiasrodborow.pl","","22 788 66 34","Ks. Gołąbek Jan","08:00, 09:00, 10:30, 12:00, 17:00 (od września do kwietnia), 18:30 (od maja do sierpnia)","07:00 (poza wakacjami), 07:30 (w wakacje), 17:00 (od września do kwietnia), 18:30 (od maja do sierpnia)","","","http://www.diecezja.waw.pl/struktura/parafie/116/"
"Parafia Św. Józefa Oblubieńca Najświętszej Maryi Panny","","","ul. Kard. Stefana Wyszyńskiego 1, 05-400 Otwock","www.jozefotwock.pl","","22 788 52 47","Ks. Chudzik Wiesław SAC, od 25.08.2011","08:00, 10:00, 11:30, 18:00","18:00","","","http://www.diecezja.waw.pl/struktura/parafie/118/"
"Parafia Św. Teresy od Dzieciątka Jezus","","","ul. Kołłątaja 80/82, 05-402 Otwock","www.promien.strefa.pl","","22 779 24 53","Ks. Twardawa Marian MSF, od 01.07.2013","08:00, 10:00, 11:30, 15:00, 18:00","07:00, 18:00","","","http://www.diecezja.waw.pl/struktura/parafie/125/"
"Parafia Św. Wincentego à Paulo","","","ul. Kopernika 1, 05-400 Otwock","www.apaulo.org.pl","parafia@apaulo.org.pl","22 779 31 12","Ks. Sankowski Bogdan Piotr","07:30, 09:30, 11:00 (z udziałem dzieci), 12:30, 18:00","07:00, 08:00, 17:00 (I piątek miesiąca), 17:30 (poza I piątkiem miesiąca), 18:00","","","http://www.diecezja.waw.pl/struktura/parafie/112/"
"Parafia Zesłania Ducha Świętego","","","ul. Żeromskiego 6, 05-400 Otwock","www.sacotwock.pl","","22 779 29 92","Ks. Wojda Krzysztof SAC, od 25.08.2011","07:30, 09:30, 11:00, 11:00 (w dolnym kościele z udziałem dzieci), 12:30, 18:00, 20:00 (dla młodzieży)","06:30, 07:00, 08:00, 18:00","","","http://www.diecezja.waw.pl/struktura/parafie/114/"
"Parafia Matki Bożej Ostrobramskiej","","","ul. Zamkowa 45A, Otwock Wielki, 05-480 Karczew","","","22 780 63 36","Ks. Krzyżewski Janusz","","","","","http://www.diecezja.waw.pl/struktura/parafie/126/"
"Parafia Narodzenia Najświętszej Maryi Panny","","","ul. Klasyków 21/23, 03-115 Warszawa","www.parafiannmp.pl","","22 811 08 55","Ks. Furman Robert","07:00, 08:30, 10:00 (z udziałem dzieci), 11:30, 13:00 (poza wakacjami), 18:00","07:00 (poza wakacjami), 18:00","","","http://www.diecezja.waw.pl/struktura/parafie/54/"
"Parafia Św. Jana Chrzciciela","","","Pniewnik 43, 07-120 Korytnica","www.parafiapniewnik.ns48.pl","","25 661 32 24","Ks. Owczarek Emil","07:30, 10:00, 12:00","07:30 (we wtorek, czwartek i sobotę), 17:00 (w poniedziałek, środę i piątek)","","","http://www.diecezja.waw.pl/struktura/parafie/148/"
"Parafia Najświętszej Maryi Panny Matki Pięknej Miłości","","","ul. Myśliborska 100, 03-185 Warszawa","www.pieknamilosc.waw.pl","","22 811 79 22","Ks. Jędrzejewski Piotr","07:00, 09:00, 10:15 (z udziałem dzieci), 11:30, 13:00, 18:00 (dla młodzieży)","06:30 (w Adwencie), 07:00 (poza Adwentem), 18:00","","","http://www.diecezja.waw.pl/struktura/parafie/55/"
"Parafia Św. Stanisława Biskupa i Męczennika","","","pl. 3 Maja 17, Postoliska, 05-240 Tłuszcz","www.parafiapostoliska.pl","","29 757 32 09","Ks. Sierpiński Waldemar","07:30, 09:00, 10:30, 12:00, 17:00","","","","http://www.diecezja.waw.pl/struktura/parafie/163/"
"Parafia Św. Jana Chrzciciela i Św. Wojciecha Biskupa Męczennika","","","ul. Jana Pawła II 20, 05-326 Poświętne","","parafiaposwietne@op.pl","25 752 05 89","Ks. Konkol Zdzisław","","","","","http://www.diecezja.waw.pl/struktura/parafie/149/"
"Parafia Św. Katarzyny Aleksandryjskiej","","","ul. Cicha 6, Pustelnik k. Mińska Maz., 05-304 Stanisławów","www.parafiapustelnik.pl","parafiapustelnik@tlen.pl","25 757 56 93","","09:00, 11:00, 12:30, 17:00 (od listopada do marca), 18:00 (od kwietnia do października)","08:00 (w czwartki), 17:00 (poza czwartkiem od listopada do marca), 18:00 (poza czwartkiem od kwietnia do października)","","","http://www.diecezja.waw.pl/struktura/parafie/150/"
"Parafia Matki Bożej Anielskiej","","","ul. Wilgi 14, 04-831 Warszawa","www.radosc.parafia.info.pl","parafiaradosc@o2.pl","22 615 74 11","Ks. Sokołowski Kazimierz","07:00, 08:00 (poza wakacjami), 09:00 (w wakacje), 09:30 (poza wakacjami), 10:30 (w wakacje), 11:00 (poza wakacjami), 12:00 (w wakacje), 12:30 (poza wakacjami), 18:00","07:00 (poza wakacjami), 07:30, 18:00","","","http://www.diecezja.waw.pl/struktura/parafie/9/"
"Parafia Przemienienia Pańskiego","","","ul. Polskiej Organizacji Wojskowej 1, 05-250 Radzymin","www.parafia-radzymin.eu","parafia_sekretariat@onet.eu","22 786 70 15","Ks. Kuć Stanisław","06:30 (kaplica w Domu Pomocy Społecznej), 07:00, 08:30, 10:00, 10:15 (kaplica w Rejentówce), 11:30 (z udziałem dzieci), 12:30, 18:00, 19:30","06:30, 07:00 (poza wakacjami), 08:00, 18:00","","","http://www.diecezja.waw.pl/struktura/parafie/134/"
"Parafia Bł. Jana Pawła II","","","ul. Słowackiego 58, 05-250 Radzymin","www.jp2.waw.pl","","","Ks. Ziółkowski Krzysztof","08:30, 10:00, 12:00","07:30 (we wtorek i czwartek), 19:00 (poza wtorkiem i czwarkiem)","","","http://www.diecezja.waw.pl/struktura/parafie/135/"
"Parafia Św. Andrzeja Boboli","","","ul. Różana 2, Rajszew, 05-110 Jabłonna","www.parafiarajszew.pl","","","Ks. Kania Stanisław","10:00, 11:30 (z udziałem dzieci), 16:00","","","","http://www.diecezja.waw.pl/struktura/parafie/80/"
"Parafia Matki Bożej Zwycięskiej","","","ul. Grzybowa 1, 04-498 Warszawa","www.rembertowparafia.pl","","22 612 94 40","Ks. Żmijewski Edward","07:30, 09:00, 10:00, 11:15 (z udziałem dzieci), 13:00, 18:00","06:30, 08:00, 18:00","","","http://www.diecezja.waw.pl/struktura/parafie/42/"
"Parafia Św. Łucji Dziewicy i Męczennicy","","","ul. Paderewskiego 42, 04-450 Warszawa","www.parafia.waw.pl","","22 612 88 40","Ks. Szcześniak Wacław","08:00, 09:30, 11:00 (z udziałem dzieci), 17:00","07:30, 18:00","","","http://www.diecezja.waw.pl/struktura/parafie/43/"
"Parafia Miłosierdzia Bożego","","","ul. 3 Maja 33/35, Rudzienko, 05-340 Kołbiel","www.parafiarudzienko.simf.pl","","25 799 10 48","Ks. Karolak Grzegorz Andrzej","09:00, 11:30 (z udziałem dzieci), 18:00 (dla młodzieży)","","","","http://www.diecezja.waw.pl/struktura/parafie/102/"
"Parafia Matki Bożej Królowej Polski","","","ul. Słowackiego 1, 07-201 Wyszków","www.parafia-wyszkow-rybienko-lesne.pl","","29 742 36 55","Ks. Leda Eugeniusz","09:00 (dla młodzieży), 11:00 (z udziałem dzieci), 17:00 (od listopada do lutego), 18:00 (od marca do października)","06:45 (w Adwencie), 08:30 (w poniedziałki i soboty poza Adwentem), 18:00 (oprócz poniedziałków, sobót i Adwentu)","","","http://www.diecezja.waw.pl/struktura/parafie/137/"
"Parafia Św. Benedykta","","","ul. Lucerny 95, 04-687 Warszawa","www.swbenedykt.pl","parafia@swbenedykt.pl","22 812 73 07","Ks. Olaczek Tadeusz","07:00, 09:00, 10:30 (poza wakacjami), 11:00 (w wakacje), 12:00 (poza wakacjami), 19:00","07:00, 18:00","","","http://www.diecezja.waw.pl/struktura/parafie/10/"
"Parafia Św. Stanisława Biskupa i Męczennika","","","ul. Mińska 34, 05-322 Siennica","www.parafia-siennica.pl","","25 757 22 93","Ks. Kasprzak Marek","07:30, 09:00, 11:00, 12:30, 18:00","07:00, 18:00","","","http://www.diecezja.waw.pl/struktura/parafie/144/"
"Ośrodek duszpasterski Św. Jana Marii Vianneya","","","ul. Dojazdowa 2, 05-124 Skrzeszew","www.diecezja.waw.pl/skrzeszew","","","","07:45 (V-IX), 09:00, 11:00 (z udziałem dzieci), 17:00","17:00","","","http://www.diecezja.waw.pl/struktura/parafie/81/"
"Parafia Matki Bożej Fatimskiej i Bł. Bronisława Markiewicza","","","al. Jana Pawła II 21, Słupno, 05-250 Radzymin","","","","Ks. Kluk Piotr CSMA, od 03.08.2014","","","","","http://www.diecezja.waw.pl/struktura/parafie/71/"
"Parafia Św. Jana Chrzciciela i Św. Stanisława Biskupa i Męczennika","","","ul. Szkolna 2, 05-304 Stanisławów","www.parafia.stanislawow.com","","25 757 50 93","Ks. Kietliński Krzysztof","07:00, 09:00 (dla młodzieży), 11:00 (z udziałem dzieci), 18:00","07:00, 18:00","","","http://www.diecezja.waw.pl/struktura/parafie/151/"
"Parafia Najświętszej Maryi Panny Wspomożycielki Wiernych","","","ul. Izabelińska 8, Stanisławów Pierwszy, 05-126 Nieporęt","www.parafia-stanislawow.waw.pl","parafia@parafia-stanislawow.waw.pl","22 772 44 11","Ks. Osiadacz Tomasz","09:00, 10:30 (z udziałem dzieci), 12:00, 18:00 (dla młodzieży)","07:30 (oprócz poniedziałku i soboty), 18:00","","","http://www.diecezja.waw.pl/struktura/parafie/52/"
"Parafia Matki Bożej Anielskiej","","","ul. Kościelna 2, Stara Wieś, 05-430 Celestynów","","parafiastarawies@wp.pl","22 789 75 82","Ks. Cąkała Krzysztof Michał","","","","","http://www.diecezja.waw.pl/struktura/parafie/127/"
"Parafia Matki Bożej Częstochowskiej","","","Starogród 39, 05-332 Siennica","parafiastarogrod.waw.pl","","25 799 03 89","Ks. Pawlak Robert Marek","09:00, 11:30","17:00 (w maju, czerwcu i październiku)","","","http://www.diecezja.waw.pl/struktura/parafie/145/"
"Parafia Wniebowzięcia Najświętszej Maryi Panny","","","ul. C. K. Norwida 10, 05-282 Strachówka","www.strachowka.parafia.ns48.pl","","25 676 09 77","Ks. Jerzak Mieczysław","09:30, 10:30, 12:00","","","","http://www.diecezja.waw.pl/struktura/parafie/62/"
"Parafia Świętej Trójcy","","","ul. Kościelna 11, Sulejów, 05-280 Jadów","","","25 675 74 41","Ks. Rutkowski Józef","","","","","http://www.diecezja.waw.pl/struktura/parafie/63/"
"Parafia Najświętszej Maryi Panny Matki Kościoła","","","ul. Żeromskiego 18, 05-070 Sulejówek","www.parafiasulejowek.pl","","22 783 35 28","Ks. Gołębiewski Jan Marian","07:00, 12:00, 18:00","","","","http://www.diecezja.waw.pl/struktura/parafie/156/"
"Parafia Przemienienia Pańskiego","","","ul. Kościelna 32, Szewnica, 05-280 Jadów","","par.szewnica@ept.pl","25 675 74 71","Ks. Kopytko Edward","","","","","http://www.diecezja.waw.pl/struktura/parafie/64/"
"Parafia Św. Jakuba Apostoła","","","ul. Mehoffera 4, 03-131 Warszawa","www.sw-jakub.waw.pl","parswjakub@op.pl","22 614 86 23","Ks. Górecki Józef","08:00, 09:15, 10:00 (w kaplicy z udziałem dzieci klas I-III poza wakacjami), 11:00, 12:00 (w kaplicy z udziałem dzieci przedszkolnych poza wakacjami), 12:30, 18:00","07:00 (poza wakacjami), 18:00","","","http://www.diecezja.waw.pl/struktura/parafie/57/"
"Parafia Bł. Męczenników Podlaskich","","","ul. Klonowa 2, 05-240 Tłuszcz","www.diecezja.waw.pl/bmp/","bmp.tluszcz@gmail.com","29 777 41 71","Ks. Ejsmont Piotr Krzysztof","07:30, 09:30, 11:00, 12:30, 18:00","07:00, 18:00","","","http://www.diecezja.waw.pl/struktura/parafie/164/"
"Parafia Przemienienia Pańskiego","","","ul. Kościelna 7, 05-240 Tłuszcz","","","29 757 20 34","Ks. Skwarski Dariusz","","","","","http://www.diecezja.waw.pl/struktura/parafie/165/"
"Parafia Przemienienia Pańskiego","","","Trawy 73, 07-120 Korytnica","www.trawy.parafialnastrona.pl","","25 661 43 74","Ks. Kalinowski Paweł","10:00, 12:00","(wg ogłoszeń)","","","http://www.diecezja.waw.pl/struktura/parafie/152/"
"Parafia Bł. Matki Teresy z Kalkuty","","","ul. Nadarzyńska 62, 05-230 Kobyłka","www.parafiamatkiteresy.pl","","604 782 801","Ks. Dębski Jacek","09:00, 11:00, 17:00","","","","http://www.diecezja.waw.pl/struktura/parafie/72/"
"Parafia Matki Bożej Częstochowskiej","","","ul. Piękna 8, Borzymy, 05-281 Urle","","","25 675 49 17","Ks. Bieńkowski Leszek","","","","","http://www.diecezja.waw.pl/struktura/parafie/65/"
"Parafia Bożego Ciała","","","ul. Grochowska 365, 03-822 Warszawa","www.parafia-kamionek.pl","kontakt@parafia-kamionek.pl","882 143 678","Ks. Madej Wacław","07:00, 08:30, 10:00, 11:30, 13:00, 18:00","","","","http://www.diecezja.waw.pl/struktura/parafie/19/"
"Parafia Chrystusa Króla","","","ul. Tykocińska 27/35, 03-545 Warszawa","www.chrystuskrol.pl","","22 679 25 51","Ks. Wójtowicz Marcin Stanisław","07:00, 09:00, 10:15 (z udziałem dzieci), 11:30 (dla młodzieży), 13:00, 18:30","06:30, 07:00, 08:00, 18:00","","","http://www.diecezja.waw.pl/struktura/parafie/34/"
"Parafia Matki Bożej Królowej Polskich Męczenników","","","Aleja Stanów Zjednoczonych 55, 04-028 Warszawa","www.meczennicy.waw.pl","","22 813 33 44","Ks. Jackowski Krzysztof Edward","07:00, 08:30, 10:00, 11:30 (z udziałem dzieci), 13:00, 18:00","06:45 (w Adwencie), 07:00 (poza Adwentem), 07:30, 08:00 (poza wakacjami), 18:00","","","http://www.diecezja.waw.pl/struktura/parafie/22/"
"Parafia Matki Bożej Loretańskiej","","","ul. Ratuszowa 5A, 03-461 Warszawa","www.mbloretanska.republika.pl","","22 619 27 37","Ks. Strzyż Jan","07:00, 08:30, 10:00 (z udziałem dzieci), 11:00, 12:30, 18:00","07:00, 08:00, 18:00","","","http://www.diecezja.waw.pl/struktura/parafie/31/"
"Parafia Matki Bożej Nieustającej Pomocy","","","ul. Nobla 16, 03-930 Warszawa","www.nobla16.pl","","22 617 26 50","Ks. Wirkowski Zygmunt","07:00, 08:30, 10:00, 11:30, 13:00, 18:30","07:00, 08:00, 09:00, 18:30","","","http://www.diecezja.waw.pl/struktura/parafie/26/"
"Parafia Matki Bożej Różańcowej","","","ul. Wysockiego 8, 03-371 Warszawa","www.rozancowa.waw.pl","kancelariambr@wp.pl","22 811 26 27","Ks. Wołosiewicz Stanisław","07:00, 09:00, 10:30, 12:00 (z udziałem dzieci), 13:30 (poza wakacjami), 19:00 (poza wakacjami), 20:00 (w wakacje)","06:30, 08:00, 15:00 (w I piątek miesiąca), 18:30","","","http://www.diecezja.waw.pl/struktura/parafie/13/"
"Parafia Matki Bożej z Lourdes","","","ul. Wileńska 69, 03-416 Warszawa","www.praga.marianie.pl","praga@marianie.pl","22 619 32 21","Ks. Kosiorowski Stanisław MIC, od 25.08.2014","07:00, 08:00, 09:30, 11:00 (z udziałem dzieci), 12:30, 15:00, 18:30 (dla młodzieży)","07:00, 08:00, 17:00 (w I piątek miesiąca), 18:30","","","http://www.diecezja.waw.pl/struktura/parafie/32/"
"Parafia Miłosierdzia Bożego","","","ul. Ateńska 12, 03-978 Warszawa","www.parafia-atenska.waw.pl","parafia.atenska@gmail.com","22 616 13 30","Ks. Dybek Andrzej Marek","07:00, 08:30, 10:00, 11:30, 13:00, 18:30, 20:00 (w wakacje)","07:00, 15:00 (poza wakacjami), 18:30","","","http://www.diecezja.waw.pl/struktura/parafie/27/"
"Parafia Najczystszego Serca Maryi","","","ul. Chłopickiego 2, 04-314 Warszawa","www.parafia-szembeka.waw.pl","kontakt@parafia-szembeka.waw.pl","22 610 49 30","Ks. Ukleja Krzysztof","07:00, 08:30, 09:30, 11:00, 12:30, 18:00, 20:00","07:00, 07:30, 08:00, 18:00","","","http://www.diecezja.waw.pl/struktura/parafie/23/"
"Parafia Najświętszego Serca Jezusowego","","","ul. Kawęczyńska 53, 03-775 Warszawa","www.bazylika.salezjanie.pl","kancelaria.nsj@gmail.com","22 619 58 03","Ks. Modzelewski Edmund SDB, od 01.08.2012","07:00, 08:30, 10:00, 11:30 (z udziałem dzieci), 13:00, 18:00, 19:30","07:00, 08:00, 12:00, 18:00","","","http://www.diecezja.waw.pl/struktura/parafie/33/"
"Parafia Narodzenia Pańskiego","","","ul. Ostrobramska 72, 04-175 Warszawa","parafiaostrobramska.pl","ostrobramska72@gmail.com","22 613 83 75","† Ks. Majcher Zenon","07:00, 09:00, 10:00, 11:00 (z udziałem dzieci), 12:00, 18:00","06:30 (poza wakacjami), 07:00, 08:00, 17:00 (I piątek miesiąca), 18:00","","","http://www.diecezja.waw.pl/struktura/parafie/29/"
"Parafia Nawrócenia Św. Pawła Apostoła","","","ul. Kobielska 10, 04-359 Warszawa","www.diecezja.waw.pl/kobielska","kobielska@diecezja.waw.pl","22 610 64 34","Ks. Szkóp Adam Zbigniew","07:00, 08:30, 09:30 (dolny kościół poza wakacjami dla młodzieży gimnazjalnej i licealnej), 10:00, 11:00 (dolny kościół poza wakacjami), 11:30 (z udziałem dzieci), 12:30 (dolny kościół poza wakacjami), 13:00, 18:00, 19:30 (dolny kościół poza wakacjami dla młodzieży akademickiej)","06:30 (poza wakacjami), 07:00 (poza Adwentem), 07:30 (poza wakacjami), 08:00, 09:00, 18:30","","","http://www.diecezja.waw.pl/struktura/parafie/24/"
"Parafia Opatrzności Bożej","","","ul. Ks. Piotra Skargi 2, 05-075 Warszawa-Wesoła","www.parafiawesola.pl","","22 773 56 35","O. Tłokiński Mariusz CCN, od 28.08.2011","07:00, 09:00, 10:30, 12:00, 18:00","07:00, 18:00","","","http://www.diecezja.waw.pl/struktura/parafie/46/"
"Parafia Św. Apostołów Jana i Pawła","","","ul. Kapelanów Armii Krajowej 2, 04-046 Warszawa","www.janaipawla.pl","parafiajanaipawla@wp.pl","600 543 104","Ks. Uczciwek Zygmunt Szczepan","07:30, 09:00, 10:00, 11:30, 13:00, 18:30","07:00, 07:30, 18:30","","","http://www.diecezja.waw.pl/struktura/parafie/20/"
"Parafia Św. Barnaby Apostoła","","","ul. Łodygowa 24, 03-687 Warszawa","www.swbarnaba.waw.pl","swbarnaba@gmail.com","22 678 77 14","Ks. Gawryś Mirosław","07:00, 09:00, 10:30 (z udziałem dzieci), 12:00, 18:00 (poza wakacjami), 19:30 (w wakacje)","07:00, 18:00","","","http://www.diecezja.waw.pl/struktura/parafie/39/"
"Parafia Św. Brata Alberta","","","ul. Szeroka 2, 05-075 Warszawa-Wesoła","www.parafiazielona.waw.pl","parafiazielona@gmail.com","22 773 59 06","Ks. Skarpetowski Józef","08:00, 09:30, 11:00 (z udziałem dzieci), 12:30, 18:00","07:00 (w Adwencie), 08:00 (poza Adwentem), 18:00","","","http://www.diecezja.waw.pl/struktura/parafie/47/"
"Parafia Św. Faustyny","","","ul. Żuromińska 2, 03-341 Warszawa","www.swfaustyna.waw.pl","","22 674 40 97","Ks. Ladziński Ryszard Jan","07:00, 08:00, 09:30, 11:00, 12:15, 18:30 (poza wakacjami), 19:00 (w wakacje)","07:00, 07:30, 08:00 (poza wakacjami), 18:30","","","http://www.diecezja.waw.pl/struktura/parafie/14/"
"Parafia Św. Jadwigi","","","ul. Modlińska 4, 03-216 Warszawa","www.parafia-sw-jadwiga.pl","","884 997 939","Ks. Rowicki Grzegorz","08:00, 10:00, 12:00, 18:00","18:00","","","http://www.diecezja.waw.pl/struktura/parafie/17/"
"Parafia Św. Karola Boromeusza","","","ul. Kadetów 33, 03-987 Warszawa","","","606 852 591","Ks. Ostojski Krzysztof","08:00, 10:00, 12:00, 18:00","08:00, 18:00","","","http://www.diecezja.waw.pl/struktura/parafie/5/"
"Parafia Św. Marii Magdaleny","","","ul. Echa Leśne 2, 03-214 Warszawa","www.parafiamariimagdaleny.pl","","22 811 44 84","Ks. Zdun Wojciech","07:00, 08:30, 10:00, 11:30 (z udziałem dzieci), 13:00 (poza wakacjami), 18:00, 19:30 (dla młodzieży)","06:30 (w Adwencie), 07:30, 08:00 (poza wakacjami), 08:30 (poza wakacjami), 17:30 (poza wakacjami), 18:00","","","http://www.diecezja.waw.pl/struktura/parafie/18/"
"Parafia Św. Marka Ewangelisty","","","ul. Zamiejska 6, 03-580 Warszawa","www.swmarek.waw.pl","","22 679 03 72","Ks. Gaworek Sylwester","07:00, 08:30, 10:00, 11:30, 13:00, 18:00","07:00, 18:00","","","http://www.diecezja.waw.pl/struktura/parafie/35/"
"Parafia Św. Mateusza Apostoła i Ewangelisty","","","ul. Ostródzka 172, 03-289 Warszawa","www.pasjonisci.org.pl","kancelaria@pasjonisci.org.pl","22 743 01 03","O. Śliwiński Przemysław CP, od 01.08.2013","08:00, 09:30, 11:00, 12:30, 16:00 (poza wakacjami), 18:00, 19:30 (w wakacje)","07:00, 18:00","","","http://www.diecezja.waw.pl/struktura/parafie/12/"
"Parafia Św. Michała Archanioła i Św. Floriana Męczennika","","","ul. Floriańska 3, 03-707 Warszawa","katedra-floriana.waw.pl","katedra.floriana@gmail.com","22 619 09 60","Ks. Kowalski Bogusław Stanisław","07:30, 09:30, 11:00 (z udziałem dzieci), 12:30, 18:00, 20:00 (akademicka)","06:30, 07:00, 08:00, 18:00","","","http://www.diecezja.waw.pl/struktura/parafie/30/"
"Parafia Św. Ojca Pio","","","ul. Gen. A. E. Fieldorfa 1, 03-984 Warszawa","www.opio.waw.pl","","22 353 38 13","Ks. Kuflikowski Andrzej","07:30, 09:00, 10:30 (z udziałem dzieci), 12:00, 15:00 (z Koronką do Miłosierdzia Bożego), 16:00, 18:00, 20:30","07:00, 08:00, 09:00, 17:00 (z udziałem dzieci w I piątek miesiąca), 18:00, 20:30 (w I piątek miesiąca)","","","http://www.diecezja.waw.pl/struktura/parafie/21/"
"Parafia Św. Patryka","","","ul. Rechniewskiego 14, 03-980 Warszawa","www.patryk.waw.pl","parafia.patryk@gmail.com","22 671 72 74","Ks. Zdziebłowski Wojciech","08:00, 09:30 (dla młodzieży), 11:00 (z udziałem dzieci), 12:30, 16:30 (z udziałem dzieci klas II i III poza wakacjami), 18:00 (od października do kwietnia), 19:00 (od maja do września)","07:00, 08:00, 18:00 (od października do kwietnia), 19:00 (od maja do września)","","","http://www.diecezja.waw.pl/struktura/parafie/28/"
"Parafia Św. Wacława","","","ul. Korkowa 27, 04-502 Warszawa","www.waclaw.org.pl","","22 812 05 96","Ks. Uzdowski Marek","07:00, 09:00, 10:30, 12:00, 18:00","07:00, 08:00 (poza wakacjami), 17:30 (poza sobotą, wakacjami i styczniem), 18:30","","","http://www.diecezja.waw.pl/struktura/parafie/40/"
"Parafia Św. Wincentego à Paulo","","","ul. Św. Wincentego 81, 03-530 Warszawa","www.parafiawincentegoapaulo.pl","kancelaria@parafiawincentegoapaulo.pl","22 679 08 55","Ks. Gołębiewski Jerzy","07:00, 08:00 (drewniany kościół), 08:30, 09:00 (drewniany kościół), 10:00 (drewniany kościół), 10:00, 11:00 (drewniany kościół), 11:30, 12:00 (drewniany kościół), 13:00 (drewniany kościół), 13:00, 18:00","07:00, 18:00","","","http://www.diecezja.waw.pl/struktura/parafie/36/"
"Parafia Św. Wincentego Pallottiego","","","ul. Skaryszewska 12, 03-802 Warszawa","www.skaryszewska.pl","skaryszewska.parafia@gmail.com","22 818 63 69","Ks. Zaczkiewicz Tomasz SAC, od 09.07.2010","07:00, 08:00, 09:30 (dla młodzieży), 11:00 (z udziałem dzieci), 12:30, 16:00, 18:00, 20:00","06:00, 07:00, 08:00 (w dolnym kościele), 18:00","","","http://www.diecezja.waw.pl/struktura/parafie/25/"
"Parafia Św. Włodzimierza","","","ul. Kondratowicza 2, 03-242 Warszawa","www.wlodzimierz.waw.pl","","22 614 14 22","Ks. Wojciechowski Zbigniew Feliks","07:00, 08:45, 10:00, 11:15 (z udziałem dzieci), 12:30, 16:00 (dla klas II i III w III i IV niedzielę), 18:00","07:00, 07:30, 18:00","","","http://www.diecezja.waw.pl/struktura/parafie/15/"
"Parafia Świętej Rodziny","","","ul. Rozwadowska 9/11, 03-628 Warszawa","www.parafiaswrodziny.pl","parafiaswrodziny@parafiaswrodziny.pl","22 679 56 20","Ks. Mazański Andrzej","07:00, 09:00, 10:00, 11:00 (z udziałem dzieci), 12:30, 18:00, 19:30 (dla młodzieży)","06:30, 08:00, 18:00","","","http://www.diecezja.waw.pl/struktura/parafie/38/"
"Parafia Wniebowzięcia Najświętszej Maryi Panny","","","ul. Trakt Lubelski 157, 04-766 Warszawa","www.parafiazerzen.waw.pl","ks.proboszcz@parafiazerzen.waw.pl","22 615 64 32","Ks. Waligóra Krzysztof Grzegorz","07:00, 08:30, 10:00, 11:30, 13:00, 18:00","07:30, 08:00 (poza wakacjami), 18:00","","","http://www.diecezja.waw.pl/struktura/parafie/11/"
"Parafia Zmartwychwstania Pańskiego","","","ul. Księcia Ziemowita 39, 03-788 Warszawa","www.parafiazmartwychwstaniapanskiego.pl","tg58@rubikon.pl","22 679 41 46","Ks. Gill Tomasz Władysław","09:00, 11:00 (z udziałem dzieci), 16:30","(oprócz soboty wg ogłoszeń), 18:00 (w sobotę)","","","http://www.diecezja.waw.pl/struktura/parafie/37/"
"Parafia Św. Wojciecha Biskupa i Męczennika","","","ul. Kościelna 65, 05-462 Wiązowna","www.parafiawiazowna.pl","parafiawiazowna@gmail.com","22 789 03 26","Ks. Łakomiec Tadeusz","08:00, 10:00, 13:00, 18:00","07:00, 18:00","","","http://www.diecezja.waw.pl/struktura/parafie/119/"
"Parafia Matki Bożej Różańcowej","","","Wielgolas 1, 05-334 Latowicz","www.diecezja.waw.pl/wielgolas","wielgolas@diecezja.waw.pl","504 220 855","Ks. Rakoczy Arkadiusz Stanisław","07:30, 09:00, 11:15","(9:00 lub 16:00, wg ogłoszeń)","","","http://www.diecezja.waw.pl/struktura/parafie/146/"
"Parafia Matki Odkupiciela","","","Wielgolas Brzeziński 39H, 05-074 Halinów","www.wielgolasbrzezinski.pl","parafia@wielgolasbrzezinski.pl","","Ks. Twarowski Marek","08:00, 10:30, 16:00","18:00","","","http://www.diecezja.waw.pl/struktura/parafie/103/"
"Parafia Przemienienia Pańskiego","","","ul. Modlińska 58, 05-135 Wieliszew","www.parafia.wieliszew.eu","parafia.wieliszew@wp.pl","22 782 21 11","Ks. Kucharski Grzegorz","07:00, 09:00, 10:30 (z udziałem dzieci poza wakacjami), 10:30 (kaplica w Zegrzu Południowym), 12:00, 15:00 (kaplica w Mazowieckim Szpitalu Onkologicznym), 17:00","07:00 (poza wakacjami), 17:30, 18:00","","","http://www.diecezja.waw.pl/struktura/parafie/82/"
"Parafia Św. Apostołów Piotra i Pawła","","","ul. Kościelna 9, Wola Rasztowska, 05-205 Klembów","","","29 777 81 81","Ks. Turek Jacek","","","","","http://www.diecezja.waw.pl/struktura/parafie/136/"
"Parafia Matki Bożej Częstochowskiej","","","ul. Kościelna 54, 05-200 Wołomin","www.mbcz.wolomin.pl","","22 799 97 04","Ks. Sienkiewicz Sylwester","07:00, 08:30, 10:00, 10:30 (w kaplicy z udziałem dzieci od III klasy poza wakacjami), 11:15 (z udziałem młodzieży, zwłaszcza kandydatów do bierzmowania), 12:00 (w kaplicy z udziałem dzieci z II klasy i młodszych poza wakacjami), 12:30, 18:00, 20:00 (w wakacje)","06:30, 07:00, 08:00, 16:30 (w I piątek miesiąca z udziałem dzieci), 18:00","","","http://www.diecezja.waw.pl/struktura/parafie/171/"
"Parafia Matki Bożej Królowej Polski","","","ul. Kurkowa 35, 05-200 Wołomin","www.mbkp.wolomin.pl","","22 776 33 22","Ks. Podstawka Zygmunt Marcin","07:00, 08:30 (dla młodzieży), 10:00, 11:30 (z udziałem dzieci), 13:00, 18:00","06:30, 07:00, 07:30, 18:00","","","http://www.diecezja.waw.pl/struktura/parafie/172/"
"Parafia Św. Józefa Robotnika","","","ul. Marsz. J. Piłsudskiego 44, 05-200 Wołomin","www.orione.rel.pl","orione@orione.rel.pl","22 787 66 14","Ks. Pawlicki Jacek FDP, od 23.08.2009","07:00, 08:30, 10:00 (dla młodzieży), 11:30 (z udziałem dzieci), 13:00, 18:00","07:00 (poza wakacjami), 07:30 (w wakacje), 16:30 (w I piątek miesiąca z udziałem dzieci), 18:00","","","http://www.diecezja.waw.pl/struktura/parafie/173/"
"Parafia Matki Bożej Dobrej Rady","","","ul. Mazowiecka 59, Wólka Mińska, 05-300 Mińsk Mazowiecki","www.parafiawolka.pl","","","Ks. Danecki Jerzy Andrzej","09:00, 11:00 (z udziałem dzieci), 17:00","07:00 (we wtorki i w Adwencie), 17:30 (poza wtorkiem i Adwentem)","","","http://www.diecezja.waw.pl/struktura/parafie/93/"
"Parafia Chrystusa Miłosiernego","","","ul. Ks. Wł. Skonieckiego 3, Zabraniec, 05-079 Okuniew","","","25 799 06 42","Ks. Serafin Marek","","","","","http://www.diecezja.waw.pl/struktura/parafie/158/"
"Parafia Św. Ojca Pio","","","ul. 100-lecia 99, Zagościniec, 05-200 Wołomin","www.zagosciniec.pl","parafia@zagosciniec.pl","22 776 00 23","Ks. Gergont Stanisław","08:30, 10:00 (dla młodzieży), 11:30 (z udziałem dzieci), 18:00","07:00, 18:00","","","http://www.diecezja.waw.pl/struktura/parafie/174/"
"Parafia Św. Pawła Apostoła","","","ul. Ks. Iwaniuka 1, Zakręt, 05-077 Warszawa-Wesoła","www.parafiazakret.pl","","22 773 26 29","Ks. Firysiuk Tadeusz Zenon","09:00, 11:00, 18:00","18:00","","","http://www.diecezja.waw.pl/struktura/parafie/159/"
"Parafia Św. Stanisława Biskupa i Męczennika","","","Nowe Załubice 21, 05-255 Stare Załubice","www.zalubice.pl/parafia","","22 761 76 91","Ks. Chudzik Feliks","08:00, 10:00, 12:00, 17:00 (w wakacje)","17:00 (poza wakacjami), 18:00 (w wakacje)","","","http://www.diecezja.waw.pl/struktura/parafie/138/"
"Parafia Zwiastowania Pańskiego","","","ul. Kościelna 24A, Zamienie, 05-300 Mińsk Mazowiecki","www.parafiazamienie.pl","","25 759 38 05","Ks. Jurkiewicz Stanisław","09:00, 11:00, 14:00 (kaplica w Celinowie), 17:00 (od października do marca), 18:00 (od kwietnia do września)","17:00 (od października do marca), 18:00 (od kwietnia do września)","","","http://www.diecezja.waw.pl/struktura/parafie/104/"
"Parafia Miłosierdzia Bożego","","","ul. 11 Listopada 4, 05-091 Ząbki","www.parafia-mb-zabki.pl","parafia-mb-zabki@home.pl","22 762 42 04","Ks. Kopczyński Andrzej","07:00, 08:30, 08:30 (kaplica w szpitalu w Drewnicy), 10:00, 10:00 (w dolnym kościele z udziałem przedszkolaków i najmłodszych dzieci poza wakacjami), 11:30 (z udziałem dzieci szkoły podstawowej), 13:00 (poza wakacjami), 18:00","06:30, 07:00 (poza wakacjami), 08:30 (kaplica w szpitalu w Drewnicy), 17:30 (poza wakacjami), 18:00","","","http://www.diecezja.waw.pl/struktura/parafie/178/"
"Parafia Świętej Trójcy","","","ul. Piłsudskiego 46, 05-091 Ząbki","www.swietatrojca.org.pl","kancelaria@swietatrojca.org.pl","22 100 53 67","Ks. Kowara Edward","07:00, 08:30, 10:00, 11:30 (z udziałem dzieci), 13:00, 18:00","07:00, 18:00","","","http://www.diecezja.waw.pl/struktura/parafie/179/"
"Parafia Zesłania Ducha Świętego","","","ul. Powstańców 30, 05-091 Ząbki","www.parafia-zabki.pl","","22 799 74 06","Ks. Ciesielski Sylwester","08:00, 10:00, 11:30 (z udziałem dzieci), 13:00, 17:30, 19:00","07:00, 15:00 (w I piątek miesiąca), 17:00 (w I piątek miesiąca poza wakacjami), 17:30 (w styczniu z wyjątkiem I piątku miesiąca), 19:00 (poza styczniem z wyjątkiem I piątku miesiąca)","","","http://www.diecezja.waw.pl/struktura/parafie/180/"
"Parafia Matki Bożej Częstochowskiej","","","ul. Jagiellońska 10, 05-220 Zielonka","www.parafiazielonka.pl","","22 781 00 77","Ks. Stefaniuk Mieczysław","07:00, 07:15 (kaplica w DPS), 08:45 (dla młodzieży), 10:00, 11:30 (z udziałem dzieci), 13:00 (poza wakacjami), 14:00 (w nadzwyczajnej formie Rytu Rzymskiego w wakacje), 15:00 (w nadzwyczajnej formie Rytu Rzymskiego poza wakacjami), 18:00","06:20 (kaplica Sióstr Dominikanek), 06:30 (poza wakacjami), 07:00 (kaplica w DPS w piątki), 07:00, 07:30 (poza wakacjami), 18:00, 19:30 (w nadzwyczajnej formie Rytu Rzymskiego w I piątek miesiąca)","","","http://www.diecezja.waw.pl/struktura/parafie/181/"
"Parafia Św. Jerzego Męczennika","","","ul. Paderewskiego 56/60, 05-220 Zielonka","www.parafia-zielonka-bankowa.pl","","22 781 04 11","Ks. Krukowski Adam","07:00, 09:00, 10:30 (z udziałem dzieci), 12:00, 18:00","07:00, 17:00 (z udziałem dzieci w I piątek miesiąca), 18:00","","","http://www.diecezja.waw.pl/struktura/parafie/182/"
"Parafia Miłosierdzia Bożego","","","Żuków 13A, 05-300 Mińsk Mazowiecki","www.parafiazukow.mserwis.pl","","25 799 25 22","Ks. Wójcik Zenon","09:00, 11:00, 18:00","","","","http://www.diecezja.waw.pl/struktura/parafie/105/"
