"name","postal","city","address","www","email","phone","rector","sun","week","fest","latlng","url"
"Bł. Matki Teresy z Kalkuty","","","Adamowizna, ul. Promienna 7, 05-825 Grodzisk Mazowiecki","","mariuszbrzostek@wp.pl","600 050 883","","08:00, 10:00, 12:00, 18:00","18:00","","52.077498,20.629314","http://archidiecezja.warszawa.pl/parafie/adamowizna-bl-matki-teresy-z-kalkuty/"
"WNIEBOWZIĘCIA NMP","","","ul. Rynek 17, 05-082 Stare Babice","www.parafia-babice.pl","","22 722 90 45","","7:30, 9:30, 11:30, 16:00 (poza wakacjami), 18:00","8:00, 18:00","","52.251099,20.841406","http://archidiecezja.warszawa.pl/parafie/babice-wniebowziecia-nmp/"
"NMP KRÓLOWEJ POKOJU (w Rodzinach)","","","ul.Willowa 2, 05-532 Baniocha","www.parafiabaniocha.waw.pl","","22 727 55 15, fax +48 22 727 55 15","","7:30, 9:00, 10:30, 12:00, 18:00 (od I Niedzieli Adwentu do Niedzieli Palmowej - godz. 17:00)","7:30, 18:00 (od I Niedzieli Adwentu do Niedzieli Palmowej - godz. 17:00)","","52.020880,21.117903","http://archidiecezja.warszawa.pl/parafie/baniocha-nmp-krolowej-pokoju-w-rodzinach/"
"Bazylika archikatedralna św. Jana Chrzciciela","","","ul. Świętojańska 8, 00-288 Warszawa","www.katedra.mkw.pl","archi@katedra.mkw.pl","22 831 02 89","","8:00, 9:30, 11:00 (suma), 12:30, 18:00, 19:00, 21:00","7:00, 7:30 (poza okresem wakacyjnym), 8:00, 19:00","","52.248757,21.013504","http://archidiecezja.warszawa.pl/parafie/bazylika-archikatedralna-sw-jana-chrzciciela/"
"ŚWIĘTEJ TRÓJCY","","","ul. Modrzewiowa 4, 05-622 Belsk Duży","www.parafiatrojcybelskduzy.pl","swtrojca.belsk@neostrada.pl","48 661 16 27, fax +48 48 661 16 27","","9:00, 12:00, 16:00 (w okresie letnim - godz. 17:00)","8:00, 16:00 (od kwietnia do września - godz. 17:00)","","51.826703,20.808810","http://archidiecezja.warszawa.pl/parafie/belsk-swietej-trojcy/"
"OBJAWIENIA PAŃSKIEGO","","","ul. Łaszczyńskiego 1, 05-082 Blizne","www.objawieniepanskie.waw.pl","par.objawieniapanskiego@gmail.com","22 722 02 50","","9:00, 10:30 (dla dzieci, poza wakacjami), 12:00, 18:00","8:00, 18:00","","52.244212,20.882168","http://archidiecezja.warszawa.pl/parafie/blizne-objawienia-panskiego/"
"PRZEMIENIENIA PAŃSKIEGO","","","Boglewice 57, 05-604 Jasieniec","","","48 662 23 94","","9:00, 11:00, 17:00 (poza wakacjami)","17:00","","51.808456,20.997595","http://archidiecezja.warszawa.pl/parafie/boglewice-przemienienia-panskiego/"
"Bogurodzicy Maryi na Jelonkach Północnych","","","ul. Powstańców Śląskich 67d, 01-355 Warszawa","www.bogurodzica.com.pl","parafia@bogurodzica.com.pl","22 665 18 69","","7:00, 8:30, 10:00 (dla młodzieży), 11:30 (dla dzieci), 13:00, 18:00, 19:30 (dla studentów)","7:00, 8:00, 18:00, 19:00","","52.234229,20.911708","http://archidiecezja.warszawa.pl/parafie/bogurodzicy-maryi-na-jelonkach-polnocnych/"
"Św. WINCENTEGO FERRERIUSZA","","","ul. Warszawska 822, 05–083 Borzęcin Duży","www.swietywincenty.waw.pl","info@swietywincenty.waw.pl","22 752 05 21","","8:30, 10:00 (dla dzieci), 11:30, 16:00","17:30","","52.251684,20.737582","http://archidiecezja.warszawa.pl/parafie/borzecin-sw-wincentego-ferreriusza/"
"Bramki Św. MAKSYMILIANA KOLBEGO","","","ul. Kościelna 7, 05-870 Błonie","www.parafiabramki.waw.pl","","22 725 60 49","","7:00 (w DPS), 9:00, 12:00","7:00 (we wtorek, czwartek i sobotę), 17:00 (w poniedziałek, środę i piątek, zimą o godz. 18:00)","","52.192285,20.531706","http://archidiecezja.warszawa.pl/parafie/bramki-sw-maksymiliana-kolbego/"
"Św. FLORIANA","","","ul. Biskupicka 2, 05-840 Brwinów","www.swflorian.com","swflorian@swflorian.com","22 729 61 44","","7:00, 9:00, 10:30, 11:45 (dla dzieci), 13:00, 15:00 (Msza Trydencka), 18:00","7:00, 8:00, 18:00","","52.142912,20.715124","http://archidiecezja.warszawa.pl/parafie/brwinow-sw-floriana/"
"Bł. MARCELINY DAROWSKIEJ","","","Łomianki-Buraków, ul. Sobieskiego 2a, 05-092 Łomianki","","","22 751 84 08","","8:00, 10:00, 12:00","6:45 (w wakacje - godz. 7:15), 18:00 (poniedziałek, środa, piątek, sobota)","","52.323740,20.919038","http://archidiecezja.warszawa.pl/parafie/burakow-bl-marceliny-darowskiej/"
"Bł Edmunda Bojanowskiego na Wolicy","","","ul. Kokosowa 12, 02-797 Warszawa","www.bojanowski.org","parafia@bojanowski.org","602 786 198","","8:00, 10:00, 11:15 (dla dzieci), 12:30, 18:00","6:45, 18:00","","52.152533,21.062045","http://archidiecezja.warszawa.pl/parafie/bl-edmunda-bojanowskiego-na-wolicy/"
"Bł Edwarda Detkensa","","","ul. Dewajtis 3, 01-815 Warszawa","www.lasbielanski.pl","lasbielanski@lasbielanski.pl","22 83 90 400 (domek nr 10)","","11:00 (suma), 13:00","12:00","","52.295942,20.959819","http://archidiecezja.warszawa.pl/parafie/bl-edwarda-detkensa/"
"Bł Władysława z Gielniowa w Natolinie","","","ul. Przy Bażantarni 3, 02-793 Warszawa","www.blwlad.org.pl","kancelaria@blwlad.org.pl","22 648 59 11","","7.00, 9.00, 10.30, 12.00, 13:15, 18:00 (młodzieżowa), 20:00","7:00, 7:30, 18:00, 19:00 (w soboty 18:00 - liturgia niedzielna)","","52.137248,21.065597","http://archidiecezja.warszawa.pl/parafie/bl-wladyslawa-z-gielniowa-w-natolinie/"
"Św. PROKOPA OPATA","","","Stary Rynek 13, 05-620 Błędów","www.parafiabledow.pl","ksleszek@parafiabledow.pl","48 668 00 59","","7:00, 9:00, 11:00","Zgodnie z planem intencji","","51.774762,20.698735","http://archidiecezja.warszawa.pl/parafie/bledow-sw-prokopa-opata/"
"NARODZENIA PAŃSKIEGO","","","ul. Powstańców 8a, 05-870 Błonie","www.narodzenia-panskiego.mkw.pl","parafia-np.@narodzenia-panskiego.mkw.pl","22 725 12 25","","8:00, 10:00 (młodzieżowa), 11:30 (dla dzieci), 13:00 (suma), 18:00","7:00 (poza wakacjami), 18:00","","52.198638,20.621056","http://archidiecezja.warszawa.pl/parafie/blonie-narodzenia-panskiego/"
"ŚWIĘTEJ TRÓJCY","","","ul. Jana Pawła II 5, 05-870 Błonie","www.parafiasw3blonie.pl","","22 731 94 40","","7:00, 8:30, 10:00, 11:30, 13:00, 18:00","6:30, 7:30, 18:00 (w wakacje o 19:00)","","52.193381,20.613902","http://archidiecezja.warszawa.pl/parafie/blonie-swietej-trojcy/"
"Chylice Św. URSZULI LEDÓCHOWSKIEJ","","","ul. Dworska 5, 05-510 Konstancin-Jeziorna","www.parafiachylice.pl","parafiachylice@gmail.com","22 756 89 51","","8:00, 10:30, 12:00, 18:00","9:00, 18:00","","52.082886,21.069885","http://archidiecezja.warszawa.pl/parafie/chylice-sw-urszuli-ledochowskiej/"
"ŚWIĘTEJ TRÓJCY","","","Chynów 47, 05-650 Chynów k. Grójca","www.parafia-chynow.pl","parafia@parafia-chynow.pl","48 661 42 24","","8:00, 9:30, 11:00, 12:30, 18:00 (od października do Wielkanocy o godz. 17:00, poza wakacjami)","8:30, 17:00 (od października do końca Adwentu; od lutego do Wielkanocy; w soboty w styczniu), 18:00","","51.903591,21.080891","http://archidiecezja.warszawa.pl/parafie/chynow-swietej-trojcy/"
"MATKI BOŻEJ KRÓLOWEJ POLSKI","","","ul. Kard. S. Wyszyńskiego 4, 05-152 Czosnów, Cząstków Mazowiecki","","parafiambkp@wp.pl","22 785 02 65","","9:00, 11:00, 18:00 (w okresie zimowym - godz. 17:00)","18:00 (w okresie zimowym - godz. 17:00)","","52.392238,20.742390","http://archidiecezja.warszawa.pl/parafie/czastkow-matki-bozej-krolowej-polski/"
"PRZEMIENIENIA PAŃSKIEGO","","","Plac Tysiąclecia 14, Czersk, 05-530 Góra Kalwaria","www.parafiaczersk.pl","","22 727 32 12","","9:00, 11:00, 18:00","8:00, 18:00","","51.958765,21.230928","http://archidiecezja.warszawa.pl/parafie/czersk-przemienienia-panskiego/"
"Dąbrowa Leśna. Św. MARKA EWANGELISTY","","","ul. Żywiczna 2, 05-092 Łomianki","www.parafia-dabrowa.pl","","22 751 85 91","","9:00, 11:00 (dla dzieci), 18:00","18:00 (w czasie kolędy - godz. 8:00)","","52.326447,20.886664","http://archidiecezja.warszawa.pl/parafie/dabrowa-lesna-sw-marka-ewangelisty/"
"ŚW. MATEUSZA EWANGELISTY","","","Dawidy Bankowe, ul. Miklaszewskiego 98, 05-090 Raszyn","www.swmateusz-dawidy.pl","","22 720 80 87","","8:00, 9:30, 11:30 (dla dzieci)","8:00 (wtorek, czwartek), 17:00 (poniedziałek, środa, piątek, sobota)","","52.124665,20.962995","http://archidiecezja.warszawa.pl/parafie/dawidy-sw-mateusza-ewangelisty/"
"Dobrego Pasterza na Urlychowie","","","ul. Szczecińskiego 5, 01-113 Warszawa","www.dobrypasterz.waw.pl","parafia@dobrypasterz.waw.pl","22 877 16 79","","7:00, 8:30, 10:00, 11:30 (dla dzieci), 13:00, 17:00 (poza wakacjami), 19:00 (akademicka)","6:30 (poza wakacjami), 7:00, 8:00, 9:00, 18:00 (poza wakacjami), 19:00","","52.236446,20.938763","http://archidiecezja.warszawa.pl/parafie/dobrego-pasterza-na-reducie-wolskiej/"
"ŚWIĘTYCH APOSTOŁÓW PIOTRA i PAWŁA","","","ul. Grójecka 20 , 05-651 Drwalew k. Grójca","","parafiadrwalew@wp.pl","48 664 65 84","","9:00, 11:45, 17:00","18:00 (w okresie zimowym - godz. 17:00)","","51.896660,21.022100","http://archidiecezja.warszawa.pl/parafie/drwalew-swietych-apostolow-piotra-i-pawla/"
"Dzieciątka Jezus na Żoliborzu","","","ul. Czarnieckiego 15, 01-548 Warszawa","www.dzieciatko-jezus.pl","kancelaria@dzieciatko-jezus.pl","22 839 21 68","","8:00, 9:15, 10:30, 11:45 (dla dzieci), 13:00, 18:00","7:00, 8:00, 18:00","","52.265736,20.990715","http://archidiecezja.warszawa.pl/parafie/dzieciatka-jezus-na-zoliborzu/"
"Dziekanów Leśny. Matki Bożej Królowej Rodzin","","","ul. Miła 52, 05-092 Łomianki","www.parafiadziekanow.pl","d.kosk@parafiadziekanow.pl","501 161 939","","8:30, 10:00, 11:30 (dla dzieci), 18:00","18:00","","52.351210,","http://archidiecezja.warszawa.pl/parafie/dziekanow-lesny-matki-bozej-krolowej-rodzin/"
"Kalwaria. NIEPOKALANEGO POCZĘCIA NMP","","","ul. Ks. Sajny 2, 05-530 Góra Kalwaria","www.gorakalwaria.marianie.pl","gorakalwaria@marianie.pl","22 727 35 61, fax +48 22 727 21 90","","7:00, 8:30, 10:00 (suma), 11:30 (dla dzieci), 12:45, 19:00","7:00, 8:00, 9:00 (we wtorek), 16:30 (pierwszy piątek miesiąca w roku szkolnym), 18:00","","51.981274,21.220233","http://archidiecezja.warszawa.pl/parafie/gora-kalwaria-niepokalanego-poczecia-nmp/"
"Kampinoskie. NAWIEDZENIA NMP","","","Górki Kampinoskie 69, 05-156 Górki Kampinoskie","","parafia.gorki.kampinoskie@wp.pl","22 794 01 13","","9:00, 10:30","17:30","","52.323370,20.519753","http://archidiecezja.warszawa.pl/parafie/gorki-kampinoskie-nawiedzenia-nmp/"
"Św. MICHAŁA ARCHANIOŁA","","","Warszawska 25, 05-610 Goszczyn","","","48 332 05 26","","8:30, 10:00, 12:00, 18:00 (od kwietnia do września)","7:00, 17:00 (od kwietnia do września - godz. 18:00)","","51.732087,20.852276","http://archidiecezja.warszawa.pl/parafie/goszczyn-sw-michala-archaniola/"
"Mazowiecki MATKI BOŻEJ NIEUSTAJĄCEJ POMOCY","","","ul. Piaskowa 21, 05-825 Grodzisk Mazowiecki","www.mbnp.waw.pl","kancelaria@mbnp.waw.pl","22 755 24 46","","8:00, 10:00, 12:00 (dla rodzin), 18:00","7:00, 18:00","","52.101856,20.649527","http://archidiecezja.warszawa.pl/parafie/grodzisk-mazowiecki-matki-bozej-nieustajacej-pomocy/"
"Mazowiecki. MIŁOSIERDZIA BOŻEGO","","","ul. Orzeszkowej 10 , 05-827 Grodzisk Mazowiecki","www.parafia-mb.csd.pl","","22 755 72 87","","8:00, 10:00 (młodzieżowa), 11:30 (dla dzieci), 13:00, 18:00","7:00, 18:00","","52.110003,20.639055","http://archidiecezja.warszawa.pl/parafie/grodzisk-mazowiecki-milosierdzia-bozego/"
"Mazowiecki. PRZEMIENIENIA PAŃSKIEGO","","","ul. Łączna 1 , 05-825 Grodzisk Mazowiecki","www.parafia-przemienienia-grodzisk.pl","parafia@parafia-przemienienia-grodzisk.pl","22 755 62 44","","8:00, 10:00, 12:00, 18:00","7:15, 18:00","","52.118385,20.612020","http://archidiecezja.warszawa.pl/parafie/grodzisk-mazowiecki-przemienienia-panskiego/"
"Mazowiecki. Św. ANNY","","","Plac Zygmunta Starego 2a, 05-825 Grodzisk Mazowiecki","www.swietaanna.pl","","22 724 06 11, fax +48 22 755 56 45","","7:00, 8:45, 10:00, 11:30, 11:30 (dla dzieci, w kaplicy), 12:45, 18:30, 20:00","7:00, 8:00, 17:30, 18:30","","52.103571,20.622446","http://archidiecezja.warszawa.pl/parafie/grodzisk-mazowiecki-sw-anny/"
"MIŁOSIERDZIA BOŻEGO","","","ul. Jana Pawła II 24, 05-600 Grójec","www.milosierdzie.grojec.eu","","48 664 47 77","","7:30, 9:00, 10:30, 12:00 (dla dzieci), 17:00 (młodzieżowa)","7:00, 17:00","","51.861811,20.873832","http://archidiecezja.warszawa.pl/parafie/grojec-milosierdzia-bozego/"
"Św. MIKOŁAJA BISKUPA","","","ul. Worowska 1, 05-600 Grójec","www.mikolaj.grojec.eu","","48 664 23 65","","6:30, 8:00, 9:30 (młodzieżowa), 11:00 (dla dzieci), 12:30 (suma), 17:00, 19:00","6:30, 7:30, 18:00","","51.867927,20.863424","http://archidiecezja.warszawa.pl/parafie/grojec-sw-mikolaja-biskupa/"
"MB WSPOMOŻENIA WIERNYCH","","","ul. Millenium 13, 05-503 Głosków","www.gloskow.salezjanie.pl","gloskow@salezjanie.pl","22 757 82 99, fax +48 22 757 82 99","","7:30, 10:15, 12:00, 18:00","7:30, 18:00","","52.028771,20.956857","http://archidiecezja.warszawa.pl/parafie/gloskow-mb-wspomozenia-wiernych/"
"Św. FRANCISZKA z ASYŻU","","","ul. 3 Maja 83, 05–080 Izabelin","www.swfranciszek.pl","","22 722 60 94","","8:30, 10:00, 11:30 (suma), 12:45 (dla dzieci), 18:00 (młodzieżowa)","8:00, 18:00","","52.295549,20.799823","http://archidiecezja.warszawa.pl/parafie/izabelin-sw-franciszka-z-asyzu/"
"Św. MICHAŁA ARCHANIOŁA","","","ul. Oziębłowskiego 12, 05-825 Izdebno Kościelne","www.swmichalarch.pl","parafia@swmichalarch.pl","22 720 07 65","","9:00, 11:30","18:00","","52.138185,20.533730","http://archidiecezja.warszawa.pl/parafie/izdebno-sw-michala-archaniola/"
"Św. ROCHA","","","ul. Warecka 37, 05-604 Jasieniec","www.parafia-jasieniec.pl ","jasieniec@parafia-jasieniec.pl","48 661 35 12","","8:00, 9:30, 12:00, 17:00 (poza wakacjami)","7:00, 17:00","","51.821692,20.941991","http://archidiecezja.warszawa.pl/parafie/jasieniec-sw-rocha/"
"Św. ROCHA","","","ul. Główna 2, 05-502 Jazgarzew","www.parafiajazgarzew.pl","roch@warszawa.opoka.org.pl","22 756 76 41","","7:30, 9:15 (młodzieżowa), 11:45 (dla dzieci), 18:00","18:00","","52.042502,20.993455","http://archidiecezja.warszawa.pl/parafie/jazgarzew-sw-rocha/"
"PRZEMIENIENIA PAŃSKIEGO","","","Jeziórka 16, 05-652 Pniewy k. Grójca","www.parafia-jeziorka.pl ","kancelaria@parafia-jeziorka.pl","48 668 69 56","","9:00, 11:30, 16:00","7:00 (poniedziałek, wtorek, środa), 18:00 (czwartek, piątek, sobota; w okresie jesienno-zimowym o godz. 17:00)","","51.881895,20.750317","http://archidiecezja.warszawa.pl/parafie/jeziorka-przemienienia-panskiego/"
"Św. JÓZEFA OPIEKUNA PRACY","","","Józefosław, ul. Ogrodowa 3, 05-500 Piaseczno","www.parafia-jozefoslaw.pl/strona-glowna/","jozefoslaw.parafia@gmail.com","22 750 76 77","","8:00, 9:30, 11:00, 12:30, 18:00","8:00, 18:00 (w okresie zimowym - godz. 17:00)","","52.101574,21.035900","http://archidiecezja.warszawa.pl/parafie/jozefoslaw-sw-jozefa-opiekuna-pracy/"
"ŚWIĘTEJ RODZINY","","","Kamionka, Świerkowa 9/13, 05-502 Piaseczno","www.swieta-rodzina.pl","","22 757 41 28","","7:30. 9:00, 10:30, 12:00, 16:00 (poza wakacjami), 18:00","18:00 (w okresie zimowym - godz. 17:00)","","52.056667,20.979843","http://archidiecezja.warszawa.pl/parafie/kamionka-swietej-rodziny/"
"WNIEBOWZIĘCIA NMP","","","ul. Chopina 22, 05-085 Kampinos","www.parafiakampinos.pl","parafia@parafiakampinos.pl","22 725 00 15","","8:00, 9:30, 11:00","8:00 (poza środą), 17:00 (w dni powszednie w maju, czerwcu i październiku, przez cały rok w środę)","","52.267892,20.460757","http://archidiecezja.warszawa.pl/parafie/kampinos-wniebowziecia-nmp/"
"ŚWIĘTYCH APOSTOŁÓW PIOTRA i PAWŁA","","","Kaski 22a, ul. Królewska 27, 96-314 Baranów","","","46 856 07 25","","","","","52.171272,20.436322","http://archidiecezja.warszawa.pl/parafie/kaski-swietych-apostolow-piotra-i-pawla/"
"MATKI BOŻEJ SZKAPLERZNEJ","","","Kazuń Bielany, ul. Kościelna 1, 05-152 Czosnów","www.parafiakazun.pl","parafiakazun@parafiakazun.pl","22 785 07 67","","7:30, 8:45 (kaplica Podwyższenia Krzyża Świętego w Małocicach), 10:30, 12:00 (suma)","18:00 (od października do lutego - godz. 17:00)","","52.407011,20.680977","http://archidiecezja.warszawa.pl/parafie/kazun-matki-bozej-szkaplerznej/"
"Św. JANA CHRZCICIELA","","","Kędzierówka 1, 05-540 Kędzierówka","","","22 727 61 20","","9:00, 10:30 (w wakacje o 11:00), 12:00 (poza wakacjami), 18:00","18:00","","51.981471,21.039760","http://archidiecezja.warszawa.pl/parafie/kedzierowka-sw-jana-chrzciciela/"
"NARODZENIA NMP","","","ul. 3-go Maja 9, 05-806 Komorów","komorow.mkw.pl","parafiakomorow@magazynparafialny.org","22 758 06 15","","8:00, 9:30, 9:30 (młodzieżowa, Dolny Kościół, od października do maja), 11:00, 11:00 (dla dzieci, Dolny Kościół, od października do maja), 12:30 (poza wakacjami), 18:00 (w wakacje - godz. 19:00)","7:00, 18:00","","52.144669,20.813801","http://archidiecezja.warszawa.pl/parafie/komorow-narodzenia-nmp/"
"ŚWIĘTEJ TRÓJCY","","","Konary 60a, 05-660 Warka","","parafia.konary@wp.pl","48 667 61 23","","9:00, 12:00","7:00 (w okresie zimowym - g. 8:00)","","51.875901,21.236830","http://archidiecezja.warszawa.pl/parafie/konary-swietej-trojcy/"
"MATKI BOŻEJ ANIELSKIEJ w Skolimowie","","","ul. Środkowa 15, 05-510 Konstancin-Jeziorna","www.mbanielska.mkw.pl","","22 754 67 54","","7:30, 9:00, 10:30 (w wakacje o godz. 11:00), 12:00 (poza wakacjami), 18:00","7:00, 18:00","","52.078642,21.103954","http://archidiecezja.warszawa.pl/parafie/konstancin-jeziorna-matki-bozej-anielskiej-w-skolimowie/"
"Św. JÓZEFA OBLUBIEŃCA NMP (Mirków)","","","ul. Jaworskiego 1 , 05-520 Konstancin-Jeziorna","www.swjozef.net","","22 754 38 67","","8:30, 10:30, 12:00 (dla dzieci), 18:00","7:00 (w wakacje w poniedziałek, wtorek, czwartek), 18:00 (w wakacje w środę, piątek, sobotę)","","52.095330,21.135264","http://archidiecezja.warszawa.pl/parafie/konstancin-jeziorna-sw-jozefa-oblubienca-nmp-mirkow/"
"ŚWIĘTEJ BOŻEJ RODZICIELKI MARYI w Klarysewie","","","ul Słoneczna 20, 05-520 Konstancin-Jeziorna","www.parafiaklarysew.waw.pl","","22 756 33 48","","8:00, 10:00, 12:00, 18:00","18:00","","52.098051,21.113498","http://archidiecezja.warszawa.pl/parafie/konstancin-jeziorna-swietej-bozej-rodzicielki-maryi-w-klarysewie/"
"WNIEBOWZIĘCIA NMP","","","al. Józefa Piłsudskiego 54, 05-510 Konstancin-Jeziorna","wniebowziecie.pl","konstancinwniebowziecianmp@gmail.com","22 756 42 45","","7:00, 8:30, 10:00, 11:30, 13:00, 18:30","7:00, 18:30, 17:30 (oprócz wakacji i czasu wizyty duszpasterskiej)","","","http://archidiecezja.warszawa.pl/parafie/konstancin-jeziorna-wniebowziecia-nmp/"
"Kostowiec NMP WSPOMOŻENIA WIERNYCH","","","ul. ks. Stanisława Przeździeckiego 2, 05-831 Młochów","www.parafiakostowiec.pl","proboszcz@parafiakostowiec.pl","22 729 94 85","","7:30 (w kaplicy u Sióstr Rodziny Maryi), 9:30 (dla dzieci), 12:00","7:00 (od poniedziałku do piątku, w kaplicy u Sióstr Rodziny Maryi), 7:30 (sobota, w kaplicy u Sióstr Rodziny Maryi), 18:00","","52.059796,20.743075","http://archidiecezja.warszawa.pl/parafie/kostowiec-nmp-wspomozenia-wiernych/"
"Św. Jana Marii Vianneya","","","Al. E. Marylskiego 5, Książenice, 05-825 Grodzisk Mazowiecki","www.jan-maria-vianney.pl","parafia@jan-maria-vianney.pl","601 319 715","","8:00, 10:00 (dla dzieci), 12:00 (suma)","18:00 (we wtorek o godz. 8:00)","","52.071801,20.693553","http://archidiecezja.warszawa.pl/parafie/ksiazenice-sw-jana-marii-vianneya/"
"MATKI BOŻEJ CZĘSTOCHOWSKIEJ","","","ul. Józefa Chełmońskiego 6, Kuklówka Zarzeczna, 96-325 Radziejowice","www.parafiakuklowka.pl","kancelaria@parafiakuklowka.pl","22 243 29 82","","8:00, 10:00, 11:30, 18:00","7:00, 18:00","","52.047444,20.594277","http://archidiecezja.warszawa.pl/parafie/kuklowka-matki-bozej-czestochowskiej/"
"Warszawskie. MATKI BOŻEJ KRÓLOWEJ MEKSYKU","","","ul. 3-go Maja 40/42, Laski Warszawskie, 05-080 Izabelin","www.parafiawlaskach.pl","parafiawlaskach@gmail.com","22 752 21 07","","9:00, 10:30, 12:00, 19:00","7:00, 18:30","","52.293150,20.846163","http://archidiecezja.warszawa.pl/parafie/laski-warszawskie-matki-bozej-krolowej-meksyku/"
"Św. MAŁGORZATY DM","","","pl. Romana Kobendzy 5, 05-155 Leoncin","","kamyk11@autograf.pl","22 785 65 83","","8:45, 12:00, 17:00","17:30, 18:00","","52.394576,20.540428","http://archidiecezja.warszawa.pl/parafie/leoncin-sw-malgorzaty-dm/"
"Polana. MATKI BOŻEJ KRÓLOWEJ POLSKI","","","Leśna Polana al. Prymasa Tysiąclecia 3 , 05-504 Złotokłos","www.par.lesnapolana.ns48.pl","aruszkowski3@wp.pl","22 727 70 99","","9:00, 11:30, 18:00 (w okresie zimowym - g. 16:00)","8:00 (wtorek, czwartek), 18:00 (poniedziałek, środa, piątek, sobota; w okresie zimowym - g. 17:00)","","51.980998,20.905780","http://archidiecezja.warszawa.pl/parafie/lesna-polana-matki-bozej-krolowej-polski/"
"NARODZENIA ŚW. JANA CHRZCICIELA","","","ul. Warszawska 1, 05-084 Leszno k. Błonia","www.parafia-leszno.com","parafia@parafia-leszno.com","22 725 80 24","","7:30, 9:00, 10:30, 12:00, 18:00","7:00, 18:00","","52.258320,20.592245","http://archidiecezja.warszawa.pl/parafie/leszno-narodzenia-sw-jana-chrzciciela/"
"Bł. HONORATA KOŹMIŃSKIEGO","","","ul. Piaseczyńska 7, Lesznowola, 05-600 Grójec","","","48 664 64 88","","9:00, 11:00, 16:00","19:00 (od października do Niedzieli Bożego Miłosierdzia - godz. 17:00)","","51.912814,20.902927","http://archidiecezja.warszawa.pl/parafie/lesznowola-bl-honorata-kozminskiego/"
"Św. WOJCIECHA BM i św. MARCINA","","","Lewiczyn 1, 05-622 Belsk Duży","www.sanktuarium-lewiczyn.pl","sanktuarium.lewiczyn@gmail.com","48 661 17 60","","9:00, 11:30, 17:00 (od października do Wielkanocy - godz. 16:00)","7:30 (poniedziałek, wtorek, w okresie letnim, od listopada do Wielkanocy), 8:00 (poniedziałek, wtorek, w okresie letnim, od listopada do Wielkanocy), 16:00 (od środy do soboty, od listopada do Wielkanocy), 16:30 (w październiku; od środy do soboty, od listopada do Wielkanocy), 17:00 (w październiku), 17:30 (w maju i czerwcu; od środy do soboty, w okresie letnim), 18:00 (w maju i czerwcu; od środy do soboty, w okresie letnim)","","51.802171,20.860894","http://archidiecezja.warszawa.pl/parafie/lewiczyn-sw-wojciecha-bm-i-sw-marcina/"
"ŚWIĘTEJ TRÓJCY","","","Lipie 33, 05-620 Błędów","","parafialipie@gmail.com","48 668 10 52","","9:00, 11:30, 16:00","18:00 (w okresie zimowym - godz. 16:00)","","51.824534,20.706377","http://archidiecezja.warszawa.pl/parafie/lipie-swietej-trojcy/"
"Św. ROCHA","","","ul. Jakubowicza 120, Lipków, 05-080 Izabelin","www.swroch-lipkow.pl","","22 722 60 80","","8:30, 10:00, 11:30 (dla dzieci), 13:00 (suma), 18:30 (młodzieżowa, od października do czerwca - godz. 17:00)","18:00","","52.279991,20.804760","http://archidiecezja.warszawa.pl/parafie/lipkow-sw-rocha/"
"Magdalenka Św. MARII MAGDALENY","","","ul. Ks. H. Słojewskiego 19, 05-552 Wólka Kosowska","www.parafia-magdalenka.pl","parafia@parafia-magdalenka.pl","22 757 77 63, fax +48 22 757 99 93","","8:30 (w wakacje - godz. 8:00), 10:00 (Lesznowola, w wakacje - godz. 9:30), 11:00, 12:30 (poza wakacjami), 18:00","7:00 (w wakacje - godz. 9:00), 18:00","","52.082962,20.896608","http://archidiecezja.warszawa.pl/parafie/magdalenka-sw-marii-magdaleny/"
"Matki Bożej Anielskiej na Wierzbnie","","","ul. Modzelewskiego 98a, 02-679 Warszawa","www.franciszkanie-mokotow.pl","ofm@franciszkanie-mokotow.pl","22 848 42 35 wew. 226","","7:00, 8:00, 9:30, 11:00 (dla dzieci), 12:30, 17:00, 18:30, 20:00 (w wakacje)","7:00, 8:00, 9:00, 18:30","","","http://archidiecezja.warszawa.pl/parafie/matki-bozej-anielskiej-na-wierzbnie/"
"Matki Bożej Częstochowskiej na Powiślu","","","ul. Zagórna 5, 00-441 Warszawa","www.matka-boza-czestochowska.mkw.pl","","22 629 23 52, fax +48 22 629 23 52","","7:00, 9:00, 10:00, 11:30 (dla dzieci), 13:00 (w wakacje o 12:00), 17:00 (młodzieżowa), 17:00","7:00, 7:30, 18:00","","52.226045,21.040726","http://archidiecezja.warszawa.pl/parafie/matki-bozej-czestochowskiej-na-powislu/"
"Matki Bożej Fatimskiej w Ursusie","","","ul. Zagłoby 37, 02-495 Warszawa","www.smbfat.pl","smbfat@poczta.onet.pl","22 667 02 13, fax 22 662 48 49","","7:30, 9:00, 10:30, 12:00, 18:00","7:00, 7:30, 8:00, 18:00","","52.192128,20.8613","http://archidiecezja.warszawa.pl/parafie/matki-bozej-fatimskiej/"
"Matki Bożej Królowej Aniołów na Bemowie","","","ul. Ks. Bronisława Markiewicza 1, 01-493 Warszawa","www.parafia-bemowo.waw.pl/","kancbemowo@wp.pl","22 638 24 58","","7:00, 8:30, 10:00 (młodzieżowa), 10:00 (dla dzieci - Kaplica), 11:30 (suma), 11:30 (dla dzieci - Kaplica), 13:00, 13:00 (chrzcielna - Kaplica), 18:00, 20:00 (akademicka)","6:15, 7:00, 8:00, 18:00","","52.254929,20.921098","http://archidiecezja.warszawa.pl/parafie/matki-bozej-krolowej-aniolow-na-bemowie/"
"Matki Bożej Królowej Pokoju na Młocinach","","","ul. Dzierżoniowska 7, 01-985 Warszawa","www.mlociny.mkw.pl","","22 834 11 61","","9:00, 10:30 (dla dzieci), 12:00, 18:00, 19:30 (młodzieżowa)","7:00, 18:00","","52.308338,20.923456","http://archidiecezja.warszawa.pl/parafie/matki-bozej-krolowej-pokoju-na-mlocinach/"
"Matki Bożej Królowej Polski na Marymoncie","","","ul. Gdańska 6a , 01-691 Warszawa","www.parafia-marymont.pl","parafiamarianie@gmail.com","22 833 23 11","","7:00, 8:30, 10:00, 11:30 (dla dzieci), 13:00 (poza wakacjami), 18:00, 20:00 (w wakacje)","7:00, 8:00, 12:00 (poza wakacjami), 18:00","","52.274366,20.974560","http://archidiecezja.warszawa.pl/parafie/matki-bozej-krolowej-polski-na-marymoncie/"
"Matki Bożej Ostrobramskiej na Boernerowie","","","ul. Gen. Kaliskiego 49 , 01-476 Warszawa","www.boernerowo.pl","","22 682 15 13, fax +48 22 682 15 13","","7:30, 9:00, 10:30, 12:00 (dla dzieci), 13:00 (poza wakacjami), 18:00 (akademicka)","7:00, 18:00","","52.262519,20.897810","http://archidiecezja.warszawa.pl/parafie/matki-bozej-ostrobramskiej-na-boernerowie/"
"Matki Bożej Saletyńskiej w Starych Włochach","","","ul. Popularna 46, 02-473 Warszawa","www.warszawa.saletyni.pl","warszawa@saletyni.pl","22 863 80 34","","7:00, 8:00, 9:30, 11:00, 12:30, 18:00, 19:30","7:00, 18:00","","52.203195,20.924672","http://archidiecezja.warszawa.pl/parafie/matki-bozej-saletynskiej-w-starych-wlochach/"
"Matki Bożej Wspomożycielki Wiernych na Chomiczówce","","","ul. J. Conrada 7, 01-922 Warszawa","www.wspomozycielka.waw.pl","parafia@wspomozycielka.waw.pl","22 669-70-81, fax +48 22 669-70-81","","7:00, 8:30, 10:00, 11:30 (dla dzieci), 13:00, 18:00 (młodzieżowa)","Pon-pt: 6:30, 8:00, 17 (w okresie zimowym) 18:00, 19:15 (w okresie letnim); Sob: 6:30, 8:00, 18:00","","52.271124,20.927737","http://archidiecezja.warszawa.pl/parafie/matki-bozej-wspomozycielki-wiernych-na-chomiczowce/"
"ŚWIETEJ RODZINY","","","Michalczew 54, 05-660 Warka","www.parafia-michalczew.pl","kancelaria@parafia-michalczew.pl","48 66 77 419, +48 503 548 763","","","","","51.842570,21.110350","http://archidiecezja.warszawa.pl/parafie/michalczew-swietej-rodziny/"
"Michałowice-Opacz WNIEBOWZIĘCIA NMP","","","ul. Szkolna 11, 05-816 Michałowice","www.michalowiceopacz.pl","","22 723 89 50 w.14","","8:00, 9:30, 11:00 (dla dzieci), 12:30, 18:00","7:00, 18:00","","52.169785,20.891739","http://archidiecezja.warszawa.pl/parafie/michalowice-opacz-wniebowziecia-nmp/"
"WSZYSTKICH ŚWIĘTYCH","","","Michałowice 4, 05-640 Mogielnica","www.parafia-michalowice.pl","","48 663 54 93","","9:00, 11:00","Zgodnie z planem intencji","","51.637089,20.728176","http://archidiecezja.warszawa.pl/parafie/michalowice-wszystkich-swietych/"
"MATKI BOŻEJ BOLESNEJ","","","ul. Szkolna 7, 05-822 Milanówek","www.parafiambbmilanowek.pl","","22 724 91 80, fax +48 22 723 01 94","","7:30 9:00 11:00 12:30 18:00","7:00 18:00","","52.119223,20.682630","http://archidiecezja.warszawa.pl/parafie/milanowek-matki-bozej-bolesnej/"
"Św. JADWIGI ŚLĄSKIEJ","","","ul. Kościuszki 41, 05-822 Milanówek","www.milanowekswjadwiga.pl","kancelaria@milanowekswjadwiga.pl","22 758 35 42","","7:00, 8:30, 10:00, 11:15, 12:30, 18:00","7:00, 8:00, 18:00","","52.126357,20.663250","http://archidiecezja.warszawa.pl/parafie/milanowek-sw-jadwigi-slaskiej/"
"Miłosierdzia Bożego i św. Faustyny na Muranowie","","","ul. Żytnia 1, 01-014 Warszawa","www.milosierdzie-faustyna.pl","milosierdzie.faustyna@gmail.com","22 636 99 92","","8:00, 9:30, 11:00 (dla dzieci), 12:30, 16:00 (poza wakacjami), 18:00","7:00, 15:00 (w piątek), 18:00","","52.240457,20.983724","http://archidiecezja.warszawa.pl/parafie/milosierdzia-bozego-i-sw-faustyny-na-muranowie/"
"Św. FLORIANA M","","","Plac Poświętne 12, 05-640 Mogielnica","www.parafiamogielnica.pl","poczta@parafiamogielnica.pl","48 663 50 64","","7:30, 9:00 (dla dzieci), 10:15 (młodzieżowa), 12:00 (suma), 18:00 (w okresie zimowym - g. 17:00)","7:00, 18:00 (w okresie zimowym - g. 17:00)","","51.693056,20.720811","http://archidiecezja.warszawa.pl/parafie/mogielnica-sw-floriana-m/"
"Św. STANISŁAWA KOSTKI","","","Mroków, ul. Rejonowa 40, 05-552 Wólka Kosowska","www.parafiamrokow.pl","parafiamrokow@gmail.com","22 756 16 48","","8:00, 10:00, 12:00","18:00 (w okresie zimowym - godz. 17:00)","","52.037366,20.866147","http://archidiecezja.warszawa.pl/parafie/mrokow-sw-stanislawa-kostki/"
"Św. MICHAŁA ARCHANIOŁA","","","ul. Markiewicza 10, 05-831 Młochów","www.mlochow.michalici.ns48.pl","kancelaria@mlochow.michalici.ns48.pl","22 729 92 40","","7:00, 9:00, 10:30 (dla dzieci), 12:00 (Wólka Kosowska), 18:00","18:00","","52.047772,20.783729","http://archidiecezja.warszawa.pl/parafie/mlochow-sw-michala-archaniola/"
"Św. KLEMENSA PM","","","ul. Kościelna 1, 05-830 Nadarzyn","www.parafianadarzyn.pl","parafianadarzyn@wp.pl","22 739 76 20","","8:00, 9:00, 10:30 (młodzieżowa), 12:00 (dla dzieci), 17:00, 20:00","7:00, 18:00","","52.093758,20.807443","http://archidiecezja.warszawa.pl/parafie/nadarzyn-sw-klemensa-pm/"
"Najświętszego Ciała i Krwi Chrystusa na Niedźwiadku","","","ul. Wojciechowskiego 32, 02-495 Warszawa","","","","","7:30, 9:00, 10:30, 12:00, 18:00","8:00, 15:00 (poza wakacjami), 18:00","","52.195627,20.874535","http://archidiecezja.warszawa.pl/parafie/najswietszego-ciala-i-krwi-chrystusa-na-niedzwiadku/"
"Najświętszego Serca Pana Jezusa w Ursusie","","","ul. Piastowska 6a, 02-495 Warszawa","www.nspj.pl","parafia@nspj.pl","22 867 08 40, fax +48 22 867 08 42","","8:00, 10:00, 12:00, 18:00","7:00, 18:00","","52.189074,20.873057","http://archidiecezja.warszawa.pl/parafie/najswietszego-serca-pana-jezusa-w-ursusie/"
"Najświętszego Zbawiciela w Śródmieściu","","","ul. Marszałkowska 37, 00-639 Warszawa","www.parafiazbawiciela.org","zbawiciel.warszawa@neostrada.pl","22 825 31 44","","7:00, 8:30, 10:00, 10:30 (młodzieżowa, Dolny Kościół), 11:30 (dla dzieci), 13:00, 15:00 (z koronką do Miłosierdzia), 18:30 (akademicka), 20:30 (akademicka)","6:30, 7:00, 7:30, 8:00, 9:00, 15:00 (poza sobotą z koronką do Miłosierdzia), 17:00, 18:30","","52.219251,21.017959","http://archidiecezja.warszawa.pl/parafie/najswietszego-zbawiciela-w-srodmiesciu/"
"Narodzenia NMP na Lesznie","","","al. Solidarności 80, 00-145 Warszawa","","","22 831 70 30","","7:00, 8:00, 9:30, 11:00 (suma), 12:15 (w języku angielskim) 18:00","7:00, 8:00, 18:00; (w lipcu i sierpniu tylko 8:00 i 18:00)","","52.242716,20.995305","http://archidiecezja.warszawa.pl/parafie/narodzenia-nmp-na-lesznie/"
"Nawiedzenia NMP na Nowym Mieście","","","ul. Przyrynek 2, 00-219 Warszawa","www.przyrynek.waw.pl","","22 831 24 73","","8:30, 9:30, 11:00 (dla dzieci), 12:00, 18:30","7:00, 15:00 (od pon-pt; Msza poprzedzona Koronką do Bożego Miłosierdzia), 18:30","","52.254324,21.008885","http://archidiecezja.warszawa.pl/parafie/nawiedzenia-nmp-na-nowym-miescie/"
"Niepokalanego Poczęcia NMP na Wrzecionie","","","ul. Przy Agorze 9, 01-960 Warszawa","www.parafia-wrzeciono.pl","kancelaria@parafia-wrzeciono.pl","22 834 17 45","","7:00, 8:30, 10:00, 11:30 (dla dzieci), 13:00, 18:00 (młodzieżowa), 20:00","6:30, 7:00, 7:30, 18:00","","52.291830,20.940121","http://archidiecezja.warszawa.pl/parafie/niepokalanego-poczecia-nmp-na-wrzecionie/"
"NIEPOKALANEGO POCZĘCIA NMP","","","Niepokalanów, 96-515 Teresin k. Sochaczewa","www.parafia.niepokalanow.pl","klasztor@niepokalanow.pl","46 864 22 22, fax +48 46 861 34 90","","6:00, 7:00, 8:30, 10:00, 11:30, 13:00, 16:00, 18:00 (od 1 X do 30 IV), 19:00 (od 1 V do 30 IX)","6:00, 7:00, 8:00, 9:00 (w sobotę), 10:00 (w sobotę), 11:00, 18:00","","52.203906,20.419992","http://archidiecezja.warszawa.pl/parafie/niepokalanow-niepokalanego-poczecia-nmp/"
"NMP Królowej Świata na Ochocie","","","ul. Opaczewska 20, 02-372 Warszawa","www.nmp.waw.pl","","22 824 00 95","","7:00, 8:00, 9:15, 10:30, 11:15 (Dolny Kościół), 12:00, 13:15, 18:30, 20:00","6:15, 7:00, 8:00, 17:30, 18:30","","52.210796,20.970442","http://archidiecezja.warszawa.pl/parafie/nmp-krolowej-swiata-na-ochocie/"
"NMP Królowej Wyznawców na Siekierkach","","","ul. Gwintowa 3, 00-704 Warszawa","www.sanktuarium-pijarzy.pl","","22 841 58 44","","8:00, 9:30, 11:00, 13:00, 18:00","7:30 (w kaplicy), 18:00","","52.208311,21.082398","http://archidiecezja.warszawa.pl/parafie/nmp-krolowej-wyznawcow-na-siekierkach/"
"NMP Matki Kościoła na Ksawerowie","","","ul. Domaniewska 20, 02-672 Warszawa","www.domaniewska.pl","nmp.matki_kosciola@wp.pl","22 848 02 24 wew. 120","","7:00, 8:30, 10:00, 11:30 (dla dzieci), 13:00, 19:00, 21:00","7:00, 9:00, 19:00","","52.183779,21.019120","http://archidiecezja.warszawa.pl/parafie/nmp-matki-kosciola-na-ksawerowie/"
"NMP Matki Miłosierdzia na Stegnach","","","ul. Św. Bonifacego 9, 02-914 Warszawa","www.marianie.pl/stegny","stegny@marianie.pl","22 842 67 34","","7:00, 8:30, 10:00 (suma), 11:30 (dla dzieci), 11:30 (dla dzieci przedszkolnych, Dolny Kościół), 13:00, 18:00, 19:30 (dla młodzieży i studentów)","6:30, 7:00, 8:30, 18:00","","52.178726,21.048392","http://archidiecezja.warszawa.pl/parafie/nmp-matki-milosierdzia-na-stegnach/"
"NMP Matki Zbawiciela na Wyględowie","","","ul. Olimpijska 82/84, 02-636 Warszawa","www.warszawa.sds.pl","warszawa.sds@gmail.com","22 646 46 69","","7:00, 8:30, 10:00 (suma), 11:30 (dla dzieci, poza wakacjami), 13:00, 18:30, 20:00 (akademicka, poza wakacjami)","7:00, 8:00 (poza wakacjami), 18:30","","52.194401,20.992741","http://archidiecezja.warszawa.pl/parafie/nmp-matki-zbawiciela-na-wygledowie/"
"Wieś. Św. IZYDORA ORACZA","","","Nowa Wieś 59, 05-660 Warka","www.parafiaizydoraoracza.pl","parafia@parafiaizydoraoracza.pl","601 168 399","","9:00, 13:00","","","51.807261,21.078640","http://archidiecezja.warszawa.pl/parafie/nowa-wies-sw-izydora-oracza/"
"Ofiarowania Pańskiego na Wyżynach","","","ul. Stryjeńskich 21 , 02-791 Warszawa","www.ofiarowaniepanskie.pl","kontakt@ofiarowaniepanskie.pl","22 648 58 00, fax +48 22 648 58 00","","7:00, 8:00 (poza wakacjami), 9:30 (suma), 11:00 (dla dzieci), 12:30, 16:00 (dla dzieci komunijnych w I i III niedzielę miesiąca od września do maja), 18:00 (młodzieżowa), 20:00","7:00, 8:00, 18:00, 19:00","","52.137516,21.048122","http://archidiecezja.warszawa.pl/parafie/ofiarowania-panskiego-na-wyzynach/"
"ZWIASTOWANIA NMP","","","Żelechów-Ojrzanów, ul. Kościelna 10, 96-321 Żabia Wola","www.parafia-ojrzanow.pl","","46 857 98 15","","7:30 (od 22 czerwca do 15 sierpnia), 9:00, 12:00","7:00 (wtorek, czwartek), 18:00 (poniedziałek, środa, piątek)","","52.016102,20.730980","http://archidiecezja.warszawa.pl/parafie/ojrzanow-zwiastowania-nmp/"
"Opatrzności Bożej na Rakowcu","","","ul. Dickensa 5, 02-107 Warszawa","www.opatrznoscboza.waw.pl","","22 823 63 00","","7:00, 8:00, 9:15, 10:30, 12:00, 13:15 (poza wakacjami), 18:00 (w wakacje - 19:00)","6:30 (poza wakacjami), 7:00, 8:00, 18:00 (w wakacje - 19:00)","","52.204612,20.974088","http://archidiecezja.warszawa.pl/parafie/opatrznosci-bozej-na-rakowcu/"
"Opatrzności Bożej w Wilanowie","","","ul. Ks. Prymasa Augusta Hlonda 1, 02-972 Warszawa","www.parafia.centrumopatrznosci.pl","parafia@centrumopatrznosci.pl","696 454 606","","8:00 (poza wakacjami), 9:00, 10:30 (dla dzieci), 12:00 (suma), 19:00, 20:30 (z chorałem gregoriańskim)","7:00, 12:00, 18:00","","52.158840,21.072275","http://archidiecezja.warszawa.pl/parafie/opatrznosci-bozej-w-wilanowie/"
"n. Pilicą. OFIAROWANIA NMP","","","Ostrołęka n. Pilicą 40, 05-660 Warka","","","48 667 70 52","","9:00, 12:00","","","51.834192,21.260942","http://archidiecezja.warszawa.pl/parafie/ostroleka-n-pilica-ofiarowania-nmp/"
"NMP MATKI KOŚCIOŁA","","","ul. Sadowa 14, 05-805 Otrębusy","www.parafia-otrebusy.mkw.pl","parafiaotrebusy@gmail.com","22 758 51 35","","7:00, 9:00, 11:00, 12:30 (dla dzieci), 18:00 (młodzieżowa)","7:00, 18:00","","52.131250,20.763504","http://archidiecezja.warszawa.pl/parafie/otrebusy-nmp-matki-kosciola/"
"MIŁOSIERDZIA BOŻEGO","","","ul. Poznańska 183, 05-850 Ożarów Mazowiecki","www.milosierdzie.alte.pl","milosierdzie@milosierdzie.alte.pl","22 722 10 88, fax +48 22 721 14 09","","7.00, 9.00, 10.30 (dzieci), 12.00 (chrzty I i III niedziela), 15.00 (z Koronką do Miłosierdzia Bożego), 18.00, 20.00 (młodzież)","7:00, 18:00","","52.212408,20.820841","http://archidiecezja.warszawa.pl/parafie/ozarow-milosierdzia-bozego/"
"Ołtarzew NMP KRÓLOWEJ APOSTOŁÓW","","","ul. Kilińskiego 20, 05-850 Ożarów Mazowiecki","www.parafia-oltarzew.pl","","22 722 13 78","","7:30, 9:00, 10:30, 12:00, 18:00","7:00, 18:30","","52.213645,20.775830","http://archidiecezja.warszawa.pl/parafie/oltarzew-nmp-krolowej-apostolow/"
"Św. BARTŁOMIEJA APOSTOŁA","","","Pawłowice 15, 96-515 Teresin","www.parafiapawlowice.waw.pl","parafia@parafiapawlowice.waw.pl","46 861 54 63","","9:00, 11:30","8:00 (wtorek, czwartek, sobota), 17:00 (poniedziałek, środa, piątek)","","52.227565,20.468977","http://archidiecezja.warszawa.pl/parafie/pawlowice-sw-bartlomieja-apostola/"
"ŚWIĘTYCH APOSTOŁÓW PIOTRA i PAWŁA","","","Pęcice, ul. Parkowa 4, 05-806 Komorów","www.parafiapecice.michalowice.pl","parafiapecice@poczta.onet.pl","22 759 01 96","","9:00, 11:00, 16:00","Zgodnie z planem intencji.","","52.151806,20.848608","http://archidiecezja.warszawa.pl/parafie/pecice-swietych-apostolow-piotra-i-pawla/"
"MATKI BOŻEJ RÓŻAŃCOWEJ","","","ul. Słowicza 1, 05-500 Piaseczno","www.parafia-mbr.neostrada.pl","","22 757 21 62","","7:00, 8:00, 10:00, 11:30, 13:00, 18:00, 19:30 (od listopada do marca - godz. 16:00)","7:00, 7:30 (poza wakacjami), 18:00","","52.076142,21.014917","http://archidiecezja.warszawa.pl/parafie/piaseczno-matki-bozej-rozancowej/"
"Św. ANNY","","","Pl. Piłsudskiego 10, 05-500 Piaseczno","www.sw-anna.pl","","22 756 77 31, fax +48 22 737 15 50","","7:00, 8:30, 10:00 (suma), 11:30 (dla dzieci przedszkolnych, Dom Parafialny), 11:30 (dla dzieci szkolnych, Kościół), 13:00, 18:30 (młodzieżowa), 20:00 (młodzieżowa)","6:30, 8:00, 18:30","","52.074586,21.026542","http://archidiecezja.warszawa.pl/parafie/piaseczno-sw-anny/"
"CHRYSTUSA KRÓLA WSZECHŚWIATA","","","ul. Ogińskiego 41, 05-820 Piastów","www.parafia.piastow.pl","","537 392 323","","8:00, 10:00, 11:30, 13:00 (poza wakacjami), 18:00 (w wakacje - godz. 19:00)","7:00, 18:00","","52.189860,20.828346","http://archidiecezja.warszawa.pl/parafie/piastow-chrystusa-krola-wszechswiata/"
"MATKI BOŻEJ CZĘSTOCHOWSKIEJ","","","Aleja Krakowska 17, 05-820 Piastów","www.mbc-piastow.parafia.info.pl","","22 723 65 79 w. 101","","7:00, 8:30, 10:00, 11:30 (dla dzieci), 13:00 (suma), 18:00 (młodzieżowa)","7:00, 8:00, 18:00","","52.187639,20.843893","http://archidiecezja.warszawa.pl/parafie/piastow-matki-bozej-czestochowskiej/"
"Św. MICHAŁA ARCHANIOŁA","","","ul. Elizy Orzeszkowej 23, 05-820 Piastów","www.sdspiastow.pl","kancelaria@sdspiastow.pl","22 723 14 44","","7:00, 8:30, 10:00, 11:30, 13:00 (poza wakacjami), 18:00 (młodzieżowa)","7:00, 18:00","","52.176045,20.851303","http://archidiecezja.warszawa.pl/parafie/piastow-sw-michala-archaniola/"
"NARODZENIA NMP","","","Pieczyska 23, 05-651 Drwalew","www.pieczyska.parafia.info.pl","pieczyska@wp.pl","22 669 08 05","","8:00, 9:30, 11:30","7:00 (poniedziałek, wtorek, czwartek), 18:00 (środa, piątek, sobota; od października do marca o godz. 17:00)","","51.921714,21.021755","http://archidiecezja.warszawa.pl/parafie/pieczyska-narodzenia-nmp/"
"Leśna. Św. KRZYSZTOFA","","","ul. Jana Pawła II 7, 05-807 Podkowa Leśna","www.podkowalesna.com","","22 758 92 22","","7:30, 9:30, 11:00, 13:00, 18:00","7:00, 18:00","","52.121178,20.726683","http://archidiecezja.warszawa.pl/parafie/podkowa-lesna-sw-krzysztofa/"
"Podwyższenia Krzyża Świętego na Jelonkach","","","ul. Słomiana 2/4, 01-384 Warszawa","www.parafia-jelonki.strefa.pl","parafia.warszawa.jelonki@op.pl","22 664 84 05","","7:00, 8:30, 10:00, 11:30 (dla dzieci), 13:00, 18:00, 19:15 (akademicka)","6:30, 7:15, 18:00","","52.225177,20.910374","http://archidiecezja.warszawa.pl/parafie/podwyzszenia-krzyza-swietego-na-jelonkach/"
"Posłania Uczniów Pańskich na Kępie Zawadowskiej","","","ul. Bruzdowa 11, 02-994 Warszawa","www.poslanieuczniow.waw.pl","parafia@poslanieuczniow.waw.pl","22 243 00 55","","9:00, 11:00","18:00","","52.144334,21.141396","http://archidiecezja.warszawa.pl/parafie/poslania-uczniow-panskich-na-kepie-zawadowskiej/"
"Św. FRANCISZKA z ASYŻU","","","ul. F. Ryxa 35, 05-505 Prażmów","www.parafia.prazmow.pl","","22 727 05 95","","8:00, 9:30, 11:30, 18:00","18:00 (w okresie zimowym - godz. 17:00)","","51.940490,20.953758","http://archidiecezja.warszawa.pl/parafie/prazmow-sw-franciszka-z-asyzu/"
"Św. MARII MAGDALENY","","","ul. Warecka 7, 26-803 Promna","www.parafiapromna.pl","wla@onet.pl","889 147 693","","8:00, 10:00, 12:00, 16:00","18:00","","51.679166,20.958852","http://archidiecezja.warszawa.pl/parafie/promna-sw-marii-magdaleny/"
"MATKI BOŻEJ NIEUSTAJĄCEJ POMOCY","","","pl. Stefana Kard. Wyszyńskiego 1, 05-804 Pruszków","www.parafia.pruszkow.pl","","22 424 23 21","","8:00, 10:30, 12:00, 18:00","7:00, 18:00","","52.152678,20.797534","http://archidiecezja.warszawa.pl/parafie/pruszkow-matki-bozej-nieustajacej-pomocy/"
"NIEPOKALANEGO POCZĘCIA NMP","","","ul. 3-go maja 124, 05-800 Pruszków","www.parafia-zbikow.pl","","22 758 63 92","","7:00, 8:30, 10:00 (młodzieżowa), 11:15 (dla dzieci), 12:30 (suma), 18:00","7:00, 18:00","","52.180653,20.785902","http://archidiecezja.warszawa.pl/parafie/pruszkow-niepokalanego-poczecia-nmp/"
"Św. EDWARDA w Tworkach","","","ul.Partyzantów 22, 05-802 Pruszków","www.swedward.com.pl","swedward@swedward.com.pl","22 758 89 37","","8:00, 9:30, 11:00 (suma), 12:30 (dla dzieci, poza wakacjami), 18:00 (w wakacje - godz. 20:00)","7:30, 18:00","","52.173326,20.820967","http://archidiecezja.warszawa.pl/parafie/pruszkow-sw-edwarda-w-tworkach/"
"Św. JÓZEFA OBLUBIEŃCA NMP na Osiedlu Staszica","","","ul. Helenowska 3, 05-804 Pruszków","www.sw-jozef.pl","proboszcz@sw-jozef.pl","22 728 19 92","","7:00, 8:30, 10:00, 11:30 (dla dzieci), 13:00, 18:00 (poza wakacjami), 19:30","7:00, 7:30, 8:00, 18:00, 19:00","","52.156110,20.790736","http://archidiecezja.warszawa.pl/parafie/pruszkow-sw-jozefa-oblubienca-nmp-na-osiedlu-staszica/"
"Św. KAZIMIERZA","","","ul. Kraszewskiego 23, 05-800 Pruszków","www.swkazimierz.mkw.pl","","22 758 77 72","","6:00, 7:30, 9:00, 10:30 (dla dzieci), 12:00 (suma), 13:15, 18:00 (młodzieżowa, w wakacje - godz. 19:00)","6:30, 7:30 (poza wakacjami), 8:00, 17:30 (oprócz wakacji i oprócz czasu wizyt duszpasterskich), godz. 18:00","","52.162388,20.809382","http://archidiecezja.warszawa.pl/parafie/pruszkow-sw-kazimierza/"
"ŚWIĘTYCH APOSTOŁÓW PIOTRA i PAWŁA","","","Rynek 1, 26-813 Przybyszew","","","48 615 21 57","","8:00, 9:30, 12:00","7:00, 17:00","","51.663080,20.852317","http://archidiecezja.warszawa.pl/parafie/przybyszew-swietych-apostolow-piotra-i-pawla/"
"NAJŚWIĘTSZEGO SERCA PANA JEZUSA","","","Przypki, ul. Kościelna 13, 05-555 Tarczyn","","parafiaprzypki@wp.pl","","","","","","52.008967,20.798614","http://archidiecezja.warszawa.pl/parafie/przypki-najswietszego-serca-pana-jezusa/"
"Św. WOJCIECHA BM","","","ul. Łąkowa 7, 05-860 Płochocin","www.parafiaswwojciecha.pl","proboszcz@parafiaswwojciecha.pl","22 722 51 57","","8:00, 10:00, 12:00, 18:00","8:00, 18:00 (poza wakacjami)","","52.201571,20.701833","http://archidiecezja.warszawa.pl/parafie/plochocin-sw-wojciecha-bm/"
"św. Szczepana","","","Al. Krakowska 6, 05-090 Raszyn","www.swszczepan.pl","kancelaria@swszczepan.pl","22 720 37 27, fax +48 22 720 37 27","","7:00, 8:30, 10:00 (młodzieżowa), 10:00 (dla dzieci, Dolny Kościół), 11:30 (szkoła podstawowa), 13:00 (poza wakacjami), 18:00, 20:30","6:30, 8:00, 18:00","","52.150474,20.915859","http://archidiecezja.warszawa.pl/parafie/raszyn-sw-szczepana/"
"Rektorat św. Jana Pawła","","","ul. Obrońców Tobruku 48, 01-494 Warszawa","","","","","","","","52.257008,20.931378","http://archidiecezja.warszawa.pl/parafie/rektorat-sw-jana-pawla/"
"Grójecki. Św. JANA CHRZCICIELA","","","Ul. Kościelna 4, Rembertów , 05-555 Tarczyn","www.swjanrembertow.ns48.pl","","22 727 73 13","","7:30, 9:45, 12:00, 16:00 (poza wakacjami)","7:00, 18:00","","51.958145,20.834459","http://archidiecezja.warszawa.pl/parafie/rembertow-grojecki-sw-jana-chrzciciela/"
"WNIEBOWZIĘCIA NMP","","","Rokitno 23 , 05-870 Błonie","","","22 725 51 03 , fax +48 22 725 51 03","","9:00, 11:30, 17:30 (poza wakacjami)","17:30","","52.193697,20.656544","http://archidiecezja.warszawa.pl/parafie/rokitno-wniebowziecia-nmp/"
"NARODZENIA NMP","","","Rososz 1, 05-650 Chynów k. Grójca","","","48 661 40 36","","","","","","http://archidiecezja.warszawa.pl/parafie/rososz-narodzenia-nmp/"
"Św. BARTŁOMIEJA APOSTOŁA","","","ul. Polna 39, 05-090 Rybie","www.rybie.pl","parafia@rybie.pl","22 720 23 53","","7:00, 8:30, 10:30 (dla dzieci), 12:00, 17:00","7:00, 18:00","","52.154162,20.940722","http://archidiecezja.warszawa.pl/parafie/rybie-sw-bartlomieja-apostola/"
"NARODZENIA NMP","","","Secymin-Nowiny 21, 05-155 Leoncin","","","22 785 67 40","","9:00, 11:30, 18:00 (w okresie zimowym - godz. 17:00)","18:00 (w okresie zimowym - godz. 17:00)","","52.382780,20.433653","http://archidiecezja.warszawa.pl/parafie/secymin-narodzenia-nmp/"
"Św. FAUSTYNY KOWALSKIEJ","","","Sękocin Stary, ul. Starowiejska 25 , 05-090 Raszyn","www.parafia.sekocin.pl","","","","9:00, 11:00, 17:00","17:00","","52.109713,20.883419","http://archidiecezja.warszawa.pl/parafie/sekocin-sw-faustyny-kowalskiej/"
"Św. STANISŁAWA BM","","","Sobików 15, 05-530 Góra Kalwaria","","parafia.sobikow@gmail.com","22 726 83 27","","8:30 (kaplica w Czachówku), 10:00, 12:00","18:00 (w okresie zimowym o godz. 17:00)","","51.961440,21.134307","http://archidiecezja.warszawa.pl/parafie/sobikow-sw-stanislawa-bm/"
"Iwiczna. ZESŁANIA DUCHA ŚWIĘTEGO","","","Stara Iwiczna, ul. Słoneczna 7/9, 05-500 Piaseczno","www.duchswiety.org","","22 757 06 10, fax +48 22 737 30 94","","7:00, 8:30, 10:00, 11:30 (dla dzieci), 13:00 (suma), 16:00 (od października do maja), 18:00","18:00, 19:00 (poza wakacjami)","","52.083232,21.010575","http://archidiecezja.warszawa.pl/parafie/stara-iwiczna-zeslania-ducha-swietego/"
"Św Aleksandra na Trakcie Królewskim","","","ul. Książęca 21, 00-498 Warszawa","www.swaleksander.pl","kancelaria@swaleksander.pl","22 628 53 35","","7:00, 8:30, 9:40, 10:00 (suma), 10:00 (dla niesłyszących, Dolny Kościół, poza wakacjami), 10:00 (suma, w czasie wakacji), 11:00 (dla dzieci, Dolny Kościół, poza wakacjami), 12:00 (dla dzieci, Dolny Kościół, poza wakacjami), 11:30, 13:00, 13:00 (Dolny Kościół, poza wakacjami), 16:00, 18:00 (poza wakacjami), 19:00","6:30 (poza wakacjami), 7:00, 7:30 (poza wakacjami), 8:00, 9:00, 16:00, 19:00","","52.229074,21.022345","http://archidiecezja.warszawa.pl/parafie/sw-aleksandra-na-trakcie-krolewskim/"
"Św Alojzego Orione w Śródmieściu","","","ul. Lindleya 12, 02-005 Warszawa","www.parorione.rel.pl","","22 621 50 08 , fax +48 22 621 50 08 wew. 35","","7:00, 8:30, 10:00, 11:30, 13:00 (poza wakacjami), 18:00","6:15, 7:00, 8:00 (poza wakacjami), 18:00","","52.225126,20.997028","http://archidiecezja.warszawa.pl/parafie/sw-alojzego-orione-w-srodmiesciu/"
"Św Andrzeja Apostoła na Mirowie","","","ul. Chłodna 9, 00-891 Warszawa","","","22 620 37 47 , fax +48 22 620 37 47","","7:00, 8:30, 10:00, 11:30, 13:00, 18:00","6:30, 8:00, 9:00, 18:00","","52.238223,20.992539","http://archidiecezja.warszawa.pl/parafie/sw-andrzeja-apostola-na-mirowie/"
"Św Andrzeja Boboli na Mokotowie &#8211; Sanktuarium","","","ul. Rakowiecka 61, 02-532 Warszawa","www.rakowiecka.jezuici.pl","parakow@jezuici.pl","22 54 28 707","","7:00, 8:30, 9:30 (młodzieżowa, Kaplica Akademicka, poza wakacjami), 10:00, 10:45 (w j. francuskim, Dolny Kościół, poza wakacjami), 10:45 (dla dzieci młodszych, Kaplica Akademicka, poza wakacjami), 11:30 (dla dzieci starszych), 12:45 (dla dzieci przed pierwszą Komunią Świętą, Dolny Kościół, poza wakacjami), 13:00, 17:00, 19:30 (akademicka), 21:00","7:00, 7:30 (poza wakacjami), 8:00, 8:30 (poza wakacjami), 9:00, 12:00, 17:00, 19:00","","52.205840,21.001323","http://archidiecezja.warszawa.pl/parafie/sw-andrzeja-boboli-na-mokotowie-sanktuarium/"
"Św Anny w Wilanowie","","","Kolegiacka 1, Wilanów 02-946","www.parafiawilanow.pl","parafiawilanow@warszawa.opoka.org.pl","22 842 18 01, fax +48 22 842 18 01","","7:00, 8:30, 10:00, 11:30 (dla dzieci), 13:00, 18:00 (młodzieżowa), 20:00 (akademicka)","7:00, 12:00 (w piątki i soboty), 17:00, 18:00","","52.166042,21.087148","http://archidiecezja.warszawa.pl/parafie/sw-anny-w-wilanowie/"
"Św Antoniego Marii Zaccarii na Stegnach","","","ul. Jana III Sobieskiego 15, 02-930 Warszawa","www.parafiabarnabici.pl","kancelaria@parafiabarnabici.pl","22 842 04 04, fax +48 22 842 34 74","","7:00, 9:00, 11:00, 12:30, 17:00, 19:00","7:00, 8:00 (w soboty o 12:00), 18:00","","52.174606,21.062037","http://archidiecezja.warszawa.pl/parafie/sw-antoniego-marii-zaccarii-na-stegnach/"
"Św Antoniego z Padwy w Śródmieściu","","","ul. Senatorska 31, 00-099 Warszawa","www.swietyantoni.com.pl","kancelaria@swietyantoni.com.pl","22 827 15 20","","7:00, 8:00, 9:30, 11:00, 12:30, 18:00","6:30, 7:00, 8:00, 18:00","","52.242791,21.006244","http://archidiecezja.warszawa.pl/parafie/sw-antoniego-z-padwy-w-srodmiesciu/"
"Św Augustyna na Muranowie","","","ul. Nowolipki 18, 01-019 Warszawa","www.swaugustyn.pl","parafia@swaugustyn.pl","22 838 30 95, fax +48 22 636 69 55","","7:00, 8:30, 10:00, 11:30 (dla dzieci), 13:00, 18:30, 19:45 (młodzieżowa)","7:00, 8:00, 9:00, 18:30","","52.244359,20.988790","http://archidiecezja.warszawa.pl/parafie/sw-augustyna-na-muranowie/"
"Św Barbary w Śródmieściu na Koszykach","","","ul. Nowogrodzka 51, 00-695 Warszawa","www.swbarbara.warszawa.pl","","22 621 36 22","","7:00, 8:30, 10:00, 11:30, 13:00, 19:00","6:30, 7:30 (poza wakacjami), 8:00, 15:00 (poza wakacjami), 18:00","","52.226507,21.007371","http://archidiecezja.warszawa.pl/parafie/sw-barbary-w-srodmiesciu-na-koszykach/"
"Św Bonifacego na Czerniakowie","","","ul. Czerniakowska 2/4, 00-701 Warszawa","www.bernardyni.net","kontakt@bernardyni.net","22 842 03 71, fax +48 22 842 03 71","","7:00 (Kościół zabytkowy), 8:30, 10:00, 11:30 (dla dzieci), 13:00 (suma), 18:00 (w wakacje o godz: 19:00)","6:30, 8:00, 18:30","","52.193707,21.057284","http://archidiecezja.warszawa.pl/parafie/sw-bonifacego-na-czerniakowie/"
"Św Dominika na Służewie","","","ul. Dominikańska 2, 02-741 Warszawa","www.sluzew.dominikanie.pl","parafiadominika@gmail.com","22 543 99 10","","7:00, 8:30, 9:30 (konwentualna), 11:00 (dla dzieci), 12:30, 14:00, 17:00, 18:30 (młodzieżowa), 20:15 (akademicka)","7:00, 8:00, 12:00, 18:00 (konwentualna), 19:30","","52.175226,21.036248","http://archidiecezja.warszawa.pl/parafie/sw-dominika-na-sluzewie-2/"
"Św Elżbiety w Powsinie","","","ul. Przyczółkowa 29, 02-968 Warszawa","www.parafia-powsin.pl","","22 648 38 46","","7:00, 9:00, 10:30 (dla dzieci), 12:00 (suma), 18:00","7:00, 18:00","","52.123754,21.102366","http://archidiecezja.warszawa.pl/parafie/sw-elzbiety-w-powsinie/"
"Św Franciszka z Asyżu na Okęciu","","","ul. Hynka 4a, 02-149 Warszawa","www.franciszek-okecie.pl","franciszek-okecie@idsl.pl","22 846 07 12, fax +48 22 846 07 12","","7:00, 8:30, 10:00, 10:00 (młodzieżowa, Dolny Kościół), 11:15 (dla dzieci, Dolny Kościół), 11:30, 13:00, 16:00 (w wakacje o 20:00), 18:00","6:30, 8:00, 17:30, 18:00 (w sobotę o godz. 18:30)","","52.190101,20.961185","http://archidiecezja.warszawa.pl/parafie/sw-franciszka-z-asyzu-na-okeciu/"
"Św Grzegorza Wielkiego na Szczęśliwicach","","","ul. Włodarzewska 54, 02-384 Warszawa","www.swgrzegorz.warszawa.pl","kancelaria@swgrzegorz.warszawa.pl","22 824 12 52","","7:00, 8:30, 11:00, 12:30 (poza wakacjami), 18:00","8:00, 18:00","","52.202336,20.956235","http://archidiecezja.warszawa.pl/parafie/sw-grzegorza-wielkiego-na-szczesliwicach/"
"Św Ignacego Loyoli na Placówce","","","ul.Wóycickiego 14a, 01-938 Warszawa","www.ignacyloyola.pl","parafia@ignacyloyola.pl","22 56 95 240, fax +48 22 56 95 249","","8:30, 10:00, 11:30, 13:00, 18:00","18:00","","52.297127,20.899399","http://archidiecezja.warszawa.pl/parafie/sw-ignacego-loyoli-na-placowce/"
"Św Jakuba Apostoła na Ochocie","","","ul. Grójecka 38, 02-314 Warszawa","www.parafiajakuba.pl","jakub.parafia@gmail.com","22 822 18 66","","7:00, 8:00, 9:00, 10:15, 11:30, 13:00, 17:00, 19:00 (akademicka)","6:00, 7:00, 8:00, 9:00, 17:00, 19:00","","52.219439,20.982934","http://archidiecezja.warszawa.pl/parafie/sw-jakuba-apostola-na-ochocie/"
"Św Jana Apostoła i Ewangelisty w Gołąbkach","","","ul. Bolesława Śmiałego 13, 02-496 Warszawa","www.swjana.pl","swjan.golabki@gmail.com","22 667 41 96","","7:30, 9:00, 10:30, 12:00 (poza wakacjami), 18:00","7:00, 18:00","","52.202578,20.863787","http://archidiecezja.warszawa.pl/parafie/sw-jana-apostola-i-ewangelisty-w-golabkach/"
"Św Jana Kantego w Sadach Żoliborskich","","","ul. Krasińskiego 31, 01-784 Warszawa","www.jankanty.warszawa.pl","parafia@jankanty.waw.pl","22 663 34 67, fax +48 22 663 34 67","","7:00, 8:00, 9:00 (poza wakacjami), 10:00, 11:00 (dla dzieci), 12:00, 13:00, 14:00 (poza wakacjami), 18:30","6:30 (poza wakacjami), 7:00, 7:30 (poza wakacjami), 8:00, 18:30","","52.265843,20.975997","http://archidiecezja.warszawa.pl/parafie/sw-jana-kantego-w-sadach-zoliborskich/"
"Św Jozafata na Powązkach","","","ul. Powązkowska 90, 01-728 Warszawa","","","22 633 09 28","","8:00, 9:30, 11:00, 12:30, 17:00 (od października do marca), 18:00 (od kwietnia do września)","7:30, 18:00","","52.262095,20.951205","http://archidiecezja.warszawa.pl/parafie/sw-jozafata-na-powazkach/"
"Św Józefa Oblubieńca NMP na Kole","","","ul. Deotymy 41, 01-441 Warszawa","www.swjozef.pl","","22 877 57 90","","6:30, 8:00, 9:00 (młodzieżowa), 10:15, 11:30 (dla dzieci), 13:00, 19:00 (akademicka)","6:30, 7:30 (poza wakacjami), 8:00, 15:00 (w piątek, poza wakacjami), 18:00, 19:00","","52.244434,20.947210","http://archidiecezja.warszawa.pl/parafie/sw-jozefa-oblubienca-nmp-na-kole/"
"Św Józefa Oblubieńca NMP w Ursusie","","","ul. Gen. K. Sosnkowskiego 34, 02-495 Warszawa","www.swjozefa.pl","","22 662 64 02, fax +48 22 668 46 47","","6:30, 8:00, 9:30, 11:00 (dla przedszkolaków, Dolny Kościół, poza wakacjami), 11:00 (dla dzieci), 12:30, 16:00 (poza wakacjami), 18:00","6:30, 7:00, 7:30, 8:00, 18:00","","52.193700,20.885575","http://archidiecezja.warszawa.pl/parafie/sw-jozefa-oblubienca-nmp-w-ursusie/"
"Św Karola Boromeusza na Powązkach","","","ul. Powązkowska 14, 01-797 Warszawa","www.parafia-starepowazki.pl","parafia.powazki@gmail.com","22 838 55 25","","8:00, 9:30, 11:00, 12:30, 17:30, 20:00 (od maja do listopada)","8:00, 15:00 (w piątek), 17:30","","52.253183,20.977793","http://archidiecezja.warszawa.pl/parafie/sw-karola-boromeusza-na-powazkach/"
"Św Katarzyny na Służewie","","","ul. Fosa 17, 02-768 Warszawa","www.swkatarzyna.eu/","kancelaria@swkatarzyna.eu","22 843 19 42, fax +48 22 843 19 42","","8:00, 9:30, 11:00, 12:30, 18:00","7:00, 17:30 (poza wakacjami), 18:00","","52.172093,21.044820","http://archidiecezja.warszawa.pl/parafie/sw-katarzyny-na-sluzewie/"
"Św Kazimierza na Sielcach","","","ul. Chełmska 21a, 00-724 Warszawa","www.parafiakazimierz.waw.pl","kazimierzcr@gmail.com","22 841 21 31","","6:30, 8:00, 9:30, 11:00, 11:00 (dla dzieci, w Auli), 12:30, 14:00, 19:00","7:00, 8:00, 18:00","","52.201724,21.039822","http://archidiecezja.warszawa.pl/parafie/sw-kazimierza-na-sielcach/"
"Św Klemensa Hofbauera na Woli","","","ul.Karolkowa 49, 01-203 Warszawa","www.swiety-klemens.pl","klemenswarszawa@gmail.com","22 578 42 14","","6:30, 8:00, 9:30, 11:00, 12:30, 18:30, 20:00 (w wakacje). Msza Święta w rycie trydenckim w niedzielę i święta o godz. 14 http://www.mszatrydencka.waw.pl/","6:30, 7:30, 8:30, 15:00 (piątek), 18:30. Msza Święta w rycie trydenckim w dni powszednie wg ogłoszeń http://www.mszatrydencka.waw.pl/","","52.234362,20.976638","http://archidiecezja.warszawa.pl/parafie/sw-klemensa-hofbauera-na-woli/"
"Św Krzysztofa na Piaskach","","","ul. Niedzielskiego 4, 01–875 Warszawa","www.sw-krzysztof.waw.pl","","22 669 00 11","","9:00, 11:00, 12:15, 17:00","8:00, 18:00","","52.267225,20.942603","http://archidiecezja.warszawa.pl/parafie/sw-krzysztofa-na-piaskach/"
"Św Maksymiliana Kolbego na Służewcu","","","ul. Rzymowskiego 35, 02-697 Warszawa","www.parafia-maksymilian.waw.pl","kancelaria@parafia-maksymilian.waw.pl","22 843 91 21","","8:00, 9:30, 11:00, 12:30, 17:30 (poza wakacjami), 19:00","7:00, 10:00 (poza wakacjami), 19:00","","52.170324,21.006520","http://archidiecezja.warszawa.pl/parafie/sw-maksymiliana-kolbego-na-sluzewcu/"
"Św Marii Magdaleny na Wawrzyszewie","","","ul. Wólczyńska 64, 01-908 Warszawa","www.swmariamagdalena.pl","","22 864 62 72","","7:00, 8:30, 10:00, 11:30 (dla dzieci), 13:00, 18:00","7:00, 7:30, 17:30, 18:00","","52.280878,20.928030","http://archidiecezja.warszawa.pl/parafie/sw-marii-magdaleny-na-wawrzyszewie/"
"Św Michała Archanioła na Mokotowie","","","ul. Puławska 95, 02-595 Warszawa","www.parafiamichal.waw.pl","parafia@parafiamichal.waw.pl","22 845 46 04","","7:00, 9:00, 10:30, 10:30 (dla dzieci, Dolny Kościół), 12:00, 13:00, 18:00, 20:00","6:30, 8:00, 9:00, 18:00, 19:00","","52.199196,21.025130","http://archidiecezja.warszawa.pl/parafie/sw-michala-archaniola-na-mokotowie/"
"Św Ojca Pio na Moczydle","","","ul. Rybałtów 25, 02-886 Warszawa","www.opio.pl","parafia@opio.pl","22 448 41 80, fax +48 22 448 41 80","","7:30, 9:00, 10:30 (dla dzieci), 11:45 (suma), 13:00 (dla dzieci), 15:00, 18:30 (młodzieżowa), 20:00","7:00, 8:00, 19:00","","52.130861,21.055215","http://archidiecezja.warszawa.pl/parafie/sw-ojca-pio-na-moczydle/"
"Św Stanisława Biskupa i Męczennika na Woli","","","ul. J. Bema 73/75, 01-244 Warszawa","www.stanislaw-bm.pl","swstanislaw_bm@tlen.pl","22 632 38 00","","7:00, 8:00, 9:30, 11:00 (dla dzieci), 12:30 (poza wakacjami), 18:00 (młodzieżowa)","6:30, 7:30, 18:00","","52.227606,20.958271","http://archidiecezja.warszawa.pl/parafie/sw-stanislawa-biskupa-i-meczennika-na-woli/"
"Św Stanisława Kostki na Żoliborzu","","","ul. Hozjusza 2, 01-565 Warszawa","www.popieluszko.net.pl","kontakt@popieluszko.net.pl","22 839 45 72, fax +48 22 839 35 38","","7:00, 8:30, 10:00, 11:30 (dla dzieci), 13:00, 18:00, 21:00","6:30, 7:00, 8:00, 9:00, 15:00 (poza sobotą), 18:00","","52.267370,20.984093","http://archidiecezja.warszawa.pl/parafie/sw-stanislawa-kostki-na-zoliborzu/"
"Św Stefana Króla na Sielcach","","","ul. Czerniakowska 137, 00-720 Warszawa","www.swstefan.pl","Proboszcz@parafia-sw-stefana.pl","22 841 18 18","","7:00, 8:30, 10:00 (suma), 11:30 (dla dzieci), 13:00, 17:00 (poza wakacjami), 19:00","6:30 (w czasie wakacji o 7:00), 8:00 (poza wakacjami), 17:30 (poza wakacjami), 18:00","","52.210450,21.047182","http://archidiecezja.warszawa.pl/parafie/sw-stefana-krola-na-sielcach/"
"Św Szczepana na Mokotowie","","","ul. Św. Szczepana 1, 02-568 Warszawa","www.szczepan.waw.pl","szczepan@jezuici.pl","22 848 22 79","","7:00, 8:00, 9:30, 10:45 (w j. hiszpańskim, Dom Parafialny), 11:00 (dla dzieci), 12:15 (dla przedszkolaków, Dom Parafialny), 12:30 (suma), 17:00, 18:30 (młodzieżowa), 20:00 (akademicka)","7:00, 7:30, 8:00, 18:30","","52.205999,21.017542","http://archidiecezja.warszawa.pl/parafie/sw-szczepana-na-mokotowie/"
"Św Tadeusza Apostoła na Sadybie","","","ul. Goraszewska 16, 02-910 Warszawa","www.parafia-sadyba.pl","kontakt@parafia-sadyba.pl","22 842 09 36","","7:30, 9:30, 11:00 (dla dzieci), 11:00 (dla przedszkolaków, Dolny Kościół), 12:30, 18:00, 20:00","7:00, 7:30 (poza wakacjami), 8:00 (we wtorki w kaplicy św. Tadeusza), 17:30 (poza sobotą), 18:00","","52.188188,21.067199","http://archidiecezja.warszawa.pl/parafie/sw-tadeusza-apostola-na-sadybie/"
"Św Teresy od Dzieciątka Jezus na Tamce","","","ul. Tamka 4A, 00-349 Warszawa","www.parafianatamce.waw.pl","","22 826 45 76","","7:00, 8:30, 10:00, 11:30 (dla dzieci, poza wakacjami), 13:00 (w wakacje o 12:00), 18:00","7:00, 8:00 (poza wakacjami), 18:00","","52.239190,21.029467","http://archidiecezja.warszawa.pl/parafie/sw-teresy-od-dzieciatka-jezus-na-tamce/"
"Św Teresy od Dzieciątka Jezus we Włochach","","","ul. Rybnicka 27, 02-405 Warszawa","www.swietateresa.pl","kancelaria@swietateresa.pl","22 535 01 00, fax +48 22 535 01 11","","7:30, 9:30, 11:00 (dla dzieci), 12:30, 18:00 (akademicka)","7:00, 8:00, 18:00","","52.207355,20.904179","http://archidiecezja.warszawa.pl/parafie/sw-teresy-od-dzieciatka-jezus-we-wlochach/"
"Św Tomasza Apostoła na Imielinie","","","ul. Dereniowa 12, 02-776 Warszawa","www.tomaszap.waw.pl","parafia@tomaszap.waw.pl","22 641 29 39, fax +48 22 641 29 39","","7:30, 9:00, 10:30 (dla dzieci), 12:00 (suma), 13:15, 17:00, 19:00 (młodzieżowa), 20:30 (akademicka)","6:30, 7:00, 8:00 (poza wakacjami), 17:00 (w I. piątek miesiąca), 19:00","","52.147673,21.043371","http://archidiecezja.warszawa.pl/parafie/sw-tomasza-apostola-na-imielinie/"
"Św Wawrzyńca na Reducie Wolskiej","","","ul. Wolska 140a, 01-258 Warszawa","www.wawrzyniec.waw.pl","wawrzyniec.reduta@gmail.com","22 836 64 00","","9:00, 11:00, 12:15 (dla dzieci), 17:30","17:30","","52.227035,20.944058","http://archidiecezja.warszawa.pl/parafie/sw-wawrzynca-na-ulrychowie/"
"Św Wojciecha na Woli","","","ul. Wolska 76, 01-134 Warszawa","www.sw.wojciech.mkw.pl","","22 862 62 65","","7:00, 8:30, 10:00, 11:30, 13:00, 19:00","6:30, 7:00, 8:00, 18:00","","52.233256,20.961042","http://archidiecezja.warszawa.pl/parafie/sw-wojciecha-na-woli/"
"Św Zofii Barat w Grabowie","","","ul. Taneczna 65, 02-829 Warszawa","www.swzofia.warszawa.opoka.org.pl","swzofia@warszawa.opoka.org.pl","22 643 79 72","","8:00, 9:30, 11:00, 12:30 (poza wakacjami), 17:00","7:00 (wtorek, czwartek, sobota, poza wakacjami), 17:30 (poniedziałek, środa, piątek, poza wakacjami), 18:00","","52.148768,21.015096","http://archidiecezja.warszawa.pl/parafie/sw-zofii-barat-w-grabowie/"
"Św Zygmunta na Bielanach","","","pl. Konfederacji 55, 01-834 Warszawa","swzygmunt.pl","kancelaria@sw-zygmunt.pl","22 834 29 14, fax +48 22 864 03 13","","6:30, 8:00, 9:30, 11:00 (dla dzieci), 11:00 (młodzieżowa, dolny kościół, poza wakacjami), 12:30 (suma), 14:00 (poza wakacjami), 17:30 (poza wakacjami), 19:00 (akademicka, od maja do sierpnia o godzinie 20:00)","6:30 (w wakacje o 7:00), 8:00, 9:00 (poza wakacjami), 18:00 (poza wakacjami), 19:00","","52.279486,20.946477","http://archidiecezja.warszawa.pl/parafie/sw-zygmunta-na-bielanach/"
"Św Łukasza Ewangelisty na Górcach","","","ul. Górczewska 176, 01-460 Warszawa","www.swlukasz.waw.pl","","22 664 10 99 , fax +48 22 665 26 26","","7:00 (poza wakacjami), 8:30, 10:00, 11:30, 13:00, 16:00 (poza wakacjami), 18:00, 20:00","7:00, 7:30, 18:00","","52.239956,20.917275","http://archidiecezja.warszawa.pl/parafie/sw-lukasza-ewangelisty-na-gorcach/"
"Świętego Krzyża na Trakcie Królewskim &#8211; bazylika","","","ul. Krakowskie Przedmieście 3, 00-047 Warszawa","www.swkrzyz.pl","swkrzyz.waw@interia.pl","22 826 89 10","","6:00, 7:30, 9:00 (radiowa), 10:30 (dla dzieci), 10:30 (dla przedszkolaków w dolnym kościele), 11:45, 12:15 (dla bierzmowanych w dolnym kościele), 13:00, 16:00, 19:00 (dla studentów w dolnym kościele), 19:00","6:00, 7:00, 7:30 (w kaplicy Matki Bożej), 8:00, 8:30 (w kaplicy Matki Bożej), 9:00 (z homilią), 16:30 (w kaplicy Matki Bożej), 17:00 (w kaplicy Matki Bożej), 18:00 (z homilią), 19:00 (w kaplicy Matki Bożej)","","52.238756,21.016849","http://archidiecezja.warszawa.pl/parafie/swietego-krzyza-na-trakcie-krolewskim-bazylika/"
"Świętej Rodziny w Ursusie na Osiedlu Chrobrego","","","ul. Zapustna 43, 02-495 Warszawa","www.swrodzina.waw.pl","swrodzina@op.pl","22 662 23 23","","7:30, 9:00, 10:30 (dla dzieci), 12:00, 18:00, 19:30 (młodzieżowa)","8:00, 18:00","","52.197961,20.902007","http://archidiecezja.warszawa.pl/parafie/swietej-rodziny-w-ursusie-na-osiedlu-chrobrego/"
"Świętej Trójcy na Solcu","","","ul. Solec 61, 00-424 Warszawa","www.trinitas.pl","parafia@trinitas.pl","22 628 74 71","","7:30, 9:00, 10:30, 10:30 (dla dzieci, Kaplica), 12:00 (suma), 12:00 (w. j. hiszpańskim, Kaplica), 18:00, 21:00","7:00, 8:00, 18:00","","52.231598,21.039658","http://archidiecezja.warszawa.pl/parafie/swietej-trojcy-na-solcu/"
"Świętych Apostołów Piotra i Pawła w Pyrach","","","ul. Szumiąca 5, 02 – 847 Warszawa","www.parafiapyry.pl","kancelaria@parafiapyry.pl","22 566 78 52, fax +48 22 566 78 68","","7:30, 9:00, 11:00, 12:30, 18:00","7:30, 18:00","","52.125320,21.017635","http://archidiecezja.warszawa.pl/parafie/swietych-apostolow-piotra-i-pawla-w-pyrach/"
"Świętych Rafała i Alberta na Rudzie","","","ul. Gwiaździsta 17, 01-651 Warszawa","www.gwiazdzista17.pl","kancelaria@gwiazdzista17.pl","22 832 26 55","","7:30, 9:00, 10:30, 12:00, 13:30, 18:00, 20:00","7:00, 9:00, 18:00, 19:00","","52.281534,20.980749","http://archidiecezja.warszawa.pl/parafie/swietych-rafala-i-alberta-na-rudzie/"
"Św. ZYGMUNTA","","","ul. Wiślana 85, 05-507 Słomczyn","www.swzygmunt.knc.pl","swzygmunt.slomczyn@op.pl","22 754 47 32, fax +48 22 754 47 32","","8:45, 10:30, 12:00, 18:00","7:30, 18:00","","52.059724,21.161423","http://archidiecezja.warszawa.pl/parafie/slomczyn-sw-zygmunta/"
"Św. MIKOŁAJA BM","","","ul. Ks. Czesława Oszkiela 1, 05-555 Tarczyn","www.parafia-tarczyn.pl","parafia-tarczyn@wp.pl","22 727 70 66","","7:30, 9:30, 11:00, 12:30, 18:00","7:00, 8:00, 18:00","","51.980566,20.834270","http://archidiecezja.warszawa.pl/parafie/tarczyn-sw-mikolaja-bm/"
"MATKI BOŻEJ SZKAPLERZNEJ","","","ul. Franciszkańska 22, 05-660 Warka","www.matkaboza-warka.pl","matkabozawarka@interia.pl","48 667 23 53","","7:00, 9:00, 10:30, 12:00, 18:00","7:00, 18:00","","51.784597,21.193812","http://archidiecezja.warszawa.pl/parafie/warka-matki-bozej-szkaplerznej/"
"Św. MIKOŁAJA BISKUPA","","","ul. Farna 10, 05-660 Warka","","swmikolajwarka@wp.pl","48 667 26 26","","7:00, 9:30, 11:30, 13:00, 17:00","7:00, 7:30 (poza wakacjami), 17:00","","51.782756,21.189875","http://archidiecezja.warszawa.pl/parafie/warka-sw-mikolaja-biskupa/"
"ŚWIĘTEGO DUCHA","","","Werdun 18, 05-555 Tarczyn","","","22 797 71 97","","9:00, 11:00","18:00 (w okresie zimowym - g. 16:00)","","51.957292,20.727169","http://archidiecezja.warszawa.pl/parafie/werdun-swietego-ducha/"
"NIEPOKALANEGO SERCA NMP","","","Wiersze, ul. Armii Krajowej 17, O5-152 Czosnów","www.parafiawiersze.pl","","22 794 16 43","","9:00, 12:00","17:00","","52.327032,20.650887","http://archidiecezja.warszawa.pl/parafie/wiersze-niepokalanego-serca-nmp/"
"Wniebowstąpienia Pańskiego na Stokłosach","","","al. Komisji Edukacji Narodowej 101, 02-785 Warszawa","www.wniebowstapienie.pl/","parafia@wniebowstapienie.pl","22 643 75 75","","6:30, 8:00, 9:30, 11:00 (dla dzieci), 12:30 (suma), 14:00 (chrzcielna), 18:00, 19:30","6:30 (poza okresem wakacyjnym), 7:00, 7:30, 8:00 (poza okresem wakacyjnym), 18:00","","52.157997,21.030091","http://archidiecezja.warszawa.pl/parafie/wniebowstapienia-panskiego-na-stoklosach/"
"NAJŚWIĘTSZEGO SERCA PANA JEZUSA","","","Worów 7, 05-600 Grójec","","","48 664 35 50","","9:00, 11:30, 18:00 (w okresie zimowym - godz. 17:00)","17:00","","51.881371,20.844969","http://archidiecezja.warszawa.pl/parafie/worow-najswietszego-serca-pana-jezusa/"
"Św. MAŁGORZATY DM","","","Wrociszew 11, 05-660 Warka","","","","","9:00, 10:30, 12:00","8:00, 8:30","","51.745398,21.070976","http://archidiecezja.warszawa.pl/parafie/wrociszew-sw-malgorzaty-dm/"
"Wszystkich Świętych w Śródmieściu na Grzybowie","","","Pl. Grzybowski 3/5, 00-115 Warszawa","www.wszyscyswieci.pl","parafia@wszyscyswieci.pl","22 620 43 43","","6:30, 8:00, 9:30, 11:00 (dla dzieci), 12:30, 18:30 (młodzieżowa)","6:30, 7:15, 8:00, 9:00 (poza wakacjami), 17:00 (poza wakacjami), 18:00 (w maju, w październiku i w Wielkim Poście zamiast 17 jest 16:30)","","52.235351,21.003431","http://archidiecezja.warszawa.pl/parafie/wszystkich-swietych-w-srodmiesciu-na-grzybowie/"
"Św. JADWIGI KRÓLOWEJ","","","Żabieniec, ul. Główna 11 , 05-500 Piaseczno","","swjadwigakrolowazabieniec@wp.pl","","","","","","52.056588,21.044533","http://archidiecezja.warszawa.pl/parafie/zabieniec-sw-jadwigi-krolowej/"
"NAWIEDZENIA NMP","","","ul. Kościelna 1, 05-083 Zaborów","www.parafia-zaborow.pl","parafia-zaborow@wp.pl","22 725 97 22","","8:00, 10:00 (poza wakacjami), 12:00, 17:00","17:30, 18:00 (poza wakacjami)","","52.262692,20.675513","http://archidiecezja.warszawa.pl/parafie/zaborow-nawiedzenia-nmp/"
"Dolne. NMP WSPOMOŻENIA WIERNYCH","","","Zalesie Dolne, ul. Modrzewiowa 2, 05-501 Piaseczno","","","22 756 76 03","","7:00, 8:30, 10:00, 11:30, 13:00, 18:00","7:00, 8:00, 18:30","","52.056981,21.008917","http://archidiecezja.warszawa.pl/parafie/zalesie-dolne-nmp-wspomozenia-wiernych/"
"Górne. Św. HUBERTA","","","ul. Białej Brzozy 23, 05-540 Zalesie Górne","www.parafia-zalesie.pl","parafia@parafia-zalesie.pl","22 757 86 13","","9:00, 11:00 (dla dzieci), 12:30 (suma, poza wakacjami), 18:00 (młodzieżowa)","7:15 (poza wakacjami), 18:00","","52.025608,21.031700","http://archidiecezja.warszawa.pl/parafie/zalesie-gorne-sw-huberta/"
"ZAŚNIĘCIA NAJŚWIĘTSZEJ BOGURODZICY","","","","","","","","","","","","http://archidiecezja.warszawa.pl/parafie/zasniecia-najswietszej-bogurodzicy/"
"Św. DOROTY DM","","","Zawady 21, 05-085 Kampinos","","parafiazawady@gmail.com","","","9:00, 12:00","17:00 (w wakacje o godz. 18:00)","","52.246245,20.414223","http://archidiecezja.warszawa.pl/parafie/zawady-sw-doroty-dm/"
"Duża. Św. JANA CHRZCICIELA","","","Zbrosza Duża 25, 05-604 Jasieniec","www.zbroszaduza.mkw.pl","zbrosza@wp.pl","48 661 30 00","","9:00, 12:00","18:00 (w okresie zimowym - g. 17:00)","","51.756208,20.958541","http://archidiecezja.warszawa.pl/parafie/zbrosza-duza-sw-jana-chrzciciela/"
"Zesłania Ducha Świętego na Słodowcu","","","ul. Broniewskiego 44, 01-771 Warszawa","http://www.parafiazeslaniaducha.pl/","","22 663 33 30 , fax +48 22 669 00 03","","7:00, 8:30, 10:00, 11:30 (dla dzieci), 13:00, 18:00, 20:00","7:00, 7:30, 8:00, 8:30,17:00, 18:30","","52.268987,20.956821","http://archidiecezja.warszawa.pl/parafie/zeslania-ducha-swietego-na-slodowcu/"
"PRZEMIENIENIA PAŃSKIEGO","","","Żuków 39, 05-824 Kłudzienko","","","","","9:00, 11:00 (kaplica w Kłudnie Starym), 13:00","8:00 (wtorek, środa, czwartek), 10:00 (poniedziałek, kaplica w Domu Starców), 18:00 (piątek, sobota)","","52.151426,20.647766","http://archidiecezja.warszawa.pl/parafie/zukow-przemienienia-panskiego/"
"Zwiastowania Pańskiego na Rakowcu Południowym","","","ul. Gorlicka 5/7, 02-130 Warszawa","www.zwiastowaniepanskie.pl","par.zwiastowania.panskiego@gmail.com","22 658 42 49","","07:00, 08:30, 09:30 (dla dzieci, Dolny Kościół, poza wakacjami), 10:00, 11:00 (młodzieżowa, Dolny Kościół, poza wakacjami), 11:30, 13:00, 18:30, 20:00","07:00, 08:00 (poza wakacjami), 18:30, 19:15 (poza sobotą)","","52.195479,20.976586","http://archidiecezja.warszawa.pl/parafie/zwiastowania-panskiego-na-rakowcu-poludniowym/"
"MATKI BOŻEJ ŁASKAWEJ","","","ul. Piaseczyńska 24, 05-504 Złotokłos","www.parafiazlotoklos.net","kskacper@parafiazlotoklos.net","22 726 90 45","","9:00, 10:30 (poza wakacjami), 12:00, 18:00","18:00","","52.008211,20.895718","http://archidiecezja.warszawa.pl/parafie/zlotoklos-matki-bozej-laskawej/"
"Św. ANTONIEGO z PADWY","","","Łaźniew 12, al. Księży Orionistów 1 , 05-870 Błonie","","","22 725 30 56, fax +48 22 725 30 56","","7:30, 10:00, 12:00, 17:00","17:00 (w wakacje o godz. 18:00)","","52.218608,20.669839","http://archidiecezja.warszawa.pl/parafie/lazniew-sw-antoniego-z-padwy/"
"Św. JANA CHRZCICIELA","","","Łęczeszyce 101, 05-622 Belsk Duży","www.leczeszyce.paulini.pl","paulini_leczeszyce@op.pl","48 661 15 28","","9:00, 11:00, 18:00 (w okresie zimowym - godz. 17:00)","18:00 (w okresie zimowym - godz. 17:00)","","51.777178,20.768397","http://archidiecezja.warszawa.pl/parafie/leczeszyce-sw-jana-chrzciciela/"
"Św. MAŁGORZATY DM","","","ul. Warszawska 121, 05-092 Łomianki","www.parafialomianki.pl","parafialomianki@gmail.com","22 751 10 04","","7:00, 8:30, 10:00 (suma), 10:00 (młodzieżowa, Kościół dolny), 11:30 (dla dzieci), 13:00, 18:00","7:00, 7:30 (poza wakacjami), 17:00, 18:00","","52.340968,20.884563","http://archidiecezja.warszawa.pl/parafie/lomianki-sw-malgorzaty-dm/"
