"name","postal","city","address","www","email","phone","rector","sun","week","fest","latlng","url"
"Wniebowzięcia Najświętszej Maryi Panny","","","Bagno, nr 31, 55-120 Oborniki Śląskie","www.bagno.sds.pl","bagno.sds@gmail.com","71/310-61-95","Ks. mgr lic. Grzegorz SKAŁECKI SDS ","8.30, 8.30 (Godzięcin, Osolin), 10.00 (Godzięcin, Wielka Lipa), 11.30","","","51.33857,16.82051","http://www.archidiecezja.wroc.pl/parafia.php?id_dek=4&id_par=1"
"św. Marcina","","","Barkowo, nr 68 A, 55-140 Żmigród","zobacz na mapie UMP","barkowo@archidiecezja.wroc.pl","71/385-64-70","Ks. mgr Mariusz GRZESIOWSKI ","9.00, 10.30, 12.00","17.00 (zima), 18.00 (lato); Białawy Małe - cz, 16.00 (zima), 17.00 (lato)","","51.47574,16.80379","http://www.archidiecezja.wroc.pl/parafia.php?id_dek=25&id_par=1"
"św. Anny","","","Bąkowice, ul Główna 76, 46-112 Świerczów","zobacz na mapie UMP","bakowice@archidiecezja.wroc.pl","77/419-92-02","Ks. mgr Andrzej JAREMKO RM ","7.30, 9.00, 10.30, 12.00","17.00","","50.93079,17.70133","http://www.archidiecezja.wroc.pl/parafia.php?id_dek=18&id_par=1"
"św. Andrzeja Apostoła","","","Bielany Wrocławskie, ul. Wrocławska 30 A, 55-040 Kobierzyce","www.parafia-bielany.pl","bielany@archidiecezja.wroc.pl","71/311-27-82","Ks. mgr Mirosław DZIEGIŃSKI RM ","7.45, 9.30, 11.00, 12.30, 18.30","7.45 (wt., czw.), 18.30 (po, śr., pt, so)","","51.03978,16.96886","http://www.archidiecezja.wroc.pl/parafia.php?id_dek=47&id_par=1"
"św. Józefa Oblubieńca Najświętszej Maryi Panny","","","ul. Oleśnicka 9, 56-420 Bierutów","bierutow.archidiecezja.wroc.pl","bierutow@archidiecezja.wroc.pl","71/314-69-19","Ks. mgr Ryszard ZNAMIROWSKI Kan. hon. ex. num. Kap. Koleg. wicedziekan ","7.00, 7.45 (Solniki Małe), 9.00, 9.15 (Paczków), 10.30, 10.30 (Posadowice), 12.00, 12.00 (Młokicie), 18.00","7.00, 17.00 (I czw. - Solniki Małe, II czw. - Paczków, III czw. - Posadowice, IV czw. - Młokicie), 18.00","","51.12322,17.54350","http://www.archidiecezja.wroc.pl/parafia.php?id_dek=20&id_par=1"
"Wniebowzięcia Najświętszej Maryi Panny","","","Biestrzykowice, ul. Główna 2, 46-112 Świerczów","zobacz na mapie UMP","biestrzykowice@archidiecezja.wroc.pl","77/419-46-38","Ks. mgr Wojciech ŁATA RM ","7.30, 9.00, 10.15, 12.00","zima 17.00, lato 18.00","","50.99040,17.75479","http://www.archidiecezja.wroc.pl/parafia.php?id_dek=18&id_par=2"
"Najświętszej Maryi Panny Nieustającej Pomocy","","","Boguszyce, nr 62, 56-400 Oleśnica","www.boguszyce.archidiecezja.wroc.pl","boguszyce@archidiecezja.wroc.pl","71/314-28-46","Ks. mgr Andrzej AUGUSTYN RM ","8.00, 9.30, 11.00, 12.30","17.00","","51.24669,17.39524","http://www.archidiecezja.wroc.pl/parafia.php?id_dek=20&id_par=2"
"Miłosierdzia Bożego","","","Boleścin, nr 67, 55-100 Trzebnica","zobacz na mapie UMP","bolescin@archidiecezja.wroc.pl","71/312-86-46","Ks. mgr Leszek URBAN ","9.00, 10.30 (Głuchów Górny), 12.00","V-IX: 18.00 (wt, pt - Głuchów Górny), 19.00","","51.26469,17.16403","http://www.archidiecezja.wroc.pl/parafia.php?id_dek=31&id_par=1"
"św. Wawrzyńca i św. Antoniego","","","Borek Strzeliński, ul. Szkolna 8, 57-160 Borów","zobacz na mapie UMP","borekstrzelinski@archidiecezja.wroc.pl","71/393-05-89","Ks. mgr Wiesław SZCZĘCH RM dziekan ","8.00, 10.45, 12.00 (III niedz. mies.)","środa 7.30; zima 17.00, lato 18.00 (z wyj. środy)","","50.86681,17.06269","http://www.archidiecezja.wroc.pl/parafia.php?id_dek=1&id_par=1"
"Najświętszej Maryi Panny Królowej Polski","","","Borowa Oleśnicka, Smardzów nr 50a, 56-400 Oleśnica","zobacz na mapie UMP","borowaolesnicka@archidiecezja.wroc.pl","71/314-98-05","Ks. mgr Ryszard FILOZOF ","9.00, 10.30, 12.00","18.00","","51.19072,17.27930","http://www.archidiecezja.wroc.pl/parafia.php?id_dek=21&id_par=1"
"Narodzenia Najświętszej Maryi Panny i św. Wolfganga","","","ul. Starowiejska 6, 57-160 Borów","zobacz na mapie UMP","par.borow@archidiecezja.wroc.pl","71/393-31-22","Ks. mgr Zbigniew SOWIŃSKI wicedziekan ","8.00, 9.45 (kaplica), 11.30","17.00 (zima), 18.00 (lato), 16.30 (czwartek, kaplica)","","50.88246,16.98887","http://www.archidiecezja.wroc.pl/parafia.php?id_dek=1&id_par=2"
"Trójcy Świętej","","","Bożnowice, nr 50, 57-210 Henryków","zobacz na mapie UMP","boznowice@archidiecezja.wroc.pl","74/810-23-68","Ks. mgr lic. Marek MEKWIŃSKI ","7.30, 9.00, 11.00, 13.00","16.00, 17.00 (zima), 19.00 (lato)","","50.65332,17.11265","http://www.archidiecezja.wroc.pl/parafia.php?id_dek=44&id_par=1"
"św. Jakuba Apostoła","","","Brożec, nr 81, 57-100 Strzelin","zobacz na mapie UMP","brozec@archidiecezja.wroc.pl","71/392-15-39, 731-766-322","Ks. mgr lic. Janusz BETKOWSKI ","9.00, 10.30, 12.00","17.00, 18.00","","50.81875,17.13313","http://www.archidiecezja.wroc.pl/parafia.php?id_dek=32&id_par=1"
"Podwyższenia Krzyża Świętego","","","ul. Pańska 1, 49-306 Brzeg","zobacz na mapie UMP","brzeg.krzyz@wp.pl","77/416-37-73, 416-53-68","Ks. Bolesław ROBACZEK Kap. hon. Ojca św., Kan. grem. Kap. Koleg. ","7.00, 9.00, 9.00 (Pisarzowice), 10.00, 10.15 (Pawłów), 11.00, 11.30 (Gierszowice), 13.00, 16.00, 18.00","6.30, 7.00, 18.00","","50.86375,17.46899","http://www.archidiecezja.wroc.pl/parafia.php?id_dek=3&id_par=1"
"Miłosierdzia Bożego","","","ul. Ks. K. Makarskiego 49, 49-300 Brzeg","mbbrzeg.archidiecezja.wroc.pl","mbbrzeg@gmail.com","77/411-57-70","Ks. mgr Marcin CZEREPAK RM ","7.30, 9.00, 10.15, 11.30, 12.45, 17.00, 20.00","7.00, 7.30, 18.00","","50.84794,17.46104","http://www.archidiecezja.wroc.pl/parafia.php?id_dek=2&id_par=2"
"św. Mikołaja","","","ul. Jana Pawła II 9, 49-300 Brzeg","www.mikolajbrzeg.pl","mikolaj.brzeg@archidiecezja.wroc.pl","77/416-26-93","Ks. mgr Zdzisław PYSZKA Kan. hon. ex. num. Kap. Koleg., Kap. hon. Ojca św. ","7.30, 8.00 (k. pw. Zmartwychwstania Pańskiego), 9.00, 10.15, 11.30, 12.45, 17.30 (XI-III), 18.00 (IV-X)","7.00, 10.00 (so - szpital), 17.30 (XI-III), 18.00 (IV-X)","","50.86027,17.47036","http://www.archidiecezja.wroc.pl/parafia.php?id_dek=2&id_par=1"
"Najświętszej Maryi Panny Królowej Polski","","","ul. Zielona 2, 56-120 Brzeg Dolny","www.krolowapolski.brzegdolny.pl","mbkp.brzegdolny@archidiecezja.wroc.pl","71/319-58-00","Ks. mgr lic. Jacek WŁOSTOWSKI RM wicedziekan ","7.30, 9.00, 10.15, 11.45 (Łososiowice), 12.00, 18.00","7.00, 16.30 (cz, Łososiowice), 17.00, 18.00","","51.27300,16.72146","http://www.archidiecezja.wroc.pl/parafia.php?id_dek=4&id_par=3"
"Chrystusa Króla","","","ul. Naborowska 5, 56-120 Brzeg Dolny","www.christusrex.brzegdolny.pl","brzegdolny@archidiecezja.wroc.pl","71/319-96-41","Ks. mgr lic. Józef Marek LUBCZYŃSKI RM ","8.00, 10.00, 11.00 (Naborów), 12.00 (k. pw. Wszystkich Świętych), 17.00, 20.00","7.00, 17.00 (cz. Naborów), 18.00","","51.27309,16.70700","http://www.archidiecezja.wroc.pl/parafia.php?id_dek=4&id_par=2"
"Najświętszej Maryi Panny z Góry Karmel","","","Rynek 23, 56-120 Brzeg Dolny","zobacz na mapie UMP","mbsz.brzegdolny@archidiecezja.wroc.pl","71/319-56-89","Ks. mgr Andrzej SYCZ ","8.30, 10.15 (Jodłowice), 12.00, 18.00","18.00","","51.25875,16.71896","http://www.archidiecezja.wroc.pl/parafia.php?id_dek=4&id_par=4"
"św. Mikołaja","","","Brzezia Łąka, ul. Kościelna 2, 55-093 Kiełczów","brzezialaka.archidiecezja.wroc.pl","brzezialaka@archidiecezja.wroc.pl","71/711-72-60 (proboszcz), 71/711-72-61 (wikariusz)","Ks. dr Jerzy ŻYTOWIECKI Kan. hon. Kap. Koleg. ","7.30, 9.00 (Kątna), 10.30 (Raków), 12.00, 18.00; (sobota: Śliwice - 16.00 lato, 17.00 zima)","zima: 16.00 (filie), 17.00; lato: 17.00 (filie), 18.00","","51.12151,17.24374","http://www.archidiecezja.wroc.pl/parafia.php?id_dek=21&id_par=2"
"Najświętszej Maryi Panny Różańcowej","","","Brzezina, nr 63, 49-300 Brzeg","zobacz na mapie UMP","brzezina@archidiecezja.wroc.pl","77/416-37-60","Ks. mgr lic. Marek STANISZEWSKI ","9.00, 10.30, 12,00","17.00 zima, 18.00 lato","","50.88172,17.42450","http://www.archidiecezja.wroc.pl/parafia.php?id_dek=2&id_par=3"
"Najświętszej Maryi Panny Królowej Polski","","","Brzezinka Średzka, Gosławice 27, 55-330 Miękinia","zobacz na mapie UMP","brzezinkasredzka@archidiecezja.wroc.pl","71/317-75-99, 605-201-195","Ks. mgr Piotr ZBOROWSKI RM dziekan ","8.30, 10.30 (Prężyce), 11.30","7.30, 17.00 (Prężyce so.)","","51.21133,16.82187","http://www.archidiecezja.wroc.pl/parafia.php?id_dek=16&id_par=8"
"Oczyszczenia Najświętszej Maryi Panny","","","Bukowie, ul. Klonowa 3, 46-100 Namysłów","zobacz na mapie UMP","bukowie@archidiecezja.wroc.pl","77/419-52-70","Ks. mgr Andrzej STEFANÓW ","8.00, 10.00, 12.00","17.00","","51.14648,17.58174","http://www.archidiecezja.wroc.pl/parafia.php?id_dek=20&id_par=3"
"Najświętszej Maryi Panny Królowej Aniołów","","","Bystrzyca Oławska, ul. Brzegowa 13, 55-200 Oława","zobacz na mapie UMP","bystrzyca@archidiecezja.wroc.pl","71/313-02-81","Ks. mgr Tadeusz ROGACKI Kan. hon. ex. num. Kap. Koleg. ","8.00, 10.00, 12.00","18.00","","50.95797,17.40484","http://www.archidiecezja.wroc.pl/parafia.php?id_dek=9&id_par=1"
"św. Wawrzyńca","","","Cerekwica, Spacerowa 11, 55-100 Trzebnica, skr. pocz. 17","zobacz na mapie UMP","cerekwica@archidiecezja.wroc.pl","71/387-22-23","Ks. Zbigniew KONDRACKI EC ","8.00, 10.00 (Masłów), 12.00","16.00 (zima), 17.00 (lato)","","51.31281,17.12808","http://www.archidiecezja.wroc.pl/parafia.php?id_dek=31&id_par=2"
"św. Michała Archanioła","","","Chomiąża, ul. Średzka 38, 55-320 Malczyce","zobacz na mapie UMP","chomiaza@archidiecezja.wroc.pl","71/317-92-22","Ks. mgr Franciszek MARMOL Kan. hon. ex. num. Kap. Koleg. ","8.30, 10.00, 12.00","17.00 (zima), 18.00 (lato)","","51.21143,16.52701","http://www.archidiecezja.wroc.pl/parafia.php?id_dek=28&id_par=10"
"św. Michała Archanioła","","","Chróścina, nr 23, 56-200 Góra","zobacz na mapie UMP","chroscina@archidiecezja.wroc.pl","515-250-868","Ks. mgr Jarosław GRABAREK Kan. hon. ex. num. Kap. Koleg. ","9.00, 10.30, 12.00","18.00","","51.74348,16.53068","http://www.archidiecezja.wroc.pl/parafia.php?id_dek=45&id_par=1"
"Niepokalanego Poczęcia Najświętszej Maryi Panny","","","ul. Wrocławska 13, 55-001 Chrząstawa Wielka","zobacz na mapie UMP","chrzastawawielka@archidiecezja.wroc.pl","71/318-96-97","Ks. mgr lic. Wiesław CIESIELSKI Kan. hon. ex. num. Kap. Koleg. ","8.00, 10.00, 12.00, 17.00 (zima), 19.00 (lato)","17.00 (zima), 19.00 (lato)","","51.09697,17.30672","http://www.archidiecezja.wroc.pl/parafia.php?id_dek=36&id_par=1"
"Najświętszego Serca Pana Jezusa","","","Chwalimierz, nr 4, 55-300 Środa Śląska","zobacz na mapie UMP","chwalimierz@archidiecezja.wroc.pl","71/317-34-95","Ks. mgr Marek TYCZYŃSKI ","8.00, 10.00, 12.00","18.00, 18.00 (so - Proszków)","","51.14391,16.59202","http://www.archidiecezja.wroc.pl/parafia.php?id_dek=28&id_par=1"
"Najświętszej Maryi Panny Wspomożycielki Wiernych","","","Ciechów, ul. Słoneczna 2, 55-300 Środa Śląska","zobacz na mapie UMP","ciechow@archidiecezja.wroc.pl","71/317-36-00","Ks. mgr Mariusz LUBRYKA SDB ","9.00, 11.00, 12.00","18.00","","51.13293,16.56938","http://www.archidiecezja.wroc.pl/parafia.php?id_dek=28&id_par=2"
"Niepokalanego Poczęcia Najświętszej Maryi Panny","","","ul. Ząbkowicka 31, 57-211 Ciepłowody","zobacz na mapie UMP","cieplowody@archidiecezja.wroc.pl","74/810-33-40","Ks. mgr lic. Ryszard SŁOWIAK RM dziekan ","8.00, 9.30 (Piotrowice Polskie), 10.45 (Kobyla Głowa), 12.00, 18.00 (okazjonalnie)","18.00","","50.67294,16.90177","http://www.archidiecezja.wroc.pl/parafia.php?id_dek=44&id_par=2"
"Najświętszego Imienia Maryi","","","Czepielowice, nr 37, 49-313 Lubsza","zobacz na mapie UMP","czepielowice@archidiecezja.wroc.pl","77/415-97-57","Ks. mgr Adam CZTERNASTEK RM dziekan ","8.00, 9.30, 11.00, 12.30","17.30","","50.87740,17.56222","http://www.archidiecezja.wroc.pl/parafia.php?id_dek=3&id_par=2"
"Podwyższenia Krzyża Świętego","","","ul. św. Brata Alberta 3, 55-003 Czernica Wrocławska","zobacz na mapie UMP","czernica@archidiecezja.wroc.pl","71/318-00-04","Ks. mgr Jan PANKAŁA RM ","8.00, 10.00, 12.00","18.00","","51.04597,17.24539","http://www.archidiecezja.wroc.pl/parafia.php?id_dek=9&id_par=2"
"św. Wawrzyńca","","","Czernina, ul. Kościelna 1, 56-200 Góra","www.parafiaczernina.pl","proboszcz@parafiaczernina.pl","65/543-67-13","Ks. mgr Janusz BOBOWSKI ","8.00, 9.30 (Zaborowice), 11.00","18.00","","51.71956,16.61742","http://www.archidiecezja.wroc.pl/parafia.php?id_dek=8&id_par=2"
"Najświętszego Serca Pana Jezusa","","","Czeszów, ul. Leśna 3, 55-106 Zawonia","zobacz na mapie UMP","czeszow@archidiecezja.wroc.pl","71/312-71-94","Ks. mgr lic. Jacek TOMASZEWSKI ","8.00, 9.30 (Skoroszów), 10.45 (Kuźniczysko), 12.30","17.00, 18.00","","51.38225,17.24600","http://www.archidiecezja.wroc.pl/parafia.php?id_dek=31&id_par=3"
"św. Józefa Oblubieńca NMP","","","Dankowice, nr 11, 57-120 Strzelin","zobacz na mapie UMP","dankowice@archidiecezja.wroc.pl","71/393-06-10","Ks. mgr lic. Andrzej GUŹNICZAK ","8.30, 10.00, 12.00","16.00, zima 17.00, lato 18.00","","50.72079,17.01442","http://www.archidiecezja.wroc.pl/parafia.php?id_dek=27&id_par=1"
"św. Michała Archanioła","","","Długołęka, ul. Wiejska 24, 55-095 Mirków","zobacz na mapie UMP","dlugoleka@archidiecezja.wroc.pl","71/315-21-95","Ks. mgr Franciszek ŁYSIAK RM wicedziekan ","8.00, 10.00, 11.00 (Byków), 12.00, 15.00 (Kamień), 18.00, 20.00","8.00, 18.00","","51.17312,17.19297","http://www.archidiecezja.wroc.pl/parafia.php?id_dek=21&id_par=3"
"Najświętszej Maryi Panny z Góry Karmel","","","Dobra, nr 12, 56-410 Dobroszyce","zobacz na mapie UMP","dobra@archidiecezja.wroc.pl","71/315-53-63","Ks. mgr Dariusz FILOZOF RM ","8.30, 10.15, 12.00","7.00, zima: 17.00; lato: 18.00","","51.23779,17.30610","http://www.archidiecezja.wroc.pl/parafia.php?id_dek=21&id_par=4"
"św. Jadwigi","","","ul. Czereśniowa 12, 56-410 Dobroszyce","zobacz na mapie UMP","dobroszyce@archidiecezja.wroc.pl","71/314-11-63","Ks. Janusz KALICIAK SDS ","8.00, 10.00, 10.30 (Strzelce), 11.30, 18.00","7.00, 18.00, Adwent 17.00","","51.26293,17.33143","http://www.archidiecezja.wroc.pl/parafia.php?id_dek=21&id_par=5"
"Najświętszej Maryi Panny Różańcowej","","","Dobrzenice, nr 47, 57-211 Ciepłowody","zobacz na mapie UMP","dobrzenice@archidiecezja.wroc.pl","74/810-35-61","Ks. mgr Antoni DRWIŁA RM ","7.30, 8.30, 10.00, 11.30","17.00, 18.00","","50.70304,16.91844","http://www.archidiecezja.wroc.pl/parafia.php?id_dek=27&id_par=2"
"Nawiedzenia Najświętszej Maryi Panny","","","nr 81, 55-216 Domaniów","zobacz na mapie UMP","domaniow@archidiecezja.wroc.pl","71/301-77-42","Ks. mgr Marek GÓRDZIAŁEK RM ","8.00, 9.30 (Piskorzów), 10.45 (Brzeźmierz), 12.00","8.00 lub 18.00","","50.89430,17.12910","http://www.archidiecezja.wroc.pl/parafia.php?id_dek=22&id_par=1"
"św. Wojciecha Biskupa i Męczennika","","","Domasław, ul. Wrocławska 34 B, 55-040 Kobierzyce","zobacz na mapie UMP","domaslaw@archidiecezja.wroc.pl","71/725-52-13","Ks. mgr lic. Artur MIAZGA wicedziekan ","8.00, 10.00 (Magnice), 11.30","16.00 (cz, Magnice), 18.00","","51.01150,16.95714","http://www.archidiecezja.wroc.pl/parafia.php?id_dek=47&id_par=15"
"Podwyższenia Krzyża Świętego","","","Domaszczyn, ul. Słoneczna 1, 55-095 Mirków","zobacz na mapie UMP","domaszczyn@archidiecezja.wroc.pl","71/346-98-49","Ks. mgr Zbigniew POŹNIAK RM ","8.00, 11.30, 18.00","18.00 (lato), 17.00 (zima)","","51.18767,17.16469","http://www.archidiecezja.wroc.pl/parafia.php?id_dek=46&id_par=1"
"św. Małgorzaty","","","Gajków, ul. Główna 35, 55-002 Kamieniec Wrocławski","gajkow.archidiecezja.wroc.pl","gajkow@archidiecezja.wroc.pl","71/318-52-59","Ks. mgr lic. Krzysztof JAKUBUS RM, Kap. hon. Ojca św. ","8.00, 9.30 (Dobrzykowice), 11.00, 12.30 (Dobrzykowice)","17.00, 18.00 (Dobrzykowice: śr, pt)","","51.05870,17.18622","http://www.archidiecezja.wroc.pl/parafia.php?id_dek=36&id_par=2"
"Najświętszej Maryi Panny z Góry Karmel","","","Głębowice, nr 46, 56-160 Wińsko","zobacz na mapie UMP","glebowice@archidiecezja.wroc.pl","71/389-04-71","Ks. mgr lic. Jarosław OLEJNIK RM dziekan ","8.30, 10.00, 11.30","7.30, 17.00","","51.44907,16.73633","http://www.archidiecezja.wroc.pl/parafia.php?id_dek=34&id_par=1"
"Wniebowzięcia Najświętszej Maryi Panny","","","Głoska, ul. Kościelna 8, 55-330 Miękinia","zobacz na mapie UMP","gloska@archidiecezja.wroc.pl","71/396-30-76; kom. 664-190-518","Ks. mgr Stefan DOMBAJ Kan. hon. ex. num. Kap. Koleg. ","8.00, 10.00 (Białków), 12.00","zima 17.00, lato 18.00; (Białków - czw.)","","51.24978,16.72702","http://www.archidiecezja.wroc.pl/parafia.php?id_dek=16&id_par=1"
"Wszystkich Świętych","","","ul. Główna 111, 46-134 Głuszyna","zobacz na mapie UMP","gluszyna@archidiecezja.wroc.pl","77/419-14-08","Ks. mgr Jacek PIOTROWSKI ","8.30, 11.15","7.30, 18.00","","51.16192,17.81986","http://www.archidiecezja.wroc.pl/parafia.php?id_dek=33&id_par=1"
"św. Filomeny","","","Gniechowice, ul. Kątecka 53, 55-080 Kąty Wrocławskie","www.filomena.gniechowice.info","gniechowice@archidiecezja.wroc.pl","71/316-87-12","Ks. mgr lic. Jarosław WAWAK RM ","8.00, 10.00, 12.00","8.00, 17.00 (zima), 18.00 (lato)","","50.98831,16.83283","http://www.archidiecezja.wroc.pl/parafia.php?id_dek=11&id_par=1"
"Znalezienia Krzyża Świętego","","","Godzikowice, nr 26, 55-200 Oława","zobacz na mapie UMP","godzikowice@archidiecezja.wroc.pl","71/313-08-22; 693-516-316","Ks. mgr Andrzej BARTOS Kan. hon. ex. num. Kap. Koleg. ","9.00, 10.30 (Jaczkowice), 12.00","17.00","","50.91019,17.31048","http://www.archidiecezja.wroc.pl/parafia.php?id_dek=22&id_par=2"
"św. Faustyny","","","Skwer Ks. S. Chłopeckiego 1A, 56-200 Góra","faustynagora.pl","swfaustyny@archidiecezja.wroc.pl","65/544-16-70, fax 65/543-23-79","Ks. mgr lic. Arkadiusz WYSOKIŃSKI RM, Kap. hon. Ojca św. dziekan ","7.00, 9.00, 10.30, 12.00, 13.15 (z wyj. VII i VIII), 18.00","7.00, 17.00 (XII-II), 18.00","","51.66980,16.52798","http://www.archidiecezja.wroc.pl/parafia.php?id_dek=45&id_par=3"
"św. Katarzyny Aleksandryjskiej","","","ul. Ks. P. Ściegiennego 29, 56-200 Góra","gora-katarzyna.archidiecezja.wroc.pl","gora-katarzyna@archidiecezja.wroc.pl","65/543-26-96","Ks. mgr Henryk WACHOWIAK Kan. hon. ex. num. Kap. Koleg. dziekan ","7.00, 9.00, 10.30, 12.00, 16.00 (z wyj. wakacji), 18.00","7.00, 8.00 (w wakacje), 18.00","","51.66866,16.54124","http://www.archidiecezja.wroc.pl/parafia.php?id_dek=8&id_par=4"
"Wniebowzięcia Najświętszej Maryi Panny","","","pl. Cystersów 1, 57-210 Henryków","zobacz na mapie UMP","par.henrykow@archidiecezja.wroc.pl","74/810-50-69","O. Andrzej DREWNIAK OCist. wicedziekan ","7.00, 7.30, 9.00, 10.30, 12.00","6.30, 17.00 (zima), 18.00 (lato)","","50.65303,17.01293","http://www.archidiecezja.wroc.pl/parafia.php?id_dek=44&id_par=3"
"Podwyższenia Krzyża Świętego","","","Jaksonów, ul. Wrocławska 33, 55-020 Żórawina","zobacz na mapie UMP","jaksonow@archidiecezja.wroc.pl","71/311-47-58","Ks. mgr lic. Henryk GŁÓWKA Kan. hon. Kap. Koleg. ","8.00 (Przecławice), 9.30 (Wilczków), 11.00","17.30, sob. 17.00 (Szczepankowice)","","50.93448,16.96408","http://www.archidiecezja.wroc.pl/parafia.php?id_dek=1&id_par=3"
"Najświętszej Maryi Panny Królowej Polski","","","Januszkowice, ul. Klonowa 3, 55-095 Mirków","zobacz na mapie UMP","januszkowice@archidiecezja.wroc.pl","71/315-43-93","Ks. mgr Ryszard GROBELNY RM ","8.00, 10.00 (Jaksonowice), 12.00, 17.00 (so, Rzędziszowice)","17.00 (zima), 18.00 (lato)","","51.22307,17.24092","http://www.archidiecezja.wroc.pl/parafia.php?id_dek=21&id_par=9"
"Wniebowstąpienia Pana Jezusa","","","Jaszkotle, nr 26, 55-080 Kąty Wrocławskie","zobacz na mapie UMP","jaszkotle@archidiecezja.wroc.pl","71/390-69-14","Ks. Zbigniew ZAPAŚNIK Kan. hon. ex. num. Kap. Koleg. wicedziekan ","8.00, 9.30 (Sadków), 11.30","8.00, 18.00","","51.05728,16.90240","http://www.archidiecezja.wroc.pl/parafia.php?id_dek=11&id_par=2"
"św. Michała Archanioła","","","Jaworów, nr 1, 57-120 Wiązów","zobacz na mapie UMP","jaworow@archidiecezja.wroc.pl","71/394-25-89","Ks. mgr Adam SKALNIAK RM dziekan ","8.30 (Włosów), 9.45, 11.00 (Częstocice), 12.15 (Oleśnica Mała)","zima 17.00, lato 18.00","","50.80257,17.30784","http://www.archidiecezja.wroc.pl/parafia.php?id_dek=32&id_par=2"
"św. Antoniego Padewskiego","","","Jegłowa, ul. Skalników 34, 57-130 Przeworno","zobacz na mapie UMP","jeglowa@archidiecezja.wroc.pl","74/810-23-79","Ks. mgr lic. Piotr KRZYŚKÓW ","9.00, 11.00, 12.30","zima 17.00, lato 18.00","","50.73264,17.15657","http://www.archidiecezja.wroc.pl/parafia.php?id_dek=27&id_par=3"
"Najświętszej Maryi Panny Królowej Polski","","","ul. Oławska 265, 55-220 Jelcz-Laskowice","zobacz na mapie UMP","nmpkp.jelczlaskowice@archidiecezja.wroc.pl","71/318-81-03","Ks. dr hab. Henryk SZELOCH Kan. hon. Kap. Koleg. ","8.00, 10.00, 12.00","17.00 (zima), 18.00 (lato)","","51.01859,17.31277","http://www.archidiecezja.wroc.pl/parafia.php?id_dek=9&id_par=3"
"św. Maksymiliana Kolbego","","","ul. Oławska 44, 55-231 Jelcz-Laskowice","zobacz na mapie UMP","jelczlaskowice@archidiecezja.wroc.pl","71/318-13-74, 71/318-31-46, 71/318-26-02","Ks. mgr Janusz NOWICKI Kan. hon. Kap. Koleg. dziekan ","7.00, 8.30, 10.00, 11.15, 12.30, 18.00","7.00, 17.00 (zima), 18.00 (lato)","","51.03187,17.33716","http://www.archidiecezja.wroc.pl/parafia.php?id_dek=9&id_par=4"
"św. Stanisława Biskupa i Męczennika","","","ul. Wincentego Witosa 47, 55-230 Jelcz-Laskowice","sbm.jelczlaskowice.archidiecezja.wroc.pl","sbm.jelczlaskowice@archidiecezja.wroc.pl","71/318-15-55","Ks. mgr Marek HULA Kan. grem. Kap. Koleg. ","8.00, 10.30, 12.00, 18.00","18.00","","51.04027,17.34941","http://www.archidiecezja.wroc.pl/parafia.php?id_dek=9&id_par=5"
"Chrystusa Króla","","","nr 14, 56-209 Jemielno","zobacz na mapie UMP","jemielno@archidiecezja.wroc.pl","65/544-74-17","Ks. mgr Zenon BIELECKI Kan. hon. Kap. Koleg. ","8.30, 10.00, 12.00","18.00","","51.52430,16.54734","http://www.archidiecezja.wroc.pl/parafia.php?id_dek=8&id_par=5"
"św. Stanisława Biskupa i Męczennika","","","ul. Wrocławska 45, 55-065 Jordanów Śląski","zobacz na mapie UMP","jordanowslaski@archidiecezja.wroc.pl","71/316-11-15","Ks. mgr Wojciech MIŚKOWIEC ","8.00, 10.00 (Glinica), 11.30, 18.00","18.00","","50.86322,16.86834","http://www.archidiecezja.wroc.pl/parafia.php?id_dek=1&id_par=4"
"św. Franciszka z Asyżu","","","Jutrzyna, nr 71, 57-120 Wiązów","zobacz na mapie UMP","jutrzyna@archidiecezja.wroc.pl","71/394-30-21","Ks. mgr Andrzej JACKIEWICZ Kan. hon. ex. num. Kap. Koleg. wicedziekan ","8.00, 9.30 (Kowalów), 11.00","zima 17.00, lato 18.00","","50.75469,17.26173","http://www.archidiecezja.wroc.pl/parafia.php?id_dek=32&id_par=3"
"Miłosierdzia Bożego","","","ul. Spółdzielcza 16, 55-002 Kamieniec Wrocławski","zobacz na mapie UMP","kamieniecwroclawski@archidiecezja.wroc.pl","71/318-51-92","Ks. mgr lic. Jan KISZ Kan. grem. Kap. Koleg., Kap. hon. Ojca św. ","9.00, 11.00, 18.00","18.00","","51.07143,17.17758","http://www.archidiecezja.wroc.pl/parafia.php?id_dek=36&id_par=3"
"św. Michała Archanioła","","","ul. Pokojowa 1, 46-037 Karłowice","www.karlowice.maszt.pl/index.php/parafia","karlowice@archidiecezja.wroc.pl","77/469-71-85","Ks. mgr Henryk KACZMAREK RM ","8.00, 9.30, 11.00","17.00 (zima), 18.00 (lato)","","50.87491,17.71603","http://www.archidiecezja.wroc.pl/parafia.php?id_dek=3&id_par=3"
"Świętych Apostołów Piotra i Pawła","","","ul. Kościelna 2, 55-080 Kąty Wrocławskie","zobacz na mapie UMP","katywroclawskie@archidiecezja.wroc.pl","71/316-66-73","Ks. mgr Ryszard REPUTAŁA Kan. hon. ex. num. Kap. Koleg. ","8.00, 9.00 (Pełcznica), 10.00, 10.30 (Kilianów), 11.45 (Nowa Wieś Kącka), 12.00, 18.00","7.00, 16.30 (czw, Pełcznica i Nowa Wieś Kącka), 18.00","","51.03106,16.76953","http://www.archidiecezja.wroc.pl/parafia.php?id_dek=11&id_par=3"
"Najświętszej Maryi Panny Różańcowej","","","ul. Wrocławska 79, 55-093 Kiełczów","kielczow.archidiecezja.wroc.pl","kielczow@archidiecezja.wroc.pl","71/398-85-85","Ks. mgr Maciej SPISZ RM ","7.30, 9.30, 11.00, 12.30, 18.00","7.00, 18.00","","51.13908,17.17929","http://www.archidiecezja.wroc.pl/parafia.php?id_dek=46&id_par=4"
"Podwyższenia Krzyża Świętego","","","Kłoda Górowska, nr 42 A, 56-200 Góra","zobacz na mapie UMP","klodagorowska@archidiecezja.wroc.pl","665-102-707","Ks. mgr Stanisław ORŁOWSKI Kan. hon. Kap. Koleg. ","8.30, 10.00 (Ślubów), 12.00","zima 17.00, lato 18.00","","51.65686,16.58968","http://www.archidiecezja.wroc.pl/parafia.php?id_dek=8&id_par=6"
"Wniebowzięcia Najświętszej Maryi Panny","","","ul. Polna 1 A, 55-040 Kobierzyce","zobacz na mapie UMP","kobierzyce@archidiecezja.wroc.pl","71/311-14-27","Ks. mgr Andrzej JACAK RM ","8.30, 11.30, 18.00","8.00 (wt, czw), 18.00 (pn, śr, pt, so)","","50.96866,16.92241","http://www.archidiecezja.wroc.pl/parafia.php?id_dek=26&id_par=1"
"Nawiedzenia Najświętszej Maryi Panny","","","Koczurki, nr 13, 55-100 Trzebnica","zobacz na mapie UMP","koczurki@archidiecezja.wroc.pl","71/312-77-77","Ks. mgr Artur KOCHMAŃSKI SDS ","8.30, 8.30 (Biedaszków Wlk.), 10.00 (Brzezie), 10.00 (Koniowo), 11.30 (Domanowice), 11.30 (Komarówka), 13.00, 13.00 (Koniowo)","17.00 (zima), 18.00 (lato)","","51.39104,17.11232","http://www.archidiecezja.wroc.pl/parafia.php?id_dek=31&id_par=5"
"Podwyższenia Krzyża Świętego","","","Korzeńsko, ul. Kasztanowa 31, 55-140 Żmigród","zobacz na mapie UMP","korzensko@archidiecezja.wroc.pl","71/385-61-11","Ks. mgr Ryszard ZIÓŁEK Kan. hon. ex. num. Kap. Koleg. ","8.00, 9.30, 10.45, 12.30","17.00","","51.54345,16.86476","http://www.archidiecezja.wroc.pl/parafia.php?id_dek=25&id_par=2"
"Podwyższenia Krzyża Świętego","","","ul. 1 Maja 26, 55-311 Kostomłoty","zobacz na mapie UMP","kostomloty@archidiecezja.wroc.pl","71/317-01-95","Ks. mgr Jerzy SIECZKO Kan. hon. ex. num. Kap. Koleg., Kap. hon. Ojca św. ","8.00, 10.00, 12.00","18.00","","51.04583,16.61057","http://www.archidiecezja.wroc.pl/parafia.php?id_dek=11&id_par=10"
"Najświętszego Serca Pana Jezusa","","","Kotowice, ul. Główna 16, 55-011 Siechnice","zobacz na mapie UMP","kotowice@archidiecezja.wroc.pl","71/302-94-63","Ks. mgr Wacław STRONG RM ","8.00, 10.00 (Siedlce), 12.00","7.00 (pn), 9.00 (so), 16.00 (I pt mies. - Siedlce), 18.00 (wt, czw, I pt mies.), 18.00 (śr, pt - Siedlce)","","51.02450,17.23180","http://www.archidiecezja.wroc.pl/parafia.php?id_dek=22&id_par=3"
"Niepokalanego Poczęcia Najświętszej Maryi Panny","","","Kowalowice, ul. Główna 21, 46-100 Namysłów","zobacz na mapie UMP","kowalowice@archidiecezja.wroc.pl","77/419-21-22","Ks. mgr Janusz SZETELNICKI RM wicedziekan ","7.30, 9.00, 10.20, 12.00","16.00, 17.00, 18.00","","51.13264,17.76687","http://www.archidiecezja.wroc.pl/parafia.php?id_dek=33&id_par=2"
"św. Maksymiliana Marii Kolbego","","","ul. Polna 2, 56-320 Krośnice","zobacz na mapie UMP","krosnice@archidiecezja.wroc.pl","71/384-61-85","Ks. mgr Andrzej BURYŁA Kan. hon. ex. num. Kap. Koleg. ","7.15, 9.00, 10.30, 17.00 (zima), 18.00 (lato)","17.00 (zima), 18.00 (lato)","","51.47536,17.35751","http://www.archidiecezja.wroc.pl/parafia.php?id_dek=17&id_par=1"
"Najświętszej Maryi Panny Różańcowej","","","Kruszyna, nr 57, 49-300 Brzeg","zobacz na mapie UMP","kruszyna@archidiecezja.wroc.pl","77/412-56-78","Ks. mgr Marek DZIEDZIC ","8.30, 10.00, 11.30","17.00 (zima), 18.00 (lato)","","50.83070,17.54933","http://www.archidiecezja.wroc.pl/parafia.php?id_dek=2&id_par=4"
"św. Stanisława Biskupa i Męczennika","","","Kryniczno, ul. Trzebnicka 12, 55-114 Wisznia Mała","www.franciszkanie-kryniczno.fancom.pl","swstanislawabpm@archidiecezja.wroc.pl","71/387-86-17","O. Jakub Janusz WŁODARCZYK OFM ","8.00, 10.00 (Szymanów), 11.30, 18.00","18.00","","51.20800,17.03956","http://www.archidiecezja.wroc.pl/parafia.php?id_dek=31&id_par=6"
"św. Wawrzyńca","","","Kryniczno, nr 57, 55-300 Środa Śląska","kryniczno.archidiecezja.wroc.pl","kryniczno@archidiecezja.wroc.pl","71/317-17-24","Ks. mgr Jacek AKSAMSKI ","9.00, 11.30","9.00 lub 17.00 (zima), 18.00 (lato)","","51.13104,16.67228","http://www.archidiecezja.wroc.pl/parafia.php?id_dek=16&id_par=2"
"św. Jadwigi","","","Krzelków, nr 12, 57-220 Ziębice","zobacz na mapie UMP","krzelkow@archidiecezja.wroc.pl","74/819-71-14","Ks. mgr Wojciech KUBISIAK ","8.00, 10.00, 11.30","17.00 (zima), 18.00 (lato)","","50.62645,16.99326","http://www.archidiecezja.wroc.pl/parafia.php?id_dek=44&id_par=4"
"św. Marcina","","","Krzelów, nr 35, 56-160 Wińsko","www.krzelow.archidiecezjawroc.pl","sondar@poczta.fm","71/389-91-76","Ks. mgr Dariusz RZEPKA ","8.00, 9.30, 11.00, 12.30","8.00, zima 17.00, lato 18.00","","51.43803,16.51219","http://www.archidiecezja.wroc.pl/parafia.php?id_dek=34&id_par=2"
"św. Michała Archanioła","","","Krzydlina Mała, nr 69, 56-100 Wołów","www.parafiakrzydlina.pl","krzydlinamala@archidiecezja.wroc.pl","71/389-01-91","O. Piotr BOROŃ CMF ","7.00, 8.30, 10.00, 11.15","17.00, 18.00","","51.29777,16.54086","http://www.archidiecezja.wroc.pl/parafia.php?id_dek=4&id_par=5"
"św. Andrzeja Apostoła","","","Kucharzowice, nr 62, 57-120 Wiązów","zobacz na mapie UMP","kucharzowice@archidiecezja.wroc.pl","71/394-35-32","Ks. Jarosław CZARNY RM ","8.00, 9.30 (Bąków), 11.30","zima 17.00, lato 18.00","","50.78781,17.24922","http://www.archidiecezja.wroc.pl/parafia.php?id_dek=32&id_par=4"
"św. Marcina","","","Kulin, nr 39, 55-300 Środa Śląska","www.parafiakulin.pl","kulin@archidiecezja.wroc.pl","71/317-10-69","Ks. dr Mieczysław KINASZCZUK RM ","8.15 (Cesarzowice), 9.30 (Piersno), 10.45, 12.00 (Rakoszyce)","18.00","","51.10399,16.60363","http://www.archidiecezja.wroc.pl/parafia.php?id_dek=28&id_par=5"
"Narodzenia Najświętszej Maryi Panny","","","Kuropatnik, ul. Ks. Stanisława Michalaka 1, 57-100 Strzelin","zobacz na mapie UMP","kuropatnik@archidiecezja.wroc.pl","71/392-18-68","Ks. mgr Tadeusz POLAN wicedziekan ","8.30, 10.00, 11.30","zima 17.00, lato 18.00","","50.74939,17.10668","http://www.archidiecezja.wroc.pl/parafia.php?id_dek=27&id_par=4"
"Wniebowzięcia Najświętszej Maryi Panny","","","al. Wojska Polskiego 5, 49-340 Lewin Brzeski","zobacz na mapie UMP","lewinbrzeski@archidiecezja.wroc.pl","77/412-76-67","Ks. mgr Krzysztof DUDOJĆ RM ","7.30, 9.00, 9.00 (Sarny Małe, VII-VIII - 8.00), 10.15 (Oldrzyszowice, VII-VIII - 9.00), 11.00, 11.30 (Buszyce, VII-VIII - 10.00), 12.30 (z wyj. VII-VIII), 18.00 (19.00 - V-IX)","7.00, 7.30 (z wyj. VII-IX), 16.00 (pt - z wyj. VII-VIII, Sarny Małe, Oldrzyszowice, Buszyce), 18.00","","50.74878,17.61483","http://www.archidiecezja.wroc.pl/parafia.php?id_dek=2&id_par=5"
"Wniebowzięcia Najświętszej Maryi Panny","","","nr 67, 46-166 Ligota Książęca","zobacz na mapie UMP","wnmp.ligota@archidiecezja.wroc.pl","77/419-24-06","Ks. mgr Edward ŁUPKOWSKI RM ","8.30, 10.00, 11.30","8.30, 18.00","","51.02069,17.56627","http://www.archidiecezja.wroc.pl/parafia.php?id_dek=18&id_par=3"
"Najświętszej Maryi Panny Częstochowskiej","","","Ligota Mała, nr 31, 56-400 Oleśnica","zobacz na mapie UMP","ligotamala@archidiecezja.wroc.pl","71/398-74-07","vacat","8.30, 10.00, 11.30, 13.00","17.00, 18.00 (każdego 22. dnia miesiąca)","","51.14150,17.36547","http://www.archidiecezja.wroc.pl/parafia.php?id_dek=20&id_par=4"
"św. Walentego Męczennika","","","Lubiąż, ul. Księcia B. Wysokiego 34, 56-100 Wołów","zobacz na mapie UMP","lubiaz@archidiecezja.wroc.pl","71/389-71-65","Ks. mgr Leszek WOŹNY ","8.30, 10.30, 12.00, 18.00","7.30, 18.00","","51.27781,16.45430","http://www.archidiecezja.wroc.pl/parafia.php?id_dek=4&id_par=9"
"Podwyższenia Krzyża Świętego","","","Luboszyce, nr 2, 56-209 Jemielno","zobacz na mapie UMP","luboszyce@archidiecezja.wroc.pl","65/544-62-70","Ks. mgr lic. Robert STRAWIŃSKI ","9.00, 10.30 (Lubów), 12.30","zima 17.00, lato 18.00","","51.60645,16.42292","http://www.archidiecezja.wroc.pl/parafia.php?id_dek=45&id_par=7"
"Nawiedzenia Najświętszej Maryi Panny","","","ul. Brzeska 11, 49-313 Lubsza","www.lubsza.archidiecezja.wroc.pl","lubsza@archidiecezja.wroc.pl","77/411-86-25","Ks. dr Józef MELER RM ","8.00, 10.00, 11.30","17.00 (zima), 18.00 (lato)","","50.91593,17.52089","http://www.archidiecezja.wroc.pl/parafia.php?id_dek=3&id_par=4"
"św. Jana Chrzciciela","","","Ludów Śląski, nr 22, 57-160 Borów","ludowslaski.archidiecezja.wroc.pl","ludowslaski@archidiecezja.wroc.pl","71/393-30-96","Ks. mgr Paweł MACHAŁ ","7.30, 9.00 (Ludów Polski); 10.30 (Kurczów); 12.00","17.00 (X-IV), 18.00 (IV-X)","","50.84853,17.02465","http://www.archidiecezja.wroc.pl/parafia.php?id_dek=1&id_par=5"
"św. Józefa Oblubieńca NMP","","","ul. Kościelna 18, 55-333 Lutynia","www.parafialutynia.net","kancelaria@parafialutynia.net","71/723-45-38","Ks. mgr Jan BANIK Kan. hon. ex. num. Kap. Koleg. ","7.30, 8.45 (Gałów), 10.00 (Radakowice), 11.15, 12.30, 12.30 (Wróblowice), 18.30","18.00; 16.45 (Gałów czw., so); 16.45 (Radakowice pt.)","","51.13525,16.78241","http://www.archidiecezja.wroc.pl/parafia.php?id_dek=16&id_par=7"
"św. Jana Chrzciciela","","","ul. Główna 3, 49-330 Łosiów","zobacz na mapie UMP","losiow@archidiecezja.wroc.pl","77/412-53-40","Ks. mgr Leszek WŁODARCZYK RM ","8.00, 9.30, 11.00, 12.30","18.00 (zima), 19.00 (lato)","","50.79252,17.55623","http://www.archidiecezja.wroc.pl/parafia.php?id_dek=2&id_par=6"
"Wniebowzięcia Najświętszej Maryi Panny","","","Łozina, ul. Wrocławska 5, 55-095 Mirków","zobacz na mapie UMP","lozina@archidiecezja.wroc.pl","71/315-48-22","Ks. mgr Stanisław BABICZ RM ","8.30, 10.00 (Godzieszowa), 11.30","16.30 (zima), 17.30 (lato)","","51.23233,17.17400","http://www.archidiecezja.wroc.pl/parafia.php?id_dek=31&id_par=7"
"Niepokalanego Poczęcia Najświętszej Maryi Panny","","","ul. Mickiewicza 6 B, 55-320 Malczyce","malczyce.archidiecezja.wroc.pl","malczyce@archidiecezja.wroc.pl","71/317-92-17","Ks. mgr Bolesław SYLWESTRZAK RM, Kap. hon. Ojca św. ","8.00, 9.00 (Dom Opieki Społecznej), 10.30, 12.00, 17.00","7.00, 18.00","","51.22033,16.49352","http://www.archidiecezja.wroc.pl/parafia.php?id_dek=28&id_par=11"
"Trójcy Świętej","","","Małkowice, ul. Szkolna 5, 55-080 Kąty Wrocławskie","zobacz na mapie UMP","malkowice@archidiecezja.wroc.pl","71/316-85-10","Ks. mgr Robert GROMADZKI ","8.00, 9.30 (Skałka), 11.00 (Bogdaszowice), 12.15","17.00, 18.00","","51.07643,16.82361","http://www.archidiecezja.wroc.pl/parafia.php?id_dek=11&id_par=11"
"Niepokalanego Poczęcia Najświętszej Maryi Panny","","","Małowice, nr 4a, 56-160 Wińsko","zobacz na mapie UMP","malowice@archidiecezja.wroc.pl","71/389-61-78","Ks. mgr Jan MAZUR RM ","7.30, 9.00, 10.00, 11.30","18.00","","51.40281,16.47265","http://www.archidiecezja.wroc.pl/parafia.php?id_dek=34&id_par=3"
"św. Jakuba","","","Małujowice, nr 65, 49-318 Skarbimierz","zobacz na mapie UMP","malujowice@wp.pl","77/412-32-70, 661-683-686","Ks. dr Andrzej PASZYŃSKI RM ","7.30, 9.00 (Psary), 10.30 (Gać), 12.00","16.00 (lato), 17.00 (Psary), 18.00 (Gać), 19.00 (lato)","","50.84693,17.38061","http://www.archidiecezja.wroc.pl/parafia.php?id_dek=2&id_par=7"
"Niepokalanego Poczęcia Najświętszej Maryi Panny","","","Maniów Wielki, ul. Okulicka 3, 55-081 Mietków","zobacz na mapie UMP","maniowwielki@archidiecezja.wroc.pl","71/316-81-95","Ks. dr hab. Robert ZAPOTOCZNY RM ","8.00, 9.00, 10.30, 12.00","17.00 (zima), 18.00 (lato)","","50.95616,16.69641","http://www.archidiecezja.wroc.pl/parafia.php?id_dek=26&id_par=2"
"św. Marcina Biskupa","","","Marcinkowice, ul. Szkolna 5, 55-200 Oława","zobacz na mapie UMP","marcinkowice@archidiecezja.wroc.pl","71/302-86-81","Ks. mgr lic. Tomasz ZAJĄC Kan. hon. ex. num. Kap. Koleg. wicedziekan ","8.00, 9.30 (Sobocisko), 11.00, 18.00","18.00 (pn, śr, pt, so), 18.00 (Sobocisko: wt, czw)","","50.98934,17.22753","http://www.archidiecezja.wroc.pl/parafia.php?id_dek=22&id_par=4"
"Świętych Apostołów Piotra i Pawła","","","ul. Kościelna 7, 49-315 Mąkoszyce","zobacz na mapie UMP","makoszyce@archidiecezja.wroc.pl","77/412-44-14","Ks. mgr lic. Antoni AKIŃCZA RM ","8.00, 9.30, 11.30","8.00, 17.00, 18.00","","50.94120,17.63748","http://www.archidiecezja.wroc.pl/parafia.php?id_dek=3&id_par=5"
"św. Michała Archanioła","","","Michalice, nr 16, 46-100 Namysłów","zobacz na mapie UMP","michalice@archidiecezja.wroc.pl","77/410-29-53","Ks. mgr Grzegorz LASZCZYŃSKI wicedziekan ","8.15, 9.30, 10.45, 12.00","18.00 (lato), 17.00 (zima)","","51.10507,17.76141","http://www.archidiecezja.wroc.pl/parafia.php?id_dek=18&id_par=4"
"św. Jadwigi","","","Michałów, nr 119, 49-332 Olszanka","www.jadwiga-michalow.pl","michalow@archidiecezja.wroc.pl","77/412-92-61","Ks. mgr Czesław MORAŃSKI ","8.00, 10.00, 11.30","18.00","","50.74304,17.51319","http://www.archidiecezja.wroc.pl/parafia.php?id_dek=2&id_par=8"
"Narodzenia Najświętszej Maryi Panny","","","ul. Kościelna 2, 55-330 Miękinia","www.parafiamiekinia.pl","miekinia.nnmp@archidiecezja.wroc.pl","71/317-81-79","Ks. dr Waldemar KOCENDA RM, Kap. hon. Ojca św. ","9.00, 11.00, 19.00","8.00 (sobota), 17.00 (zima ), 18.00 (lato)","","51.19309,16.73738","http://www.archidiecezja.wroc.pl/parafia.php?id_dek=16&id_par=3"
"św. Andrzeja Boboli","","","ul. Spacerowa 2, 56-300 Milicz","www.bobolamilicz.pl","kancelaria@bobolamilicz.pl","71/383-00-29","Ks. Kazimierz KUDRYŃSKI Kan. hon. Kap. Koleg., Kap. hon. Ojca św. ","7.00, Dom Opieki Społ. 8.30; 8.45, Duchowo 9.45; 10.00, Niesułowice 11.00; 11.30, 13.00, 15.30, 18.00","6.30, 7.00, 18.00","","51.52792,17.27280","http://www.archidiecezja.wroc.pl/parafia.php?id_dek=17&id_par=2"
"św. Michała Archanioła","","","ul. Kościelna 5, 56-300 Milicz","zobacz na mapie UMP","swmichala.milicz@archidiecezja.wroc.pl","71/384-00-10, fax 71/384-00-10","Ks. Jan PRZYTOCKI Kan. hon. ex. num. Kap. Koleg., Kap. hon. Ojca św. ","7.00, 8.00 (Godnowa), 8.45, 9.30 (Godnowa), 10.00, 10.45 (Gogołowice), 11.30, 13.00, 17.00","6.30, 7.00, 18.00","","51.53303,17.27688","http://www.archidiecezja.wroc.pl/parafia.php?id_dek=17&id_par=4"
"św. Anny","","","ul. Łowiecka 1a, 56-300 Milicz","www.swanny.milicz.archidiecezjawroc.pl","swanny.milicz@archidiecezja.wroc.pl","71/383-09-13","Ks. mgr Bogdan BURYŁA RM ","8.00, 10.00, 11.30, 17.00 (zima), 18.00 (lato)","17.00 (zima), 18.00 (lato)","","51.50701,17.28118","http://www.archidiecezja.wroc.pl/parafia.php?id_dek=17&id_par=3"
"św. Mikołaja","","","Miłoszyce, ul. Główna 25, 55-230 Jelcz-Laskowice","www.parafiamiloszyce.pl","miloszyce@archidiecezja.wroc.pl","71/318-46-82","Ks. mgr Janusz GILUŃ RM ","8.00, 10.00, 12.00, 18.00","18.00","","51.04902,17.31097","http://www.archidiecezja.wroc.pl/parafia.php?id_dek=9&id_par=6"
"św. Jana Nepomucena","","","ul. Kościelna 10, 55-206 Minkowice Oławskie","zobacz na mapie UMP","minkowice@archidiecezja.wroc.pl","71/318-60-11","Ks. mgr Ryszard MARCZYCKI RM ","8.00, 9.30, 11.00, 12.30","17.00 (zima), 18.00 (lato)","","51.02012,17.46194","http://www.archidiecezja.wroc.pl/parafia.php?id_dek=9&id_par=7"
"św. Brata Alberta","","","ul. Kościelna 2, 55-095 Mirków","mirkow.archidiecezja.wroc.pl","mirkow@archidiecezja.wroc.pl","71/315-10-22; wikariat: 71/315-12-78","Ks. mgr Wacław KURIATA Kan. grem. Kap. Koleg. ","8.00, 10.00 (dla dzieci), 12.00, 18.00","8.00 lub 18.00","","51.16897,17.15992","http://www.archidiecezja.wroc.pl/parafia.php?id_dek=46&id_par=13"
"Niepokalanego Poczęcia Najświętszej Maryi Panny","","","Moczydlnica Klasztorna, nr 3, 56-160 Wińsko","zobacz na mapie UMP","moczydlnicaklasztorna@archidiecezja.wroc.pl","71/389-91-01","Ks. mgr lic. Jan SIENKIEWICZ ","8.30, 10.00, 12.00","7.00, 17.00, 18.00","","51.40423,16.58203","http://www.archidiecezja.wroc.pl/parafia.php?id_dek=34&id_par=4"
"Najświętszej Maryi Panny Zwycięskiej","","","Mrozów, ul. Wyzwolenia 17, 55-330 Miękinia","zobacz na mapie UMP","mrozow@archidiecezja.wroc.pl","71/317-07-79, 693-759-208","Ks. mgr lic. Andrzej WÓJCIAK Kan. hon. ex. num. Kap. Koleg. wicedziekan ","8.00, 10.00 (Krępice), 12.00","18.00 (zima), 18.30","","51.18710,16.78847","http://www.archidiecezja.wroc.pl/parafia.php?id_dek=16&id_par=6"
"Świętych Apostołów Piotra i Pawła","","","ul. Kościelna 3, 46-100 Namysłów","namyslow.archidiecezja.wroc.pl","namyslow@archidiecezja.wroc.pl","77/410-02-34","Ks. mgr Henryk JACAK Kan. hon. ex. num. Kap. Koleg. dziekan ","7.00, 8.30, 9.00, 10.00, 11.00, 11.30, 13.00, 19.00","7.00, 9.00, 18.00","","51.07749,17.71867","http://www.archidiecezja.wroc.pl/parafia.php?id_dek=33&id_par=10"
"św. Franciszka z Asyżu i św. Piotra z Alkantary","","","Skwer Kard. Wyszyńskiego 2, 46-100 Namysłów","swfranciszek-namyslow.pl","swfranciszka.namyslow@archidiecezja.wroc.pl","77/410-71-00, wikariat 77/410-26-39","Ks. dr Bartosz BARCZYSZYN ","7.00, 8.30, 9.45, 11.00, 12.15, zima 18.00, lato 20.00","8.30, 17.00, 18.00, lato: 8.30, 18.00","","51.07755,17.71361","http://www.archidiecezja.wroc.pl/parafia.php?id_dek=18&id_par=5"
"św. Józefa Oblubieńca NMP","","","Nasławice, ul. Komuny Paryskiej 2, 55-050 Sobótka","zobacz na mapie UMP","naslawice@archidiecezja.wroc.pl","71/391-35-54, kom. 500-034-122","Ks. mgr lic. Zbigniew SŁOBODECKI Kan. hon. ex. num. Kap. Koleg. dziekan ","8.45 (Świątniki), 10.00 (Księginice Małe), 11.30 (Wilczkowice), 13.00 (Nasławice)","7.00 (pt. Nasławice), 7.30 (IX-VI, śr. Świątniki), 18.00 (wt. Świątniki; śr. Nasławice; czw. Wilczkowice; so. Księginice Małe), 19.00 (IX-VI, czw. Nasławice)","","50.88747,16.80533","http://www.archidiecezja.wroc.pl/parafia.php?id_dek=26&id_par=3"
"św. Jana Ewangelisty","","","Niedźwiednik, nr 53, 57-220 Ziębice","zobacz na mapie UMP","niedzwiednik@archidiecezja.wroc.pl","74/819-58-14","Ks. mgr Adrian Wilhelm HORAK RM ","9.15, 10.30, 12.00","16.00 (zima), 17.00 (lato)","","50.58384,16.94469","http://www.archidiecezja.wroc.pl/parafia.php?id_dek=44&id_par=5"
"Najświętszego Serca Pana Jezusa","","","Niwnik, nr 32, 55-200 Oława","zobacz na mapie UMP","niwnik@archidiecezja.wroc.pl","71/313-19-97","Ks. mgr Marek LEWICKI ","8.00 (Bolechów), 9.30 (Siecieborowice), 11.00","18.00 (od Adwentu do końca III o 17.00)","","50.90338,17.25008","http://www.archidiecezja.wroc.pl/parafia.php?id_dek=22&id_par=5"
"św. Marcina","","","Nowolesie, Biały Kościół, ul. Różana 4, 57-100 Strzelin","zobacz na mapie UMP","nowolesie@archidiecezja.wroc.pl","71/393-06-87","Ks. mgr Stanisław WŁODARSKI Kan. grem. Kap. Koleg. ","8.00 (Biały Kościół), 10.00 (Nowolesie), 12.00 (Biały Kościół)","8.00, 17.00 (zima), 18.00 (lato)","","50.70197,17.06060","http://www.archidiecezja.wroc.pl/parafia.php?id_dek=27&id_par=5"
"Najświętszego Serca Pana Jezusa","","","ul. Kard. Wyszyńskiego 23, 55-120 Oborniki Śląskie","zobacz na mapie UMP","nspj.obornikislaskie@archidiecezja.wroc.pl","71/310-13-50","Ks. dr Maciej CHWARŚCIANEK SDS wicedziekan ","8.00, 10.00, 12.30, 18.30","7.00, 18.30","","51.30420,16.91504","http://www.archidiecezja.wroc.pl/parafia.php?id_dek=25&id_par=3"
"św. Judy Tadeusza i św. Antoniego Padewskiego","","","ul. Trzebnicka 35, 55-120 Oborniki Śląskie","judaiantoni.pl","swjudyantoniego@archidiecezja.wroc.pl","71/310-13-51","Ks. dr Jacek WAWRZYNIAK SDS ","8.30, 11.00, 12.30 (dla dzieci), 17.00, 19.00 (dla młodzieży)","8.30, 18.00 (zima), 19.00 (lato)","","51.29851,16.91993","http://www.archidiecezja.wroc.pl/parafia.php?id_dek=25&id_par=11"
"Najświętszej Maryi Panny Matki Miłosierdzia","","","ul. Wileńska 4, 56-400 Oleśnica","olesnicaslw.archidiecezja.wroc.pl","olesnicaslw@archidiecezja.wroc.pl","71/314-44-60","Ks. mgr Zdzisław PADUCH Kan. hon. ex. num. Kap. Koleg. dziekan ","7.00, 7.15 (szpital), 9.00, 10.30, 12.00, 18.00, 19.30","6.30 (szpital), 6.30, 7.00, 7.30, 18.00","","51.21002,17.39440","http://www.archidiecezja.wroc.pl/parafia.php?id_dek=20&id_par=5"
"św. Jana Apostoła i Ewangelisty","","","ul. Łużycka 4, 56-400 Oleśnica","olesnica.archidiecezja.wroc.pl","olesnica@archidiecezja.wroc.pl","71/314-21-42","Ks. mgr lic. Władysław OZIMEK Kan. grem. Kap. Katedr., dziekan Kap. Katedr. dziekan ","7.30, 8.00 (pw. Trójcy Świętej), 9.00, 11.00, 11.30 (Dąbrowa), 12.00 (pw. Trójcy Świętej), 12.30, 18.00","6.15, 7.00, 7.30, 18.00","","51.21016,17.37861","http://www.archidiecezja.wroc.pl/parafia.php?id_dek=21&id_par=7"
"Najświętszej Maryi Panny Fatimskiej","","","Plac Fatimski 1 (siedziba ul. Łużycka 4), 56-400 Oleśnica","www.olesnicafatimska.parafialnastrona.pl","nmpfatimskiej@archidiecezja.wroc.pl","71/314-21-42","Ks. mgr Jan KUDLIK RM ","kaplica w Domu Parafialnym: 8.00, 11.30; Bystre: 10.00","18.00","","51.19969,17.37697","http://www.archidiecezja.wroc.pl/parafia.php?id_dek=21&id_par=6"
"Najświętszej Maryi Panny Królowej","","","ul. Nowy Otok 8, 55-200 Oława","zobacz na mapie UMP","nmpkrolowej@wp.pl","71/303-83-84, 69/653-52-51","Ks. mgr Robert JASIK ","8.00, 9.00 (Gaj Oławski), 10.15 (Marszowice), 11.30","18.00 (pn), 7.00 (wt), 18.00 (śr) 18.00 (czw - Gaj Oławski); 18.00 (pt - Marszowice), 8.00 (so);","","50.93758,17.26863","http://www.archidiecezja.wroc.pl/parafia.php?id_dek=22&id_par=12"
"Najświętszej Maryi Panny Różańcowej","","","ul. Polna 19A, 55-200 Oława","www.parafiambr.olawa.pl","info@parafiambr.olawa.pl","695-630-418","Ks. mgr Ryszard ZDONEK RM ","8.00, 10.00, 12.00","18.30","","50.92502,17.30347","http://www.archidiecezja.wroc.pl/parafia.php?id_dek=22&id_par=11"
"Świętych Apostołów Piotra i Pawła","","","pl. Zamkowy 16, 55-200 Oława","www.petrus.olawa.pl","petrus@data.pl","71/313-27-23","Ks. mgr lic. Janusz GORCZYCA RM dziekan ","7.00, 8.00, 10.00, 11.30, 13.00, 16.00, 18.00, 19.15","7.00, 9.00, 18.00","","50.94443,17.29402","http://www.archidiecezja.wroc.pl/parafia.php?id_dek=22&id_par=8"
"Najświętszej Maryi Panny Matki Pocieszenia","","","pl. Św. Maksymiliana M. Kolbe 1, 55-200 Oława","sanktuariumolawa.ns48.pl","sanktuarium.olawa@archidiecezja.wroc.pl","71/313-22-41","Ks. mgr lic. Tomasz CZABATOR RM ","7.00, 8.30, 10.00, 11.30, 13.00, 19.00","6.30, 9.00, 18.00","","50.94215,17.29417","http://www.archidiecezja.wroc.pl/parafia.php?id_dek=22&id_par=6"
"Miłosierdzia Bożego","","","ul. Zaciszna 4, 55-200 Oława","pmb.olawa.pl","olawa@archidiecezja.wroc.pl","71/313-86-88","Ks. Stanisław BIJAK RM, Kap. hon. Ojca św. ","7.00, 8.30, 10.00, 10.15 (Stanowice), 11.30, 13.00, 18.00, 19.00 (od 1.06 do 31.08)","7.00, 18.00 (zima), 19.00 (lato)","","50.94811,17.27477","http://www.archidiecezja.wroc.pl/parafia.php?id_dek=22&id_par=7"
"św. Michała Archanioła","","","Osetno, nr 24, 56-200 Góra","zobacz na mapie UMP","osetno@archidiecezja.wroc.pl","65/543-20-90","vacat","8.00 (Rogów Górowski), 9.00 (Stara Góra), 10.30 (Ryczeń), 12.00","18.00","","51.63427,16.46223","http://www.archidiecezja.wroc.pl/parafia.php?id_dek=45&id_par=8"
"św. Marii Magdaleny","","","Osiek, nr 84, 55-200 Oława","osiek.archidiecezja.wroc.pl","osiek@archidiecezja.wroc.pl","71/313-17-23, 692-874-810","Ks. dr hab. Norbert JERZAK ","7.00, 9.00 (Niemil), 10.30 (Chwalibożyce), 12.00","17.00 (śr, pt - Chwalibożyce; cz, so - Niemil), 18.00","","50.88297,17.29257","http://www.archidiecezja.wroc.pl/parafia.php?id_dek=22&id_par=9"
"św. Wawrzyńca","","","Osina Wielka, nr 50, 57-220 Ziębice","zobacz na mapie UMP","osinawielka@archidiecezja.wroc.pl","74/819-14-01","Ks. mgr Artur ĆWIRTA RM ","9.00, 10.15, 11.30","16.00 (zima), 18.00 (lato)","","50.57793,17.07282","http://www.archidiecezja.wroc.pl/parafia.php?id_dek=44&id_par=6"
"św. Marcina","","","Owczary, nr 53, 55-200 Oława","zobacz na mapie UMP","wiazow@archidiecezja.wroc.pl","71/313-13-97","Ks. mgr Janusz DURLIK ","8.15 (Bierzów), 9.30 (Łukowice Brzeskie), 11.00, 12.30 (Jankowice Małe)","zima 17.00, lato 18.00","","50.83618,17.31898","http://www.archidiecezja.wroc.pl/parafia.php?id_dek=32&id_par=5"
"Najświętszego Serca Pana Jezusa","","","Pakosławsko, nr 45, 56-330 Cieszków","zobacz na mapie UMP","pakoslawsko@archidiecezja.wroc.pl","71/384-81-40","Ks. mgr Krzysztof TOMCZAK dziekan ","8.00, 10.00 (Dziadkowo), 11.30","7.30 (wt, czw, so), 18.00 (IV-IX), 17.00 (X-III)","","51.61034,17.30155","http://www.archidiecezja.wroc.pl/parafia.php?id_dek=17&id_par=5"
"św. Józefa Oblubieńca NMP","","","Pasikurowice, ul. Wrocławska 48, 55-095 Mirków","zobacz na mapie UMP","pasikurowice@archidiecezja.wroc.pl","667-669-730","Ks. mgr Piotr ŚMIGIELSKI ","9.00, 11.00 (VII-VIII: 9.00, 10.30)","18.00","","51.21092,17.10603","http://www.archidiecezja.wroc.pl/parafia.php?id_dek=46&id_par=14"
"św. Mikołaja","","","ul. Kościelna 1, 55-120 Pęgów","zobacz na mapie UMP","pegow@archidiecezja.wroc.pl","71/310-74-29","Ks. mgr Henryk MATUSZAK Kan. hon. ex. num. Kap. Koleg. ","8.00, 9.30, 11.00, 18.00","18.00","","51.24491,16.93452","http://www.archidiecezja.wroc.pl/parafia.php?id_dek=25&id_par=4"
"św. Katarzyny","","","Piotrowice, nr 62, 55-311 Kostomłoty","zobacz na mapie UMP","piotrowice@archidiecezja.wroc.pl","71/397-01-72","Ks. mgr Leszek PIERZECKI RM ","8.00, 10.00 (Paździorno), 12.00","17.00 (zima), 18.00 (lato)","","51.03333,16.68322","http://www.archidiecezja.wroc.pl/parafia.php?id_dek=11&id_par=4"
"Niepokalanego Serca Najświętszej Maryi Panny","","","Piskorzyna, nr 40, 56-160 Wińsko","zobacz na mapie UMP","piskorzyna@archidiecezja.wroc.pl","71/389-84-86","Ks. mgr Andrzej PAJDAK RM ","9.30, 11.00, 13.00","zima 17.00, lato 18.00","","51.50087,16.63018","http://www.archidiecezja.wroc.pl/parafia.php?id_dek=34&id_par=5"
"św. Stanisława Biskupa i Męczennika","","","Pobiel, nr 60 A, 56-210 Wąsosz","zobacz na mapie UMP","pobiel@archidiecezja.wroc.pl","65/544-28-02","Ks. mgr Marian RAPACZ RM ","9.00, 11.00, 12.30","18.00","","51.56710,16.74617","http://www.archidiecezja.wroc.pl/parafia.php?id_dek=8&id_par=9"
"Najświętszego Serca Pana Jezusa","","","Pogorzela, nr 10, 49-332 Olszanka","zobacz na mapie UMP","pogorzela@archidiecezja.wroc.pl","77/412-96-06","Ks. mgr Aleksander Michał DROŻDŻ EC wicedziekan ","8.00, 9.30, 11.00","8.00 (śr), 18.00","","50.78937,17.48911","http://www.archidiecezja.wroc.pl/parafia.php?id_dek=2&id_par=9"
"Najświętszej Maryi Panny Królowej Polski","","","Poniatowice, nr 86, 56-400 Oleśnica","zobacz na mapie UMP","poniatowice@archidiecezja.wroc.pl","71/314-87-21","Ks. mgr Bogusław STEC RM ","8.00, 10.00 (Cieśle), 12.00","17.00 (zima), 18.00 (lato), Cieśle wt. 16.00 (zima), 17.00 (lato)","","51.23870,17.54108","http://www.archidiecezja.wroc.pl/parafia.php?id_dek=20&id_par=6"
"św. Jana Chrzciciela","","","Powidzko, nr 25, 55-140 Żmigród","zobacz na mapie UMP","powidzko@archidiecezja.wroc.pl","71/385-66-92","Ks. Andrzej MAJCHRZAK RM ","8.00 (Osiek), 9.00 (Kaszyce Wielkie), 10.30","16.00 (zima), 18.00 (lato)","","51.44178,16.96418","http://www.archidiecezja.wroc.pl/parafia.php?id_dek=25&id_par=5"
"św. Jakuba Apostoła","","","ul. Jana Pawła II 3, 55-110 Prusice","www.parafia-prusice.pl","prusice@archidiecezja.wroc.pl","71/312-62-10, fax 71/312-54-73","Ks. mgr Bernard ŚWIST RM ","7.30, 9.00, 10.15, 11.30, 13.00","7.00, 17.00 (zima), 18.00 (lato)","","51.36953,16.95938","http://www.archidiecezja.wroc.pl/parafia.php?id_dek=25&id_par=6"
"św. Wawrzyńca","","","ul. Słoneczna 1, 57-150 Prusy","zobacz na mapie UMP","prusy@archidiecezja.wroc.pl","71/392-63-89","Ks. mgr Krzysztof ROMANIUK RM ","7.30, 9.00, 10.15, 11.30","7.00, zima 16.30, 17.00, lato 18.00","","50.75575,16.93533","http://www.archidiecezja.wroc.pl/parafia.php?id_dek=27&id_par=6"
"Najświętszego Serca Pana Jezusa","","","Przeczów, nr 32, 46-166 Ligota Książęca","zobacz na mapie UMP","przeczow@archidiecezja.wroc.pl","77/419-10-13","Ks. mgr Daniel BARANOWSKI ","9.00 (Lubska), 10.00 (Krasowice), 11.00 (Smarchowice), 12.00 (Przeczów)","18.00","","51.05457,17.54948","http://www.archidiecezja.wroc.pl/parafia.php?id_dek=18&id_par=7"
"Najświętszej Maryi Panny Królowej Polski","","","ul. Kościelna 1, 57-130 Przeworno","zobacz na mapie UMP","przeworno@archidiecezja.wroc.pl","74/810-20-37","Ks. dr hab. Tomasz BŁASZCZYK ","7.45, 9.00, 10.30, 12.00","17.00 (zima), 18.00 (lato)","","50.68586,17.16703","http://www.archidiecezja.wroc.pl/parafia.php?id_dek=27&id_par=7"
"Najświętszej Maryi Panny Różańcowej","","","Radwanice, ul. Kościelna 8, 55-010 Święta Katarzyna","www.radwanice.archidiecezja.wroc.pl","radwanice@archidiecezja.wroc.pl","71/311-70-81","Ks. mgr lic. Ludwik GRUDZIŃSKI Kan. hon. ex. num. Kap. Koleg. ","8.00, 10.00 (kaplica), 11.30, 20.00","6.00 (pn, wt, śr), 18.00 (cz, pt, so)","","51.06056,17.10711","http://www.archidiecezja.wroc.pl/parafia.php?id_dek=38&id_par=1"
"św. Karola Boromeusza","","","Radziądz, nr 69, 55-140 Żmigród","zobacz na mapie UMP","radziadz@archidiecezja.wroc.pl","71/385-60-24","Ks. mgr lic. Krzysztof BARTOSZEK CM ","8.00, 9.30 (Niezgoda), 10.30 (Ruda Żmigrodzka) 12.15","8.00 (pn, cz), 17.00 (zima, pozostałe dni); 19.00 (lato, pozostałe dni)","","51.51156,16.96701","http://www.archidiecezja.wroc.pl/parafia.php?id_dek=25&id_par=7"
"św. Anny","","","Ramułtowice, nr 34, 55-311 Kostomłoty","www.ramultowice.archidiecezja.wroc.pl","ramultowice@archidiecezja.wroc.pl","71/396-90-95","Ks. mgr Piotr KOMANDER Kan. hon. ex. num. Kap. Koleg. dziekan ","9.00, 10.30, 12.00","8.00, 17.00 (zima), 18.00 (lato)","","51.09678,16.72360","http://www.archidiecezja.wroc.pl/parafia.php?id_dek=11&id_par=5"
"św. Antoniego Padewskiego","","","Ratowice, ul. Wrocławska 56, 55-003 Czernica Wrocławska","zobacz na mapie UMP","ratowice@archidiecezja.wroc.pl","71/318-91-88","Ks. mgr Janusz DOŁHUN RM wicedziekan ","9.00, 11.00","9.00 lub 17.30","","51.03366,17.27021","http://www.archidiecezja.wroc.pl/parafia.php?id_dek=9&id_par=8"
"św. Jana Chrzciciela","","","Rogów Sobócki, ul. Wrocławska 87, 55-050 Sobótka","zobacz na mapie UMP","rogowsobocki@archidiecezja.wroc.pl","71/316-23-36","Ks. mgr Zbigniew DĄBROWSKI wicedziekan ","8.00, 9.30, 11.00","17.00, 18.00","","50.92179,16.75705","http://www.archidiecezja.wroc.pl/parafia.php?id_dek=26&id_par=4"
"Podwyższenia Krzyża Świętego","","","Rościsławice, ul. Wołowska 25, 55-120 Oborniki Śląskie","zobacz na mapie UMP","roscislawice@archidiecezja.wroc.pl","71/310-14-51, kom 725-66-20-30","vacat","8.00, 12.00, 10.00 (Radecz)","zima 17.00, lato 18.00 (cz, I-szy pt - Radecz)","","51.30062,16.83057","http://www.archidiecezja.wroc.pl/parafia.php?id_dek=4&id_par=6"
"Miłosierdzia Bożego","","","Rzeplin, ul. Akacjowa 6, 55-020 Żórawina","rzeplin.archidiecezja.wroc.pl","rzeplin@archidiecezja.wroc.pl","71/316-44-94","Ks. mgr Mieczysław MICHAJLUK ","8.00, 10.00 (Karwiany), 12.00","8.00 (pn), 18.00 (wt, cz, pt), 18.00 (śr, so - Karwiany)","","51.00301,17.01709","http://www.archidiecezja.wroc.pl/parafia.php?id_dek=47&id_par=14"
"św. Marcina","","","Siciny, nr 77, 56-215 Niechlów","zobacz na mapie UMP","siciny@archidiecezja.wroc.pl","65/543-51-92","Ks. mgr Tadeusz ŚLIWKA RM ","8.00, 9.30 (Naratów), 11.00","zima 17.00, lato 18.00","","51.72641,16.42655","http://www.archidiecezja.wroc.pl/parafia.php?id_dek=45&id_par=10"
"Niepokalanego Serca Najświętszej Maryi Panny","","","ul. Kościelna 4, 55-011 Siechnice","www.siechnice.archidiecezja.wroc.pl","siechnice.parafia@archidiecezja.wroc.pl","71/311-52-86","Ks. mgr lic. Stanisław STELMASZEK Kan. hon. ex. num. Kap. Koleg. ","7,30, 9.30, 11.00, 12.30 (dla dzieci), 18.00","7.00, 18.00","","51.03156,17.14822","http://www.archidiecezja.wroc.pl/parafia.php?id_dek=38&id_par=2"
"Najświętszej Maryi Panny Częstochowskiej","","","Siekierowice, nr 43, 56-410 Dobroszyce","zobacz na mapie UMP","siekierowice@archidiecezja.wroc.pl","71/315-54-07","Ks. mgr Marian RYBCZYŃSKI SDS ","9.00 (Łuczyna), 10.30 (Sadków), 12.00","18.00","","51.27259,17.27391","http://www.archidiecezja.wroc.pl/parafia.php?id_dek=21&id_par=8"
"Narodzenia Najświętszej Maryi Panny","","","Siemysłów, nr 20, 46-146 Domaszowice","zobacz na mapie UMP","siemyslow@archidiecezja.wroc.pl","77/419-44-22","Ks. mgr lic. Piotr BAŁTAROWICZ ","Siemysłów: 7.00, 11.00 (I niedz. 11.00, 18.00); Starościn: 9.00","Siemysłów: 17.30 (wt-pt), 18.30 (so); Starościn: 16.00 (pt), 17.00 (so)","","51.02093,17.82385","http://www.archidiecezja.wroc.pl/parafia.php?id_dek=33&id_par=3"
"św. Stanisława Biskupa i Męczennika","","","ul. Dębowa 3, 49-318 Skarbimierz","zobacz na mapie UMP","skarbimierz@archidiecezja.wroc.pl","77/411-38-77","Ks. mgr Stanisław GRZECHYNKA RM dziekan ","9.00, 11.30","18.00","","50.84824,17.42576","http://www.archidiecezja.wroc.pl/parafia.php?id_dek=2&id_par=10"
"Najświętszej Maryi Panny Częstochowskiej","","","Skokowa, ul. Kościelna 1, 55-110 Prusice","www.skokowa.archidiecezja.wroc.pl","skokowa@archidiecezja.wroc.pl","71/312-66-35","Ks. mgr Kazimierz CZUCZOŁA RM ","9.00, 10.30, 12.00","17.00 (zima), 18.00 (lato)","","51.38933,16.85488","http://www.archidiecezja.wroc.pl/parafia.php?id_dek=25&id_par=8"
"Podwyższenia Krzyża Świętego","","","Smarchowice Wielkie, ul. Brzegowa 43, 46-100 Namysłów","zobacz na mapie UMP","smarchowicewielkie@archidiecezja.wroc.pl","77/410-09-08","Ks. mgr Przemysław PALUCH ","8.00, 10.00, 12.00","zima 16.00, lato 18.00","","51.04466,17.68978","http://www.archidiecezja.wroc.pl/parafia.php?id_dek=18&id_par=8"
"św. Jana Chrzciciela","","","Smogorzów, ul. Główna 76, 46-100 Namysłów","zobacz na mapie UMP","smogorzow@archidiecezja.wroc.pl","77/419-16-91","Ks. mgr Tomasz BROSZKO ","7.30, 9.00 (Idzikowice), 10.15 (Idzikowice), 11.30","17.00 (zima), 18.00 (wiosna, jesień), 19.00 (lato)","","51.15268,17.75102","http://www.archidiecezja.wroc.pl/parafia.php?id_dek=33&id_par=4"
"św. Michała Archanioła","","","Smogorzów Wielki, nr 2, 56-160 Wińsko","www.smogorzow-wielki.pl","smogorzowwielki@archidiecezja.wroc.pl","71/389-83-50","Ks. mgr Józef WIĘCŁAWEK RM ","8.30, 10.30, 12.00","zima 17.00, lato 18.00","","51.43276,16.66083","http://www.archidiecezja.wroc.pl/parafia.php?id_dek=34&id_par=6"
"Narodzenia Najświętszej Maryi Panny","","","Smolec, ul. Kościelna 4, 55-080 Kąty Wrocławskie","smolec.archidiecezja.wroc.pl","smolec@archidiecezja.wroc.pl","71/316-84-46","vacat","8.00, 10.30, 12.30, 18.00","9.00 (wt, so), 18.00 (pn, śr, pt, so)","","51.07501,16.87959","http://www.archidiecezja.wroc.pl/parafia.php?id_dek=11&id_par=6"
"św. Jakuba Apostoła","","","ul. Św. Jakuba 10, 55-050 Sobótka","www.sobotka.archidiecezja.wroc.pl","sobotka@archidiecezja.wroc.pl","71/316-21-61","Ks. mgr Edward JUREK RM, Kap. hon. Ojca św. ","7.00, 9.00, 10.30 (Sanktuarium), 12.00, 18.00, 20.00 (Sanktuarium)","7.00 (pn-pt), 9.00 (so. Sanktuarium), 18.00, 18.00 (śr. Sanktuarium)","","50.89713,16.74503","http://www.archidiecezja.wroc.pl/parafia.php?id_dek=26&id_par=5"
"Najświętszego Serca Pana Jezusa","","","al. Jana Pawła II 7, 55-050 Sobótka","nspj.sobotka.archidiecezja.wroc.pl","nspj.sobotka@archidiecezja.wroc.pl","71/316-28-64","Ks. mgr Marek PIECZYKOLAN RM ","8.00, 9.30, 11.00, 16.00","17.00 (zima), 18.00 (lato)","","50.89332,16.70392","http://www.archidiecezja.wroc.pl/parafia.php?id_dek=26&id_par=6"
"św. Michała Archanioła","","","Solniki Wielkie, nr 25, 56-420 Bierutów","zobacz na mapie UMP","solnikiwielkie@archidiecezja.wroc.pl","71/314-89-93","Ks. dr Wojciech KOPEĆ RM ","8.30, 10.30, 12.00","17.00 (zima), 18.00 (lato)","","51.16027,17.48276","http://www.archidiecezja.wroc.pl/parafia.php?id_dek=20&id_par=7"
"Podwyższenia Krzyża Świętego","","","Sośnica, nr 11, 55-080 Kąty Wrocławskie","zobacz na mapie UMP","sosnica@archidiecezja.wroc.pl","71/390-58-98","Ks. prof. dr hab. Mieczysław KOGUT Kan. hon. Kap. Katedr. ","8.30 (Sadowice), 9.45 (Wojtkowice), 11.00, 12.00 (Strzeganowice)","17.00","","51.03294,16.78235","http://www.archidiecezja.wroc.pl/parafia.php?id_dek=11&id_par=7"
"Wniebowzięcia Najświętszej Maryi Panny","","","Starczówek, nr 27, 57-220 Ziębice","zobacz na mapie UMP","starczowek@archidiecezja.wroc.pl","74/819-17-23","Ks. mgr Andrzej Jan TOMASZEWSKI Kan. hon. ex. num. Kap. Koleg. ","9.00, 10.30, 12,00","18.00","","50.55111,17.05114","http://www.archidiecezja.wroc.pl/parafia.php?id_dek=44&id_par=7"
"św. Stanisława Biskupa i Męczennika","","","Stary Zamek, ul. Centralna 8, 55-050 Sobótka","zobacz na mapie UMP","staryzamek@archidiecezja.wroc.pl","71/316-27-89","Ks. mgr Jacek ŻOŁĄDEK Kan. hon. ex. num. Kap. Koleg., Kap. hon. Ojca św. ","8.00, 9.30, 10.30, 12.00","14.00, zima 16.00, lato 17.00","","50.93111,16.80277","http://www.archidiecezja.wroc.pl/parafia.php?id_dek=26&id_par=7"
"św. Mikołaja i Wniebowzięcia Najświętszej Maryi Panny","","","Stobno, nr 48, 56-100 Wołów","zobacz na mapie UMP","stobno@archidiecezja.wroc.pl","71/389-64-65","Ks. mgr Zbigniew BIELEWICZ Kan. hon. ex. num. Kap. Koleg. ","8.30, 10.00, 11.15, 12.30","7.30, 18.00","","51.28140,16.61512","http://www.archidiecezja.wroc.pl/parafia.php?id_dek=4&id_par=7"
"Wniebowzięcia Najświętszej Maryi Panny","","","Stobrawa, ul. Witosa 25, 46-090 Popielów","zobacz na mapie UMP","stobrawa@archidiecezja.wroc.pl","77/469-23-22","Ks. mgr lic. Piotr WIŚNIOWSKI ","8.00, 9.30, 10.45, 12.00","17.00 (zima), 18.00 (lato)","","50.85416,17.63086","http://www.archidiecezja.wroc.pl/parafia.php?id_dek=3&id_par=6"
"Niepokalanego Serca Najświętszej Maryi Panny","","","Strupina, Rynek 7, 55-110 Prusice","zobacz na mapie UMP","strupina@archidiecezja.wroc.pl","71/312-65-29","Ks. mgr Tadeusz KOSIOR RM dziekan ","8.00, 10.00, 12.00","17.00 (zima), 18.00 (lato)","","51.38831,16.81074","http://www.archidiecezja.wroc.pl/parafia.php?id_dek=25&id_par=9"
"Narodzenia Najświętszej Maryi Panny i św. Marcina","","","Strzelce, nr 41, 46-146 Domaszowice","zobacz na mapie UMP","strzelce@archidiecezja.wroc.pl","77/419-43-57","vacat","8.00, 10.00, 12.00","zima 17.00, lato 18.00","","51.06747,17.84951","http://www.archidiecezja.wroc.pl/parafia.php?id_dek=33&id_par=5"
"Matki Chrystusa i św. Jana Apostoła i Ewangelisty","","","ul. Staromiejska 23, 57-100 Strzelin","zobacz na mapie UMP","strzelin@archidiecezja.wroc.pl","71/392-07-75","Ks. mgr Stanisław FERTAŁA RM ","8.00, 10.30, 17.00 (zima), 18.00 (lato)","17.00 (zima), 18.00 (lato)","","50.77478,17.07286","http://www.archidiecezja.wroc.pl/parafia.php?id_dek=27&id_par=8"
"Podwyższenia Krzyża Świętego","","","ul. Św. Floriana 2, 57-100 Strzelin","krzyza.strzelin.archidiecezja.wroc.pl","krzyza.strzelin@archidiecezja.wroc.pl","71/392-08-78","Ks. mgr Andrzej PORĘBNY RM dziekan ","7.00, 8.00, 9.00, 10.30, 12.00, 16.00, 18.00, 20.00","7.00, 18.00","","50.77983,17.06988","http://www.archidiecezja.wroc.pl/parafia.php?id_dek=27&id_par=9"
"Podwyższenia Krzyża Świętego","","","Strzeszów, ul. Mienicka 10, 55-114 Wisznia Mała","www.strzeszow.pl","strzeszow@archidiecezja.wroc.pl","71/312-82-13,","Ks. mgr lic. Jan BERNAŚ RM ","8.00, 10.00 (Ozorowice), 12.00","8.00 (wt), 17.30 (cz - Ozorowice), 18.00 (pn, śr, pt, so; 19.00 - wakacje)","","51.24457,17.00932","http://www.archidiecezja.wroc.pl/parafia.php?id_dek=37&id_par=2"
"Najświętszego Serca Pana Jezusa","","","Sulistrowice, ul. Jagiellońska 1 A, 55-050 Sobótka","sulistrowice.archidiecezja.wroc.pl","sulistrowice@archidiecezja.wroc.pl","71/316-31-63","Ks. dr Ryszard STASZAK Kan. hon. ex. num. Kap. Koleg., Kap. hon. Ojca św. ","9.00 (Strzegomiany), 10.30, 12.00 (Sulistrowiczki), 14.00 (lato, Góra Ślęża), 19.00 (Sulistrowiczki), 22.00 (św. Jana Chrzciciela, św. Sylwestra)","Sulistrowice: 17.00 (zima), 18.00 (lato); Sulistrowiczki: 19.00 (so)","","50.85180,16.75638","http://www.archidiecezja.wroc.pl/parafia.php?id_dek=26&id_par=8"
"Świętych Apostołów Piotra i Pawła","","","Sułów, ul. Kościelna 6, 56-300 Milicz","zobacz na mapie UMP","sulow@archidiecezja.wroc.pl","71/384-71-27","Ks. mgr Józef KAWALEC SDB ","7.00, 8.00, 9.00, 10.00, 11.30, 12.00, zima 17.00, lato 18.00","7.00, zima 17.00, lato 18.00","","51.50322,17.16807","http://www.archidiecezja.wroc.pl/parafia.php?id_dek=17&id_par=6"
"Świętych Apostołów Piotra i Pawła","","","Sułów Wielki, nr 8, 56-210 Wąsosz","zobacz na mapie UMP","sulowwielki@archidiecezja.wroc.pl","508-254-478","vacat","8.00, 9.30 (Giżyn), 11.00","17.30 (lato), 16.30 (zima)","","51.64418,16.67975","http://www.archidiecezja.wroc.pl/parafia.php?id_dek=8&id_par=11"
"św. Szczepana","","","Szczepanów, ul. Długa 28, 55-300 Środa Śląska","zobacz na mapie UMP","szczepanow@archidiecezja.wroc.pl","71/317-31-86","Ks. mgr Janusz GAJEWSKI RM wicedziekan ","8.30, 10.00 Brodno, 11.30","zima 17.00, lato 18.00","","51.19492,16.61498","http://www.archidiecezja.wroc.pl/parafia.php?id_dek=28&id_par=7"
"św. Anny","","","Szewce, ul. Strzeszowska 46, 55-114 Wisznia Mała","zobacz na mapie UMP","szewce@archidiecezja.wroc.pl","71/310-71-89","Ks. mgr lic. Mariusz BĄKOWSKI ","8.00, 9.30 (Paniowice), 11.00","17.00","","51.22178,16.97733","http://www.archidiecezja.wroc.pl/parafia.php?id_dek=37&id_par=1"
"św. Bartłomieja Apostoła","","","nr 120, 49-312 Szydłowice","www.szydlowice.archidiecezja.wroc.pl","szydlowice@archidiecezja.wroc.pl","77/412-69-84","Ks. dr Piotr JANUSZ wicedziekan ","9.00 (Błota), 10.15 (Dobrzyń), 11.30","17.00, so 18.00","","50.91321,17.46868","http://www.archidiecezja.wroc.pl/parafia.php?id_dek=3&id_par=7"
"Narodzenia Najświętszej Maryi Panny","","","Szymonków, ul. Wołczyńska 2, 46-250 Wołczyn","zobacz na mapie UMP","szymonkow@archidiecezja.wroc.pl","77/414-15-94","Ks. mgr Tomasz PŁUKARSKI ","8.30, 10.00, 11.30","17.00 (okresowo), 18.00","","51.09396,17.97778","http://www.archidiecezja.wroc.pl/parafia.php?id_dek=33&id_par=6"
"św. Andrzeja Apostoła","","","ul. Kolejowa 2, 55-300 Środa Śląska","www.swietyandrzej-srodaslaska.pl","wpindel@salezjanie.pl","71/317-34-97","Ks. mgr Wiesław PINDEL SDB ","7.00, 9.00, 9.30 (Ogrodnica), 10.00 (Jastrzębce), 10.30, 11.00 (pw. Narodzenia NMP), 12.00, 18.00","7.00, 18.00, 19.00 (I-pt. dla młodzieży)","","51.16451,16.59261","http://www.archidiecezja.wroc.pl/parafia.php?id_dek=28&id_par=8"
"Podwyższenia Krzyża Świętego","","","ul. T. Kościuszki 51, 55-300 Środa Śląska","srodaslaska.archidiecezja.wroc.pl","sroda.slaska@archidiecezja.wroc.pl","71/317-27-55","Ks. mgr Jan WALÓW Kan. hon. ex. num. Kap. Koleg. ","7.00, 9.00, 10.30, 12.00, 18.30","7.00, 18.30","","51.16264,16.59599","http://www.archidiecezja.wroc.pl/parafia.php?id_dek=28&id_par=9"
"św. Jadwigi","","","Świdnica Polska, nr 22, 55-311 Kostomłoty","zobacz na mapie UMP","swidnicapolska@archidiecezja.wroc.pl","71/317-13-76","Ks. mgr Piotr KIJEK ","9.00, 10.30, 12.00","17.00 (zima), 18.00 (lato)","","51.07449,16.67688","http://www.archidiecezja.wroc.pl/parafia.php?id_dek=11&id_par=8"
"Najświętszego Serca Pana Jezusa","","","ul. Opolska 14, 46-112 Świerczów","zobacz na mapie UMP","swierczow@archidiecezja.wroc.pl","77/419-61-32","Ks. mgr Krzysztof SZCZECIŃSKI RM dziekan ","7.30, 9.00 Dąbrowa, 10.30 Miejsce, 12.00","lato czw. 17.00 Miejsce, pt. 19.00, wt., śr., czw. lub pt., so. 18.00 Dąbrowa, zima czw. 16.00 Miejsce, pt. 18.00, wt., śr., czw. lub pt., so. 17.00 Dąbrowa","","50.96036,17.76013","http://www.archidiecezja.wroc.pl/parafia.php?id_dek=18&id_par=9"
"św. Katarzyny Aleksandryjskiej","","","ul. H. Sienkiewicza 21, 55-010 Święta Katarzyna","zobacz na mapie UMP","swietakatarzyna@archidiecezja.wroc.pl","71/311-62-37","Ks. dr Bogdan KANIA ","8.00, 10.00 (Sulimów), 12.00, 18.00","18.00","","51.02625,17.11606","http://www.archidiecezja.wroc.pl/parafia.php?id_dek=38&id_par=3"
"św. Marcina","","","Święte, nr 61, 55-300 Środa Śląska","zobacz na mapie UMP","swiete@archidiecezja.wroc.pl","71/317-15-24, 662-009-738","Ks. mgr Krzysztof BIGOŃ EC ","7.30, 9.00 (Juszczyn) 10.30 (Źródła), 12.00","zima: 16.00, 17.00; lato: 17.00, 18.00","","51.18187,16.65953","http://www.archidiecezja.wroc.pl/parafia.php?id_dek=16&id_par=4"
"Świętych Apostołów Piotra i Pawła","","","pl. P. Włostowica 2, 55-100 Trzebnica","www.trzebnica.archidiecezja.wroc.pl","trzebnica@archidiecezja.wroc.pl","71/387-26-08","Ks. mgr lic. Bogdan GRABOWSKI Kan. hon. ex. num. Kap. Koleg. wicedziekan ","8.00, 9.30, 11.00 (Rzepotowice), 12.30, 17.00","7.00, 18.00","","51.30633,17.05881","http://www.archidiecezja.wroc.pl/parafia.php?id_dek=31&id_par=9"
"św. Bartłomieja Apostoła i św. Jadwigi","","","ul. Jana Pawła II 3, 55-100 Trzebnica","www.trzebnica.sds.pl","swjadwigi.trzebnica@archidiecezja.wroc.pl","71/312-14-15, 71/312-11-18","Ks. mgr lic. Jerzy OLSZÓWKA SDS dziekan ","6.30, 8.00, 9.30, 11.00, 12.30, 18.30, 20.00","6.30, 7.15, 12.00, 18.30","","51.30952,17.06622","http://www.archidiecezja.wroc.pl/parafia.php?id_dek=31&id_par=8"
"Narodzenia Najświętszej Maryi Panny","","","Turów, ul. Parafialna 2, 55-020 Żórawina","zobacz na mapie UMP","turow@archidiecezja.wroc.pl","71/316-51-68","Ks. mgr lic. Henryk RÓJ RM wicedziekan ","8.30, 10.00, 11.30","9.00 (so), 17.00 (pn-pt)","","50.99478,17.06786","http://www.archidiecezja.wroc.pl/parafia.php?id_dek=38&id_par=4"
"Wniebowzięcia Najświętszej Maryi Panny","","","ul. Kościelna 5, 55-041 Tyniec Mały","zobacz na mapie UMP","tyniecmaly@archidiecezja.wroc.pl","71/311-80-76","Ks. mgr lic. Ireneusz ALCZYK RM dziekan ","8.15, 10.00, 12.00","9.00 (so), 18.00","","51.01851,16.92042","http://www.archidiecezja.wroc.pl/parafia.php?id_dek=47&id_par=2"
"św. Michała Archanioła","","","Tyniec n. Ślęzą, ul. Szkolna 8, 55-040 Kobierzyce","zobacz na mapie UMP","tyniec@archidiecezja.wroc.pl","71/390-83-54","Ks. mgr Augustyn SZCZEPANIK EC ","8.00, 9.30 (Pustków Wilczkowski), 11.00","17.00 (zima), 18.00 (lato)","","50.88636,16.93071","http://www.archidiecezja.wroc.pl/parafia.php?id_dek=1&id_par=6"
"św. Michała Archanioła","","","Uraz, pl. Wolności 6, 55-120 Oborniki Śląskie","zobacz na mapie UMP","uraz@archidiecezja.wroc.pl","71/310-81-23","Ks. mgr Adam SOBÓTKA RM dziekan ","8.00, 10.00, 12.00","17.30","","51.24442,16.85281","http://www.archidiecezja.wroc.pl/parafia.php?id_dek=4&id_par=8"
"Nawiedzenia Najświętszej Maryi Panny","","","Wabienice, nr 94, 56-420 Bierutów","zobacz na mapie UMP","parafia-wabienice@o2.pl","71/398-92-30","Ks. mgr Robert BAJAK RM ","8.30, 10.00, 11.30, 13.00","zima 16.00, lato 18.00","","51.18172,17.58851","http://www.archidiecezja.wroc.pl/parafia.php?id_dek=20&id_par=8"
"św. Wawrzyńca","","","Wawrzeńczyce, ul. Kątecka 45, 55-081 Mietków","zobacz na mapie UMP","wawrzenczyce@archidiecezja.wroc.pl","71/316-90-60","Ks. Jan LEWICKI RM ","8.00, 9.30, 11.00, 12.30","zima 17.00, lato 18.00","","50.99395,16.64852","http://www.archidiecezja.wroc.pl/parafia.php?id_dek=11&id_par=9"
"św. Józefa Oblubieńca NMP","","","ul. Parafialna 8, 56-210 Wąsosz","wasosz.archidiecezja.wroc.pl","wasosz@archidiecezja.wroc.pl","65/543-79-64, 65/543-79-60","Ks. mgr lic. Jan WĘGIELSKI Kan. hon. ex. num. Kap. Koleg. wicedziekan ","7.00, 8.00, 9.00, 10.00, 11.15, 12.30","17.30, 18.00","","51.56240,16.69269","http://www.archidiecezja.wroc.pl/parafia.php?id_dek=8&id_par=12"
"św. Jadwigi","","","Węgry, ul. Kościelna 2, 55-020 Żórawina","zobacz na mapie UMP","wegry@archidiecezja.wroc.pl","71/311-46-63","Ks. mgr Adam ANDREJCZUK ","8.00, 10.00 (Stary Śleszów), 12.00","17.00 (X-III), 18.00","","50.92880,17.04006","http://www.archidiecezja.wroc.pl/parafia.php?id_dek=1&id_par=7"
"św. Mikołaja","","","ul. Ks. J. Kucego 2-4, 57-120 Wiązów","zobacz na mapie UMP","swmikolaja.wiazow@archidiecezja.wroc.pl","71/393-10-59, wikariat 71/393-14-29","Ks. mgr Dariusz PIKULSKI RM ","7.00, 9.00 (Księżyce, Wyszonowice), 10.00 (Stary Wiązów), 11.00 (Gułów), 12.00, 18.00","7.00 (z wyj. so.), 16.00 (so. - Dom Opieki Społecznej), 17.00 (pn. - Zborowice, wt. - Gułów, śr. - Stary Wiązów, cz. - Księżyce, pt. - Wyszonowice, so. - Miechowice Oławskie), 18.00","","50.81358,17.19817","http://www.archidiecezja.wroc.pl/parafia.php?id_dek=32&id_par=6"
"św. Jacka","","","nr 31/1, 46-255 Wierzbica Górna","zobacz na mapie UMP","wierzbica@archidiecezja.wroc.pl","535-038-386","Ks. mgr Piotr SEMENIUK ","8.00, 9.30 (Wierzbica Dolna), 11.00","16.00 (Wierzbica Dolna), 18.00","","51.03205,17.98131","http://www.archidiecezja.wroc.pl/parafia.php?id_dek=33&id_par=9"
"Bożego Ciała i Najświętszej Maryi Panny Częstochowskiej","","","Wierzbice, pl. Bożego Ciała 1, 55-040 Kobierzyce","zobacz na mapie UMP","wierzbice@archidiecezja.wroc.pl","71/390-80-33","Ks. dr Andrzej J. ĆWIK Kan. hon. Kap. Koleg., Kap. hon. Ojca św. ","8.00, 9.30, 11.30","8.00 (pn), 17.00 (wt-so)","","50.95476,16.89287","http://www.archidiecezja.wroc.pl/parafia.php?id_dek=26&id_par=9"
"św. Mikołaja","","","nr 81, 55-217 Wierzbno","zobacz na mapie UMP","wierzbno@archidiecezja.wroc.pl","71/313-12-16","Ks. mgr lic. Jan BASZAK ","8.00, 9.30 (Swojków), 11.00, 12.30 (Janków)","17.00 (zima), 18.00 (lato)","","50.93477,17.17957","http://www.archidiecezja.wroc.pl/parafia.php?id_dek=22&id_par=10"
"Narodzenia Najświętszej Maryi Panny","","","Wierzchowice, ul. Kościelna 21, 56-320 Krośnice","zobacz na mapie UMP","wierzchowice@archidiecezja.wroc.pl","71/384-62-80","Ks. mgr Mariusz KOPRAS RM wicedziekan ","8.00, 10.00 (kaplica), 11.30","zima 17.00, lato 18.00","","51.48245,17.33100","http://www.archidiecezja.wroc.pl/parafia.php?id_dek=17&id_par=7"
"św. Bartłomieja","","","Wigańcice, nr 89, 57-220 Ziębice","zobacz na mapie UMP","wigancice@archidiecezja.wroc.pl","74/819-16-01","Ks. mgr Roman SIEWIERA ","8.30, 11.00","8.00 lub 18.00","","50.62254,17.13303","http://www.archidiecezja.wroc.pl/parafia.php?id_dek=44&id_par=8"
"Najświętszej Maryi Panny Różańcowej","","","Wilczków, ul. Mleczarska 2, 55-320 Malczyce","zobacz na mapie UMP","wilczkow@archidiecezja.wroc.pl","71/317-91-32","Ks. mgr Jarosław WITOSZYŃSKI RM dziekan ","8.45, 10.00, 11.00, 12.15","zima 17.00, lato 18.00","","51.18717,16.49703","http://www.archidiecezja.wroc.pl/parafia.php?id_dek=28&id_par=12"
"św. Mikołaja","","","ul. Długa 51, 46-113 Wilków","zobacz na mapie UMP","wilkow@archidiecezja.wroc.pl","77/419-99-01","Ks. mgr Jan JABŁECKI RM ","7.30, 9.00 (Wilków), 10.30 (Wojciechów), 12.00","17.00 (zima), 18.00 (lato)","","51.10144,17.66301","http://www.archidiecezja.wroc.pl/parafia.php?id_dek=18&id_par=10"
"św. Wawrzyńca","","","Wilkszyn, ul. Szkolna 1, 55-330 Miękinia","www.parafiawilkszyn.pl","parafia_wilkszyn@wp.pl","71/317-11-12","Ks. mgr Zbigniew BORTNIK RM ","8.30, 10.00 (Brzezina), 11.30","8.00, 17.00 (zima), 18.00 (lato), 17.00 (Brzezina, czw.)","","51.19112,16.86527","http://www.archidiecezja.wroc.pl/parafia.php?id_dek=16&id_par=5"
"św. Michała Archanioła","","","ul. Kościelna 4, 56-160 Wińsko","zobacz na mapie UMP","winsko@archidiecezja.wroc.pl","71/389-80-81","Ks. mgr Czesław KROCHMAL RM ","8.00, 10.00, 12.00","zima 17.00, lato 18.00","","51.46965,16.61378","http://www.archidiecezja.wroc.pl/parafia.php?id_dek=34&id_par=7"
"Najświętszej Maryi Panny Częstochowskiej","","","Witowice, nr 40, 57-120 Wiązów","zobacz na mapie UMP","witowice@archidiecezja.wroc.pl","71/393-14-57","Ks. mgr Jerzy Andrzej KLICHTA RM ","8.00, 9.30 (Goszczyna), 11.00","17.00 (zima), 18.00 (lato); Goszczyna: 16.00 (zima), 17.00 (lato)","","50.84311,17.21001","http://www.archidiecezja.wroc.pl/parafia.php?id_dek=32&id_par=7"
"Wniebowzięcia Najświętszej Maryi Panny","","","Włochy, nr 124, 46-146 Domaszowice","wlochy.archidiecezja.wroc.pl","wlochy@archidiecezja.wroc.pl","77/410-82-61","Ks. mgr Tadeusz STRUGAŁA RM ","8.00, 9.30 (Domaszowice), 11.00, 18.00 (so - Domaszowice)","17.00 (Domaszowice, zima), 18.00, 19.00 (Domaszowice, lato)","","51.05521,17.92618","http://www.archidiecezja.wroc.pl/parafia.php?id_dek=33&id_par=7"
"św. Karola Boromeusza","","","ul. Kołłątaja 2, 56-100 Wołów","www.boromeuszwolow.pl","boromeusz.wolow@archidiecezja.wroc.pl","71/389-27-63","Ks. mgr Krzysztof KANTON ","7.00, 8.30, 9.00 (Sławowice), 10.00, 10.15 (Garwoł), 11.30 (Stary Wołów), 19.00","6.30, 7.00, 18.30","","51.33724,16.64748","http://www.archidiecezja.wroc.pl/parafia.php?id_dek=34&id_par=8"
"św. Wawrzyńca","","","ul. Ks. Franciszka Bosaka 21, 56-100 Wołów","www.parafiawawrzyniec.pl","swwawrzynca.wolow@archidiecezja.wroc.pl","71/389-33-88","Ks. mgr Stanisław MAŁYSA RM wicedziekan ","7.30, 9.00, 10.15 (Rudno), 10.30, 11.30 (Lipnica), 12.00, 17.00","7.00, 16.00 (I-sze pt. miesiąca, filie), 18.00","","51.33544,16.64631","http://www.archidiecezja.wroc.pl/parafia.php?id_dek=34&id_par=9"
"św. Wawrzyńca","","","Woskowice Małe, ul. Kościelna 2, 46-100 Namysłów","zobacz na mapie UMP","woskowicemale@archidiecezja.wroc.pl","77/419-65-50","vacat","8.45, 10.00, 11.15","16.00, 17.00 (lato 18.00), 19.00","","51.10196,17.86452","http://www.archidiecezja.wroc.pl/parafia.php?id_dek=33&id_par=8"
"Narodzenia Najświętszej Maryi Panny","","","Wójcice, ul. Główna 30 C, 55-220 Jelcz-Laskowice","www.wojcice.archidiecezja.wroc.pl","wojcice@archidiecezja.wroc.pl","71/318-61-61","Ks. mgr lic. Paweł STYPA ","8.30, 10.00, 11.30","17.00 (zima), 18.00 (lato)","","50.98161,17.47746","http://www.archidiecezja.wroc.pl/parafia.php?id_dek=9&id_par=9"
"św. Wawrzyńca","","","Wrocisławice, nr 11, 55-300 Środa Śląska","wrocislawice.archidiecezja.wroc.pl","wrocislawice@archidiecezja.wroc.pl","71/317-14-88","Ks. mgr Janusz GŁĄBA RM ","9.00, 10.30, 12.00","zima 16.00, 17.00, lato 17.00, 18.00","","51.12917,16.49275","http://www.archidiecezja.wroc.pl/parafia.php?id_dek=28&id_par=13"
"św. Macieja","","","pl. Nankiera 17a, 50-140 Wrocław","www.maciejowka.org","maciejowka@archidiecezja.wroc.pl","71/344-94-28","","19.00","19.00 (pn-pt)","","51.11301,17.03632","http://www.archidiecezja.wroc.pl/parafia.php?id_dek=41&id_par=13"
"św. Jana Chrzciciela","","","pl. Katedralny 18, 50-329 Wrocław","www.katedra.archidiecezja.wroc.pl","katedra@archidiecezja.wroc.pl","71/322-25-74","Ks. mgr lic. Paweł CEMBROWICZ Kan. hon. Kap. Katedr. dziekan ","7.00, 8.30, 10.00, 11.30, 13.00, 16.30, 18.30","6.30, 7.00, 8.00, 9.00, 18.30","","51.11419,17.04625","http://www.archidiecezja.wroc.pl/parafia.php?id_dek=41&id_par=1"
"Bożego Ciała","","","ul. Bożego Ciała 1, 50-051 Wrocław","www.bozecialo.wroclaw.pl","bozegociala@archidiecezja.wroc.pl","71/343-67-39","Ks. mgr Marek BIAŁY Kan. hon. ex. num. Kap. Koleg. ","7.30, 9.00, 10.30, 12.00, 13.15, 19.00, 21.30","6.30, 9.00, 19.00","","51.10520,17.03143","http://www.archidiecezja.wroc.pl/parafia.php?id_dek=42&id_par=2"
"św. Mikołaja","","","ul. Św. Antoniego 30, 50-073 Wrocław","www.wroclaw.paulini.pl","paulini.wroclaw@gmail.com","71/792-52-70..71","O. Mirosław BIJATA OSPPE ","7.30, 9.00, 10.30, 12.00, 18.00","7.00, 15.00 (pt.), 18.00","","51.10928,17.02422","http://www.archidiecezja.wroc.pl/parafia.php?id_dek=42&id_par=9"
"św. Józefa Rzemieślnika","","","ul. Krakowska 44/46, 50-425 Wrocław","www.misjonarze-wroclaw.pl","swjozefa@archidiecezja.wroc.pl","71/342-69-70","Ks. Stanisław BASIUK CM ","7.30, 9.30, 11.00, 12.30, 18.00","8.30, 18.00","","51.09406,17.06004","http://www.archidiecezja.wroc.pl/parafia.php?id_dek=38&id_par=6"
"św. Bonifacego","","","pl. Staszica 4, 50-221 Wrocław","zobacz na mapie UMP","bonifacy@archidiecezja.wroc.pl","71/328-95-17","Ks. dr Wojciech TOKARZ Kan. grem. Kap. Katedr., Kap. hon. Ojca św. ","6.00 (z wyj. VII-VIII), 7.00, 8.00, 9.00, 10.30, 10.30 (Klinika), 12.00, 13.30, 18.30","7.00, 8.00, 18.30","","51.12308,17.02881","http://www.archidiecezja.wroc.pl/parafia.php?id_dek=41&id_par=2"
"św. Elżbiety","","","ul. św. Elżbiety 1, 50-111 Wrocław","www.kosciolgarnizon.wroclaw.pl","parafia@kosciolgarnizon.wroclaw.pl","71/343-16-38","Ks. płk. Janusz RADZIK ","8.00, 10.00, 12.00 (suma), 18.00","7.00, 18.00","","51.11147,17.03025","http://www.archidiecezja.wroc.pl/parafia.php?id_dek=41&id_par=3"
"Świętego Krzyża","","","pl. Kościelny, 50-329 Wrocław","zobacz na mapie UMP","swietegokrzyza@archidiecezja.wroc.pl","71/322-25-74","vacat - obsługuje parafia katedralna","9.30 - młodzież (z wyj. ferii i wakacji), 11.00 - dzieci","","","51.11505,17.04389","http://www.archidiecezja.wroc.pl/parafia.php?id_dek=41&id_par=4"
"św. Rocha","","","ul. Bolesławiecka 15, 53-614 Wrocław","<img src=/images/normal/p_poczta.png style=display: block; margin-left: auto; margin-right: auto; /></a></p> <div class=cleared></div> </div> </div> <div class=cleared></div> </div> </div> <div class=art-block> <div class=art-block-tl></div> <div class=art-block-tr></div> <div class=art-block-bl></div> <div class=art-block-br></div> <div class=art-block-tc></div> <div class=art-block-bc></div> <div class=art-block-cl></div> <div class=art-block-cr></div> <div class=art-block-cc></div> <div class=art-block-body> <div class=art-blockcontent> <div class=art-blockcontent-body> <p><a href=http://www.wroclaw.caritas.pl target=blank><img src=/images/logo-caritas.png style=display: block; margin-left: auto; margin-right: auto; /></a></p> <div class=cleared></div> </div> </div> <div class=cleared></div> </div> </div> <div class=cleared></div> </div> <div class=art-layout-cell prawy_pasek></div> </div> </div> <div class=cleared></div> <div class=art-footer> <img src=/templates/diecezja/images/footer_wide.jpg usemap=#dol border=0> <!-- <div class=art-footer-t></div>--> <div class=art-footer-body> <div class=cleared></div> </div> </div> <div class=cleared></div> </div> </div> <div class=cleared></div> </div> <script src=http://www.google-analytics.com/urchin.js type=text/javascript></script><script type=text/javascript>_uacct = UA-2955024-1;urchinTracker();</script> <map name=dol> <area shape=rect coords= 60, 50, 230, 115 href=http://www.radiorodzina.pl target=blank> <area shape=rect coords=230, 50, 400, 115 href=http://www.nowezycie.archidiecezja.wroc.pl target=blank> <area shape=rect coords=400, 50, 590, 115 href=http://www.niedziela.pl/rocznik.php?r=ed&ed=edwr&cz=doczytania target=blank> <area shape=rect coords=590, 50, 680, 115 href=http://www.goscniedzielny.pl target=blank> <area shape=rect coords=680, 50, 950, 115 href=http://www.pwt.wroc.pl target=blank> </map> </body> </html>","swrocha@archidiecezja.wroc.pl","71/343-44-25; 71/792-52-70..71","vacat","dni powszednie:","","","","http://www.archidiecezja.wroc.pl/parafia.php?id_dek=42&id_par=10"
"Najświętszego Imienia Jezus","","","pl. Nankiera 16a, 50-140 Wrocław","uniwersytecki.archidiecezja.wroc.pl","uniwersytecki@archidiecezja.wroc.pl","71/344-94-23","Ks. mgr lic. Arkadiusz KRZIŻOK ","7.30, 9.30, 11.00, 12.30, 16.00 (IX-VI), 18.00","7.30, 16.00 (IX-VI), 18.00","","51.11419,17.03510","http://www.archidiecezja.wroc.pl/parafia.php?id_dek=41&id_par=5"
"Chrystusa Króla","","","ul. Młodych Techników 17, 53-647 Wrocław","www.chkrol-wroc.salezjanie.pl","chrystusakrola@archidiecezja.wroc.pl","71/355-52-37, tel./fax 71/355-50-88","Ks. mgr lic. Andrzej GODYŃ SDB ","7.00, 8.30, 10.00, 11.30, 12.00 (Przedszkolaki), 13.00, 18.00, 20.00","6.30, 8.00, 9.40 (pt - Liceum Salezjańskie), 12.00, 18.00","","51.11559,17.01342","http://www.archidiecezja.wroc.pl/parafia.php?id_dek=42&id_par=3"
"św. Michała Archanioła","","","ul. Bolesława Prusa 78, 50-318 Wrocław","www.wroclawm.salezjanie.pl","swmichala@archidiecezja.wroc.pl","71/321-11-47, 71/372-08-84","Ks. mgr Bolesław KAŹMIERCZAK SDB ","7.00, 8.00, 9.30, 11.00, 12.30, 17.00, 19.15","7.00, 8.00, 18.00","","51.12091,17.05108","http://www.archidiecezja.wroc.pl/parafia.php?id_dek=41&id_par=8"
"Najświętszej Maryi Panny na Piasku","","","ul. Katedralna 12, 50-328 Wrocław","zobacz na mapie UMP","nmpnapiasku@archidiecezja.wroc.pl","71/327-11-59","Ks. mgr Stanisław PAWLACZEK Kap. hon. Ojca św. ","7.30, 10.30, 12.30;","7.00, 18.30;","","51.11477,17.04100","http://www.archidiecezja.wroc.pl/parafia.php?id_dek=41&id_par=9"
"Najświętszego Serca Jezusowego","","","pl. Grunwaldzki 3, 50-377 Wrocław","www.nsjwroclaw.salezjanie.pl","nspj@archidiecezja.wroc.pl","71/335-86-51 (proboszcz), 71/335-86-50 (kancelaria)","Ks. mgr Ryszard SROKA SDB ","7.30, 9.30, 11.00, 12.30, 18.00, 19.30 (X-VI)","6.30, 8.00, 18.00, 19.00 (pn-pt), 19.30 (wt - X-VI)","","51.10943,17.05587","http://www.archidiecezja.wroc.pl/parafia.php?id_dek=41&id_par=10"
"św. Stanisława, św. Doroty i św. Wacława","","","pl. Wolności 3, 50-071 Wrocław","zobacz na mapie UMP","swstanislawa@archidiecezja.wroc.pl","71/343-27-21, fax 71/783-33-74","Ks. mgr lic., mgr inż. PWr Andrzej BRODAWKA Kan. hon. ex. num. Kap. Koleg. wicedziekan ","7.00, 8.00, 9.30, 11.00, 12.30, 18.30","7.00, 8.00, 18.30","","51.10645,17.03113","http://www.archidiecezja.wroc.pl/parafia.php?id_dek=42&id_par=11"
"św. Wawrzyńca","","","ul. O. Bujwida 51, 50-345 Wrocław","zobacz na mapie UMP","swwawrzynca@archidiecezja.wroc.pl","71/328-06-61","O. Jan OPALA CMF wicedziekan ","7.00, 9.00, 9.30 (k. dolny), 10.00, 11.00 (dzieci), 12.00 (suma), 12.00 (k. dolny), 13.00 (Akcja Katolicka), 16.00 (II-ga niedz., j. hiszp.), 18.00 (studenci), 20.00 (k. dolny)","6.30, 9.00, 18.00, 18.00 (k. dolny: po, wt, śr), 20.00 (k. dolny: pn, wt, śr, pt)","","51.11844,17.06851","http://www.archidiecezja.wroc.pl/parafia.php?id_dek=41&id_par=12"
"św. Stanisława Kostki","","","ul. Hubska 91, 50-534 Wrocław","www.skostki.manifo.com","skostki@archidiecezja.wroc.pl","71/367-43-82","Ks. mgr lic. Jerzy MAŁEK RM dziekan ","7.00, 8.30, 10.00, 11.15, 12.30, 18.00","6.30, 17.30, 18.30","","51.08956,17.04364","http://www.archidiecezja.wroc.pl/parafia.php?id_dek=35&id_par=9"
"św. Maurycego","","","ul. Traugutta 34, 50-402 Wrocław","www.maurycy.parafia.info.pl","swmaurycego@archidiecezja.wroc.pl","71/789-93-96","Ks. mgr lic. Jan SUCHECKI Prałat hon. Ojca św., Kan. grem. Kap. Katedr. dziekan ","7.00, 9.00, 10.30 (dzieci), 12.00, 13.00, 19.00 (młodzież)","6.30, 7.00, 8.00, 18.30","","51.10640,17.04698","http://www.archidiecezja.wroc.pl/parafia.php?id_dek=42&id_par=8"
"Ducha Świętego","","","ul. Bardzka 2/4, 50-517 Wrocław","duchsw.archidiecezja.wroc.pl","duchaswietego@archidiecezja.wroc.pl","71/782-61-71","Ks. mgr historii sztuki KUL Czesław Jan MAZUR Prepozyt Kap. Koleg. ","7.30, 9.30, 11.00, 13.00, 14.00 (oprócz wakacji), 15.00 (cmentarz - od Wielkanocy do końca listopada), 18.00, 20.00","7.00, 7.30, 18.00","","51.08452,17.05005","http://www.archidiecezja.wroc.pl/parafia.php?id_dek=35&id_par=4"
"św. Klemensa Dworzaka","","","al. Pracy 26, 53-232 Wrocław","dworzak.jezuici.pl","parafia.dworzak@gmail.com","71/360-10-18","Ks. Jacek MACIASZEK SJ ","6.30, 7.30, 9.00, 10.30, 10.30 (k. dolny, dla dzieci), 12.00, 18.00, 20.00","6.30, 8.00, 18.00, 19.30","","51.09269,16.98709","http://www.archidiecezja.wroc.pl/parafia.php?id_dek=42&id_par=7"
"św. Henryka","","","ul. Gliniana 16, 50-525 Wrocław","www.swhenryk.archidiecezja.wroc.pl","parafia.henryk@gmail.com","71/367-83-70","Ks. mgr Krzysztof MAK RM ","7.00, 9.00, 11.00, 12.30, 18.30, 20.00","6.30, 7.00, 18.30","","51.09452,17.03452","http://www.archidiecezja.wroc.pl/parafia.php?id_dek=35&id_par=6"
"św. Ignacego Loyoli","","","ul. W. Stysia 16, 53-526 Wrocław","www.loyola.pl","parafia@loyola.pl","71/334-23-10","Ks. Paweł PASIERBEK SJ ","7.00, 8.30, 10.00, 11.30, 12.30, 18.00, 19.30","6.30, 7.00, 8.00, 18.00, 20.00 (śr. IX-VI)","","51.10046,17.02085","http://www.archidiecezja.wroc.pl/parafia.php?id_dek=42&id_par=5"
"św. Elżbiety","","","ul. Grabiszyńska 103, 53-439 Wrocław","swelzbiety.archidiecezja.wroc.pl","swelzbiety@archidiecezja.wroc.pl","71/783-37-94","vacat","7.00, 8.00, 9.00, 10.00, 11.15, 12.30, 14.00, 18.30, 20.00","6.30, 7.30, 17.00","","51.10132,17.00703","http://www.archidiecezja.wroc.pl/parafia.php?id_dek=42&id_par=4"
"św. Franciszka z Asyżu","","","ul. Borowska 174, 50-554 Wrocław","franciszek.archidiecezja.wroc.pl","franciszek@archidiecezja.wroc.pl","71/363-88-19","Ks. mgr lic. Kazimierz SROKA RM, Kap. hon. Ojca św. ","7.00, 8.30, 10.00, 11.30, 13.00, 15.00 (kaplica szpitalna), 18.30, 20.30","6.30, 18.30","","51.07932,17.03497","http://www.archidiecezja.wroc.pl/parafia.php?id_dek=35&id_par=5"
"św. Karola Boromeusza","","","ul. Krucza 58, 53-411 Wrocław","www.boromeusz.franciszkanie.pl","boromeusz@franciszkanie.pl","71/361-52-65","O. dr Marek AUGUSTYN OFMConv. ","7.00, 8.30, 10.00, 11.30, 13.00 (z wyj. VII-VIII, kaplica Porcjunkula), 16.00 (4.00 p.m. Mass in English, IX-V), 17.00 (IX-V), 18.00 (6.00 p.m. Mass in English, VI-VIII), 19.00","6.30 (z wyj. VII-VIII), 7.00, 8.00, 12.00, 18.00","","51.09417,17.01025","http://www.archidiecezja.wroc.pl/parafia.php?id_dek=42&id_par=6"
"św. Faustyny","","","Wrocław-Biskupin, ul. Jackowskiego 40, 51-665 Wrocław","www.faustyna.archidiecezja.wroc.pl","faustyna@archidiecezja.wroc.pl","71/348-27-33","Ks. mgr Marek DUTKOWSKI Kan. grem. Kap. Koleg. dziekan ","7.00, 8.30, 10.00, 11.00 (dla dzieci), 12.00, 18.00, 21.00","7.00, 9.00, 18.00","","51.10458,17.11076","http://www.archidiecezja.wroc.pl/parafia.php?id_dek=36&id_par=4"
"św. Jerzego Męczennika i Podwyższenia Krzyża Świętego","","","Wrocław-Brochów, ul. Biegła 3, 52-115 Wrocław","www.eadsum.org","brochow@archidiecezja.wroc.pl","71/343-35-21","Ks. mgr lic. Jan KLESZCZ RM, Kan. hon. Kap. Koleg. dziekan ","7.30, 9.00, 10.30, 12.00, 18.00 (Młodych)","7.00, 18.00","","51.06325,17.08099","http://www.archidiecezja.wroc.pl/parafia.php?id_dek=38&id_par=5"
"Najświętszej Maryi Panny Matki Pocieszenia","","","Wrocław-Dąbie, ul. Wittiga 10, 51-628 Wrocław","zobacz na mapie UMP","dabie@archidiecezja.wroc.pl","71/348-20-22","O. Damian SIMONICZ CSsR ","7.30, 9.00, 10.30, 12.00, 13.30, 16.00 (studenci), 18.30, 20.00 (studenci)","8.00, 18.30, 19.30 (studenci - z wyjątkiem soboty)","","51.10233,17.08580","http://www.archidiecezja.wroc.pl/parafia.php?id_dek=36&id_par=10"
"św. Maksymiliana Marii Kolbego","","","Wrocław-Gądów, ul. Horbaczewskiego 20, 54-130 Wrocław","www.mkolbe.wroclaw.pl","mkolbe@poczta.onet.pl","71/351-54-61, fax: 71/351-12-65","Ks. dr Czesław MAJDA RM, Kap. hon. Ojca św. ","7.30, 9.30, 11.00, 12.30, 16.00 (z wyj. lata), 18.00, 20.00","6.30, 18.00","","51.12391,16.97506","http://www.archidiecezja.wroc.pl/parafia.php?id_dek=40&id_par=4"
"Miłosierdzia Bożego","","","Wrocław-Gądów Wlk., ul. Bajana 47a, 54-130 Wrocław","zobacz na mapie UMP","gadowwielki@archidiecezja.wroc.pl","71/351-67-26","Ks. dr Stanisław JÓŹWIAK Kan. hon. Kap. Katedr. ","7.30, 9.00, 10.30, 12.00, 13.15 (z wyj. wakacji), 18.00","7.00, 9.00 (so), 18.00","","51.12764,16.95989","http://www.archidiecezja.wroc.pl/parafia.php?id_dek=40&id_par=8"
"Miłosierdzia Bożego","","","Wrocław-Jagodno, ul. Jagodzińska 3/5, 52-129 Wrocław","jagodno.archidiecezja.wroc.pl","jagodno@archidiecezja.wroc.pl","71/346-43-39","Ks. mgr Ryszard PESZKO RM ","9.00, 11.00, 18.00","18.00","","51.05821,17.05752","http://www.archidiecezja.wroc.pl/parafia.php?id_dek=38&id_par=8"
"Najświętszej Maryi Panny Królowej Polski","","","Wrocław-Jerzmanowo, ul. Jerzmanowska 96, 54-530 Wrocław","zobacz na mapie UMP","jerzmanowo@archidiecezja.wroc.pl","71/349-36-51","Ks. mgr lic. Zdzisław PLUTA Kan. hon. ex. num. Kap. Koleg., Kap. hon. Ojca św. ","9.00, 11.00","9.00 lub 18.00","","51.12084,16.87560","http://www.archidiecezja.wroc.pl/parafia.php?id_dek=39&id_par=8"
"św. Antoniego Padewskiego","","","Wrocław-Karłowice, al. Jana Kasprowicza 26, 51-161 Wrocław","www.antoni.w-w.pl","swantoniego@archidiecezja.wroc.pl","71/327-34-23, fax 71/327-34-36","O. mgr lic. Fabian KALTBACH OFM ","6.00, 7.00, 9.00, 10.30, 12.00, 13.30, 17.00, 19.00","6.30, 9.00, 18.30","","51.13681,17.04153","http://www.archidiecezja.wroc.pl/parafia.php?id_dek=37&id_par=5"
"Najświętszej Maryi Panny Królowej Polski","","","Wrocław-Klecina, ul. Karmelkowa 94, 52-319 Wrocław","klecina.archidiecezja.wroc.pl","klecina@archidiecezja.wroc.pl","71/733-78-87","Ks. mgr Witold HYLA RM ","8.00, 10.00, 11.30, 18.00","7.00, 18.00","","51.06435,16.97746","http://www.archidiecezja.wroc.pl/parafia.php?id_dek=47&id_par=7"
"Najświętszej Maryi Panny Matki Miłosierdzia","","","Wrocław-Kowale, al. A. Brücknera 20/22, 51-411 Wrocław","zobacz na mapie UMP","cz.przerada@interia.pl","71/325-49-20","Ks. mgr Czesław PRZERADA RM ","8.00, 9.30, 11.00, 12.30, 18.00","8.00, 18.00","","51.13453,17.07908","http://www.archidiecezja.wroc.pl/parafia.php?id_dek=41&id_par=7"
"św. Jadwigi","","","Wrocław-Kozanów, ul. Pilczycka 25, 54-150 Wrocław","www.kozanow.archidiecezja.wroc.pl","kozanow@archidiecezja.wroc.pl","71/351-58-00","Ks. dr Adam DEREŃ Kan. grem. Kap. Katedr., Kap. hon. Ojca św. ","7.30, 9.00, 10.30, 12.00, 13.15, 18.00, 20.00 (dla młodzieży)","7.00, 18.00","","51.13256,16.97450","http://www.archidiecezja.wroc.pl/parafia.php?id_dek=40&id_par=2"
"św. Augustyna","","","Wrocław-Krzyki, ul. Sudecka 90, 53-129 Wrocław","www.kapucyni.archidiecezja.wroc.pl","augustyn@archidiecezja.wroc.pl","71/367-22-44","O. Edward KRYGER OFMCap. ","6.30, 8.00, 9.30, 11.00, 12.30, 16.00, 19.00, 21.00","6.15, 8.15, 12.00, 18.30","","51.08752,17.01750","http://www.archidiecezja.wroc.pl/parafia.php?id_dek=42&id_par=1"
"Trójcy Świętej","","","Wrocław-Krzyki, ul. Krzycka 42, 53-020 Wrocław","www.swtrojca.pl","proboszcz@swtrojca.pl","71/362-82-54","Ks. mgr Andrzej SZYC RM ","6.30, 8.00, 9.00, 10.30, 12.00, 13.30, 18.00, 19.30","6.30, 7.30, 18.30","","51.07091,16.99810","http://www.archidiecezja.wroc.pl/parafia.php?id_dek=47&id_par=11"
"Niepokalanego Poczęcia Najświętszej Maryi Panny","","","Wrocław-Krzyki, ul. Agrestowa 20, 53-006 Wrocław","zobacz na mapie UMP","npnmpkrzyki@archidiecezja.wroc.pl","71/339-89-41","Ks. mgr Marek MICHALIK RM ","8.00, 9.30, 11.00, 12.15, 18.00","18.00","","51.07085,17.01402","http://www.archidiecezja.wroc.pl/parafia.php?id_dek=47&id_par=13"
"Najświętszej Maryi Panny Wspomożycielki Wiernych","","","Wrocław-Księże Małe, ul. Świątnicka 32, 52-018 Wrocław","www.parafiaksieze.pl","kancelaria@parafiaksieze.pl","71/343-79-76","O. mgr lic Andrzej ŁUKAWSKI ss.cc. o. duchowny ","7.00, 9.00, 10.00, 10.30, 12.00, 18.00","7.00, 18.00","","51.07847,17.08997","http://www.archidiecezja.wroc.pl/parafia.php?id_dek=38&id_par=7"
"św. Andrzeja Boboli","","","Wrocław-Kuźniki, ul. Koszalińska 15, 54-316 Wrocław","bobola.wroclaw.pl","andrzejaboboli@archidiecezja.wroc.pl","71/357-54-68","Ks. Bolesław SZCZĘCH RM, Kap. hon. Ojca św. ","7.30, 9.30, 11.00, 12.30, 18.00","7.30, 18.00","","51.12531,16.95283","http://www.archidiecezja.wroc.pl/parafia.php?id_dek=39&id_par=5"
"św. Jadwigi Śląskiej","","","Wrocław-Leśnica, ul. Wolska 6, 54-076 Wrocław","zobacz na mapie UMP","lesnica@archidiecezja.wroc.pl","71/349-39-51, fax: 71/349-54-74","Ks. ppłk dr Krzysztof SZUWART Kan. grem. Kap. Koleg. ","8.00, 9.30, 11.00, 12.00, 13.00, 16.00 (IX-VI), 18.00","7.30, 8.00, 18.00","","51.14706,16.86847","http://www.archidiecezja.wroc.pl/parafia.php?id_dek=39&id_par=7"
"św. Agnieszki","","","Wrocław-Maślice, ul. Śliwowa 3, 54-106 Wrocław","zobacz na mapie UMP","maslice@archidiecezja.wroc.pl","71/354-11-65","Ks. mgr Jan PAWLISZYN Kan. hon. ex. num. Kap. Koleg. ","8.00, 9.15, 10.30, 12.00, 13.00, 18.00","7.00, 18.00","","51.15539,16.93975","http://www.archidiecezja.wroc.pl/parafia.php?id_dek=40&id_par=1"
"Najświętszej Maryi Panny Nieustającej Pomocy","","","Wrocław-Muchobór Mały, ul. Szkocka 35, 54-402 Wrocław","muchobormaly.archidiecezja.wroc.pl","muchobormaly@archidiecezja.wroc.pl","71/357-57-85, 71/373-72-45","Ks. dr Zbigniew ORDA RM ","7.00, 8.00, 9.30, 11.00, 12.30, 18.00","7.00, 18.00","","51.10934,16.96130","http://www.archidiecezja.wroc.pl/parafia.php?id_dek=40&id_par=6"
"św. Michała Archanioła","","","Wrocław-Muchobór Wlk., ul. Stanisławowska 87, 54-611 Wrocław","zobacz na mapie UMP","muchoborwielki@archidiecezja.wroc.pl","71/784-30-50","Ks. mgr Andrzej NICAŁEK RM, Kap. hon. Ojca św. dziekan ","8.00, 9.30, 10.45, 12.00, 13.00, 18.00","7.00, 18.00","","51.09844,16.94107","http://www.archidiecezja.wroc.pl/parafia.php?id_dek=40&id_par=7"
"Opatrzności Bożej","","","Wrocław-Nowy Dwór, ul. Nowodworska 64, 54-438 Wrocław","www.nowodworska.gazetkaparafialna.pl","nowydwor@archidiecezja.wroc.pl","kom. 880-557-225, 71/357-38-10","Ks. mgr Krzysztof HAJDUN Kan. hon. ex. num. Kap. Koleg. wicedziekan ","7.00, 8.30, 10.00, 11.30, 13.00, 18.00, 21.00 (VI-IX)","7.00, 17.00 (pn-pt - w okresie Adwentu); 7.00, 18.00 (so - poza Adwentem","","51.11492,16.95755","http://www.archidiecezja.wroc.pl/parafia.php?id_dek=40&id_par=9"
"Opieki św. Józefa","","","Wrocław-Ołbin, ul. Ołbińska 1, 50-259 Wrocław","karmeliciwroclaw.pl","wroclaw@karmelicibosi.pl","71/792-72-61÷62","O. mgr Krzysztof WESOŁOWSKI OCD ","7.00, 8.30, 10.00, 11.30, 13.00, 18.00, 19.30","7.30, 11.30, 18.00","","51.12129,17.04151","http://www.archidiecezja.wroc.pl/parafia.php?id_dek=41&id_par=11"
"Wniebowzięcia Najświętszej Maryi Panny","","","Wrocław-Ołtaszyn, ul. Pszczelarska 10, 52-210 Wrocław","oltaszyn.archidiecezja.wroc.pl","oltaszyn@archidiecezja.wroc.pl","71/367-41-87","Ks. mgr Zbigniew DOŁHAŃ Kan. hon. ex. num. Kap. Koleg., Kap. hon. Ojca św. ","8.00, 9.30, 11.00, 12.30, 18.00, 20.00","7.00, 18.00","","51.05733,17.02349","http://www.archidiecezja.wroc.pl/parafia.php?id_dek=47&id_par=12"
"św. Anny","","","Wrocław-Oporów, ul. Sobótki 42, 52-433 Wrocław","www.swanna-wroclaw.pl","parafia@swanna-wroclaw.pl","71/364-38-55","Ks. mgr Mariusz BRADŁO CM ","7.30, 9.30, 11.00, 12.30, 18.00","7.00, 18.00","","51.07561,16.97280","http://www.archidiecezja.wroc.pl/parafia.php?id_dek=47&id_par=3"
"św. Teresy od Dzieciątka Jezus","","","Wrocław-Osobowice, ul. Osobowicka 129, 51-004 Wrocław","www.osobowice.archidiecezja.wroc.pl","osobowice@archidiecezja.wroc.pl","71/352-41-71","Ks. mgr lic. Krzysztof JANKOWIAK RM wicedziekan ","9.00, 10.30 (Rędzin), 12.00, 17.00 (kaplica: 3 V-13 X), 18.00 (13 X-3 V)","18.00","","51.14325,16.98983","http://www.archidiecezja.wroc.pl/parafia.php?id_dek=37&id_par=10"
"Św. Ojca Pio z Pietrelciny","","","Wrocław-Partynice, Ołtaszyńska 114, 53-034 Wrocław","zobacz na mapie UMP","partynice@archidiecezja.wroc.pl","71/367-41-87","vacat","dni powszednie:","","","51.05549,17.00602","http://www.archidiecezja.wroc.pl/parafia.php?id_dek=47&id_par=4"
"Najświętszego Serca Pana Jezusa","","","Wrocław-Pawłowice, ul. Barwinkowa 11, 51-251 Wrocław","nspj.wroclaw.pl","pawlowice@archidiecezja.wroc.pl","71/324-21-21","Ks. dr Michał MACHAŁ Kan. hon. ex. num. Kap. Koleg. wicedziekan ","8.00, 9.30, 11.00 (Pruszowice), 12.30, 18.00","18.00","","51.16756,17.10737","http://www.archidiecezja.wroc.pl/parafia.php?id_dek=46&id_par=11"
"Macierzyństwa Najświętszej Maryi Panny","","","Wrocław-Pilczyce, ul. Pilczycka 139, 54-144 Wrocław","www.parafiapilczyce.pl","pilczyce@archidiecezja.wroc.pl","71/353-72-46","Ks. mgr Jacek DZIADKIEWICZ RM ","07.00, 08.30, 10.00, 11.15, 12.30, 18.00","07.00, 08.30, 18.00","","51.14110,16.95838","http://www.archidiecezja.wroc.pl/parafia.php?id_dek=40&id_par=3"
"Odkupiciela Świata","","","Wrocław-Polanka, ul. Macedońska 2, 51-113 Wrocław","odkupiciel-swiata.wroclaw.pl","remundi@archidiecezja.wroc.pl","71/327-50-45","Ks. mgr Henryk Józef ŚWIERNIAK Kan. hon. ex. num. Kap. Koleg. ","7.30, 9.30, 11.00, 12.30, 18.00 (VII-VIII 20.00)","7.00, 18.00","","51.13406,17.02967","http://www.archidiecezja.wroc.pl/parafia.php?id_dek=37&id_par=9"
"Najświętszej Maryi Panny Matki Kościoła","","","Wrocław-Polanowice, ul. Kamieńskiego 230, 51-126 Wrocław","www.mkosciola.archidiecezja.wroc.pl","polanowice@archidiecezja.wroc.pl","71/327-61-35","Ks. mgr lic. Henryk TROŚCIANKO RM ","8.00, 9.30, 11.00, 12.30, 18.00","8.00, 18.00","","51.15844,17.04514","http://www.archidiecezja.wroc.pl/parafia.php?id_dek=37&id_par=8"
"Najświętszej Maryi Panny Królowej Pokoju","","","Wrocław-Popowice, ul. Ojców Oblatów 1, 54-239 Wrocław","krolowapokoju.oblaci.pl","krolowapokoju@archidiecezja.wroc.pl","71/793-67-71","O. mgr Jerzy DITRICH OMI ","7.00, 8.30, 10.00, 11.30, 13.00, 18.00, 21.00","6.30, 9.00, 18.00","","51.12591,16.98924","http://www.archidiecezja.wroc.pl/parafia.php?id_dek=40&id_par=5"
"św. Anny","","","Wrocław-Pracze Odrzańskie, ul. Brodzka 163, 54-067 Wrocław","www.pracze.pl","par.pracze@interia.pl","tel/fax: 71/354-33-56","Ks. mgr Zdzisław SYPOSZ RM, Kap. hon. Ojca św. dziekan ","8.00, 10.00, 12.00, 18.00","7.00, 18.00","","51.17397,16.90944","http://www.archidiecezja.wroc.pl/parafia.php?id_dek=39&id_par=6"
"św. Jakuba i św. Krzysztofa","","","Wrocław-Psie Pole, ul. Bolesława Krzywoustego 291, 51-310 Wrocław","psiepole.archidiecezja.wroc.pl","psiepole@archidiecezja.wroc.pl","71/345-78-13","Ks. mgr Edward LEŚNIOWSKI Kan. hon. ex. num. Kap. Koleg. ","7.00, 8.30, 10.00, 11.30, 13.00, 18.30","7.00, 18.30","","51.14533,17.11080","http://www.archidiecezja.wroc.pl/parafia.php?id_dek=46&id_par=6"
"Najświętszej Maryi Panny Bolesnej","","","Wrocław-Różanka, ul. Bałkańska 4, 51-111 Wrocław","parafiarozanka.wroclaw.pl","rozanka@archidiecezja.wroc.pl","71/325-89-18, 71/325-87-59","Ks. mgr Tadeusz NOWAKOWSKI RM dziekan ","7.00, 8.00, 9.30, 10.45, 12.00, 18.00","7.00, 18.00","","51.13542,17.01839","http://www.archidiecezja.wroc.pl/parafia.php?id_dek=37&id_par=7"
"Świętej Rodziny","","","Wrocław-Sępolno, ul. Monte Cassino 68, 51-681 Wrocław","sw.rodzina.archidiecezja.wroc.pl","sepolno@archidiecezja.wroc.pl","71/348-32-30","Ks. dr Janusz PREJZNER RM ","7.00, 9.00, 10.30 (dzieci), 12.30, 16.00 (matki z małymi dziećmi), 18.00, 20.00 (studenci)","7.00, 9.00, 18.00","","51.10685,17.10672","http://www.archidiecezja.wroc.pl/parafia.php?id_dek=36&id_par=12"
"św. Alberta Wielkiego","","","Wrocław-Sołtysowice, ul. Redycka 10/12, 51-169 Wrocław","www.albertwielki.pl","parafia@albertwielki.pl","71/325-04-29","O. dr Emilian Piotr GOŁĄBEK OFM ","8.00, 10.00, 11.30, 18.00","9.00, 18.00","","51.15016,17.07288","http://www.archidiecezja.wroc.pl/parafia.php?id_dek=37&id_par=3"
"św. Andrzeja Apostoła","","","Wrocław-Stabłowice, ul. Boguszowska 84, 54-046 Wrocław","stablowice.archidiecezja.wroc.pl","stablowice@archidiecezja.wroc.pl","71/354-35-15","Ks. mgr lic. Wincenty TOKARZ RM, Kap. hon. Ojca św. wicedziekan ","8.30, 10.00, 11.30, 13,00, 18.00","8.00, 18.00","","51.15125,16.89200","http://www.archidiecezja.wroc.pl/parafia.php?id_dek=39&id_par=4"
"Najświętszej Maryi Panny Bolesnej","","","Wrocław-Strachocin, ul. Tatarakowa 1-3, 51-511 Wrocław","www.strachocin.archidiecezja.wroc.pl","strachocin@archidiecezja.wroc.pl","71/346-68-02","Ks. mgr Wojciech JAŚKIEWICZ RM, Kan. hon. ex. num. Kap. Koleg ","8.00, 9.30, 11.00, 12.30, 18.00","9.00, 18.00","","51.10419,17.14572","http://www.archidiecezja.wroc.pl/parafia.php?id_dek=36&id_par=9"
"św. Jacka","","","Wrocław-Swojczyce, ul. Miłoszycka 20 A, 51-502 Wrocław","zobacz na mapie UMP","swojczyce@archidiecezja.wroc.pl","71/348-46-65","Ks. Jarosław GRABIAK Kan. hon. ex. num. Kap. Koleg. ","9.00, 11.00, 18.00","18.00","","51.11636,17.12717","http://www.archidiecezja.wroc.pl/parafia.php?id_dek=46&id_par=5"
"św. Jadwigi","","","Wrocław-Świniary, ul. Pęgowska 10, 51-180 Wrocław","www.swiniary.archidiecezjawroc.pl","swiniary@archidiecezja.wroc.pl","71/346-25-30","Ks. mgr Andrzej SEFERYNOWICZ RM ","8.00, 9.45, 11.30","8.00 (pn), 18.00","","51.19628,16.97667","http://www.archidiecezja.wroc.pl/parafia.php?id_dek=37&id_par=6"
"św. Stefana","","","Wrocław-Tarnogaj, ul. Kamieniecka 72, 50-511 Wrocław","tarnogaj.archidiecezja.wroc.pl","tarnogaj@archidiecezja.wroc.pl","71/336-27-50","Ks. dr Aleksander JASICZEK ","8.00, 9.30, 11.00, 18.00 (so)","18.00","","51.07784,17.06271","http://www.archidiecezja.wroc.pl/parafia.php?id_dek=35&id_par=10"
"św. Anny","","","Wrocław-Widawa, ul. Zduńska 8, 51-180 Wrocław","www.parafiawidawa.pl","proboszcz@parafiawidawa.pl","71/325-36-27","Ks. mgr lic. Adam PRAŻAK RM ","8.30, 10.00 (Psary), 11.30, 18.00","18.00 (Kolęda i wakacje: 7.00)","","51.17856,17.01686","http://www.archidiecezja.wroc.pl/parafia.php?id_dek=37&id_par=4"
"Najświętszego Zbawiciela","","","Wrocław-Wojszyce, ul. Pawła Jasienicy 4-6, 52-230 Wrocław","wojszyce.archidiecezja.wroc.pl","wojszyce@archidiecezja.wroc.pl","71/364-42-30","Ks. mgr Stanisław KRZEMIEŃ Kan. grem. Kap. Koleg., Kap. hon. Ojca św. wicedziekan ","8.00, 9.30, 11.00 (szkolna), 12.15, 18.00, 20.30 (VII, VIII)","7.00, 18.00","","51.06664,17.03291","http://www.archidiecezja.wroc.pl/parafia.php?id_dek=35&id_par=8"
"św. Jana Apostoła","","","Wrocław-Zakrzów, ul. Królewska 30, 51-200 Wrocław","www.swjanzakrzow.archidiecezja.wroc.pl","zakrzow@archidiecezja.wroc.pl","71/345-55-76, 71/329-78-85","Ks. mgr Wiesław KARAŚ Kan. hon. ex. num. Kap. Koleg. dziekan ","7.00, 9.00, 10.30, 12.00, 13.00, 18.30","7.00, 18.30","","51.15951,17.13101","http://www.archidiecezja.wroc.pl/parafia.php?id_dek=46&id_par=7"
"Najświętszej Maryi Panny Częstochowskiej","","","Wrocław-Zalesie, al. Kochanowskiego 11, 51-602 Wrocław","www.mbc.md4.pl","zalesie@archidiecezja.wroc.pl","71/348-27-76, 71/348-59-12","Ks. mgr Mirosław DRZEWIECKI Kap. hon. Ojca św. ","7.00, 9.00, 10.30, 12.00, 18.00","7.00, 18.00 (V-VIII 19.00)","","51.11653,17.07535","http://www.archidiecezja.wroc.pl/parafia.php?id_dek=41&id_par=6"
"św. Kazimierza","","","Wrocław-Zgorzelisko, ul. Litewska 1, 51-354 Wrocław","zgorzelisko.archidiecezja.wroc.pl","zgorzelisko@archidiecezja.wroc.pl","71/324-97-32","Ks. dr hab. Andrzej SZAFULSKI Kan. hon. ex. num. Kap. Koleg., Kap. hon. Ojca św. ","7.00, 8.30, 10.00, 11.30, 12.30, 18.00","7.00, 18.00","","51.14213,17.13148","http://www.archidiecezja.wroc.pl/parafia.php?id_dek=46&id_par=8"
"Najświętszej Maryi Panny Różańcowej","","","Wrocław-Złotniki, ul. Wielkopolska 3-5, 54-027 Wrocław","zobacz na mapie UMP","zlotniki@archidiecezja.wroc.pl","71/351-74-97","Ks. mgr Andrzej PAŃCZAK Kan. hon. ex. num. Kap. Koleg. ","8.00, 9.30, 11.00, 12.00, 19.00","8.00, 18.00","","51.14067,16.88845","http://www.archidiecezja.wroc.pl/parafia.php?id_dek=39&id_par=9"
"św. Wawrzyńca","","","Wrocław-Żerniki, ul. Żernicka 249, 54-510 Wrocław","zerniki.archidiecezja.wroc.pl","zerniki@archidiecezja.wroc.pl","71/357-19-19","Ks. mgr Grzegorz TRAWKA Kan. hon. ex. num. Kap. Koleg. ","8.00, 9.00, 10.00, 11.00, 12.00, 18.00, 20.00","9.00, 18.00","","51.12316,16.92126","http://www.archidiecezja.wroc.pl/parafia.php?id_dek=39&id_par=10"
"św. Michała Archanioła","","","Wszemirów, nr 90, 55-110 Prusice","zobacz na mapie UMP","wszemirow@archidiecezja.wroc.pl","71/312-62-89","Ks. mgr lic. Zdzisław TOKARSKI SDS ","8.00, 10.00 (Pawłów Trzebnicki), 12.00","16.30 (X-XII, V-VI, I-sze pt mies., Pawłów Trzebnicki), 18.00","","51.36728,16.99560","http://www.archidiecezja.wroc.pl/parafia.php?id_dek=31&id_par=10"
"Niepokalanego Serca Najświętszej Maryi Panny","","","Wysoki Kościół, nr 15, 55-114 Wisznia Mała","wysokikosciol.archidiecezja.wroc.pl","wysokikosciol@archidiecezja.wroc.pl","71/312-70-88","Ks. Józef SADKIEWICZ SDS ","8.00, 9.45 (Piotrowiczki), 11.00 (Wisznia Mała), 12.00, 16.45, 18.00 (Piotrowiczki)","17.00 (zima), 18.30 (lato), 17.00 (so - Pierwoszów)","","51.26664,17.05192","http://www.archidiecezja.wroc.pl/parafia.php?id_dek=31&id_par=11"
"Wniebowzięcia Najświętszej Maryi Panny","","","Zachowice, ul. Słoneczna 6, 55-080 Kąty Wrocławskie","www.parafia.zachowice.pl","parafia@parafia.zachowice.pl","71/316-87-72","Ks. mgr Stanisław KULIG RM ","8.00, 10.00, 12.00","8.00 (pn), 17.00 (zima wt-so), 18.00 (lato wt-so)","","50.98317,16.78712","http://www.archidiecezja.wroc.pl/parafia.php?id_dek=26&id_par=10"
"św. Jadwigi Śląskiej","","","ul. Trzebnicka 8, 55-106 Zawonia","parafia.zawonia.net","zawonia@archidiecezja.wroc.pl","71/312-81-87","Ks. mgr Waldemar KONTEK RM ","8.30, 10.00 (Złotów), 12.00, 16.00 (z wyj. wakacji)","17.00 (zima), 18.00 (lato)","","51.31561,17.19439","http://www.archidiecezja.wroc.pl/parafia.php?id_dek=31&id_par=12"
"Najświętszej Maryi Panny Królowej Polski","","","Zbytowa, nr 58, 56-420 Bierutów","zobacz na mapie UMP","zbytowa@archidiecezja.wroc.pl","71/314-80-24","Ks. Antoni KOPCIUCH RM ","8.45, 10.15, 11.30","17.00 (zima), 18.00 (lato)","","51.11507,17.43159","http://www.archidiecezja.wroc.pl/parafia.php?id_dek=20&id_par=9"
"św. Jana Nepomucena","","","Zielenice, nr 25, 57-160 Borów","zobacz na mapie UMP","zielenice@archidiecezja.wroc.pl","71/393-07-78","Ks. mgr Tomasz ZEMBELA RM ","8.00, 9.30 (k. mszalna), 11.00","11.00 (so, Bierzyn), zima 17.00, lato 18.00","","50.82485,16.98786","http://www.archidiecezja.wroc.pl/parafia.php?id_dek=1&id_par=8"
"Świętych Apostołów Piotra i Pawła","","","ul. Kolejowa 27B, 57-220 Ziębice","swpiotripawel-ziebice.envora.pl","sspiotraipawla@archidiecezja.wroc.pl","74/819-12-53; fax 74/819-10-95","Ks. Rafał SORKOWICZ TChr. ","7.00, 7.00 (ZOL), 9.00, 11.30, 16.00 (X-VI, k. rektoralny), 18.00, 20.00 (VII-IX, k. rektoralny)","7.00, 18.00","","50.60288,17.03748","http://www.archidiecezja.wroc.pl/parafia.php?id_dek=44&id_par=10"
"św. Jerzego","","","ul. Gliwicka 4, 57-220 Ziębice","www.bazylikaziebice.pl","jerzy.ziebice@archidiecezja.wroc.pl","74/819-12-49","Ks. dr hab. Bogusław KONOPKA Kan. grem. Kap. Koleg. ","7.00, 9.00, 10.00, 11.30, 18.00","6.30, 18.00","","50.60019,17.04207","http://www.archidiecezja.wroc.pl/parafia.php?id_dek=44&id_par=9"
"św. Michała Archanioła","","","Żabin, nr 11, 56-215 Niechlów","zobacz na mapie UMP","zabin@archidiecezja.wroc.pl","65/543-59-44","Ks. mgr Stanisław DŁUGOWSKI RM wicedziekan ","8.00 (Wągroda, lato), 9.30 (Szaszorowice), 11.00, 12.30 (Wągroda)","zima 17.00, lato 18.00","","51.65977,16.35360","http://www.archidiecezja.wroc.pl/parafia.php?id_dek=45&id_par=13"
"Najświętszego Serca Pana Jezusa","","","ul. Wrocławska 1, 55-012 Żerniki Wrocławskie","www.santo-subito.pl","zernikiwroclawskie@archidiecezja.wroc.pl","71/311-32-45","Ks. mgr lic. Tadeusz RUSNAK RM, Kap. hon. Ojca św. ","9.00, 11.00, 16.30","18.00","","51.03522,17.05844","http://www.archidiecezja.wroc.pl/parafia.php?id_dek=35&id_par=14"
"Trójcy Świętej","","","ul. Kościelna 1, 55-140 Żmigród","www.parafiazmigrod.pl","zmigrod@archidiecezja.wroc.pl","71/385-35-43","Ks. Romuald PASZCZUK CM ","7.00, 8.00 (Borek), 9.00, 9.30 (Borzęcin), 10.30, 11.00 (Bychowo), 11.45, 12.30 (Kliszkowice), 13.00, 18.30","6.30, 7.00, 14.00 (so. k. szpitalna), 17.00 (so. Bychowo), 18.30","","51.47141,16.90950","http://www.archidiecezja.wroc.pl/parafia.php?id_dek=25&id_par=10"
"św. Józefa Oblubieńca NMP","","","ul. Wrocławska 18, 55-020 Żórawina","www.zorawina.archidiecezja.wroc.pl","zorawina@archidiecezja.wroc.pl","71/316-51-19","Ks. mgr lic. Waldemar MASŁOWSKI ","8.00, 9.30 (Milejowice), 10.00 (IX-VI), 11.30, 18.00 (lato godz. 20.00, k. pw. Trójcy Świętej)","8.00, 17.00 (zima), 18.00 (lato)","","50.97903,17.03460","http://www.archidiecezja.wroc.pl/parafia.php?id_dek=1&id_par=9"
"Zesłania Ducha Świętego","","","Żuchlów, nr 42, 56-215 Niechlów","www.parafiazuchlow.ns48.pl","zuchlow@archidiecezja.wroc.pl","65/543-56-96, 71/7975965","Ks. dr Wojciech GRYGLEWICZ ","8.00, 10.00 (Niechlów), 12.00","18.00","","51.68018,16.40101","http://www.archidiecezja.wroc.pl/parafia.php?id_dek=45&id_par=14"
