"name","postal","city","address","www","email","phone","rector","sun","week","fest","latlng","url"
"Parafia pw. św. Wawrzyńca","","Babimost","ul. Kościelna 1, 66-110 Babimost","","","68-351-20-25","ks. kan. dr Andrzej PIELA ","BABIMOST – pw. św. Wawrzyńca (8:00, 9:30, 11:00, 18:00); BABIMOST – pw. św. Jacka; PODMOKLE WIELKIE – pw. św. Józefa Rzemieślnika (9:30)","","","","http://www.kuria.zg.pl/index.php/diecezja/dekanaty/parafie/item/560-babimost-pw-sw-wawrzynca"
"Parafia pw. św. Apostołów Piotra i Pawła","","Baczyna","ul. Lipowa 12, 66-432 Baczyna","","parafiabaczyna@wp.pl","95-731-42-60 e-mail: Ten adres pocztowy jest chroniony przed spamowaniem. Aby go zobaczyć, kon...","ks. mgr Jarosław ZAGOZDA ","BACZYNA – pw. św. Ap. Piotra i Pawła (8:00, 11:00); MARWICE – pw. Narodzenia NMP (9:30); RACŁAW – pw. MB Szkaplerznej (12:15)","","","","http://www.kuria.zg.pl/index.php/diecezja/dekanaty/parafie/item/158-baczyna-parafia-pw-sw-apostolow-piotra-i-pawla"
"Parafia pw. św. Andrzeja Boboli","","Białków","Białków 23, 66-630 Cybinka","","","68-391-19-60","ks. mgr Krzysztof SUDZIŃSKI ","BIAŁKÓW – pw. św. Andrzeja Boboli (7:30, 13:00); GRZMIĄCA – pw. Świętej Rodziny (11:00); RĄPICE – pw. Najświętszego Serca Pana Jezusa (9:30); KŁOPOT – zaadaptowana sala w dawnej szkole (18:00 – sobota)","","","","http://www.kuria.zg.pl/index.php/diecezja/dekanaty/parafie/item/574-bialkow-parafia-pw-sw-andrzeja-boboli"
"Parafia pw. Matki Bożej Bolesnej","","Białołęka","67-221 Białołęka 16a","","","76-831-71-24","ks. mgr Jacek HEYDUK ","BIAŁOŁĘKA – pw. MB Bolesnej (18:00 - sobota, 11:00); CZERŃCZYCE – pw. Chrystusa Króla (8:15); WOJSZYN – pw. św. Mikołaja (12:15); PĘCŁAW – kaplica pw. św. Józefa (9:30)","","","","http://www.kuria.zg.pl/index.php/diecezja/dekanaty/parafie/item/123-bialoleka-parafia-pw-matki-bozej-bolesnej"
"Parafia pw. Niepokalanego Poczęcia Najświętszej Maryi Panny","","Bieniów","ul. Dolna 2, 68-204 Bieniów","","","68-374-15-70","ks. mgr Andrzej WOCH ","BIENIÓW – pw. Niepokalnego Poczęcia NMP (8:00, 11:00); BIAŁOWICE – pw. Najświętszego Serca Pana Jezusa (13:00); BIEDRZYCHOWICE – pw. Podwyższenia Krzyża Świętego (9:30); WŁOSTÓW – liturgia sprawowana w świetlicy wiejskiej (18:00 - sobota)","","","","http://www.kuria.zg.pl/index.php/diecezja/dekanaty/parafie/item/575-bieniow-parafia-pw-niepokalanego-poczecia-najswietszej-maryi-panny"
"Parafia pw. św. Katarzyny","","Bledzew","ul. Kościuszki 30, 66-350 Bledzew","","","95-743-60-32","ks. mgr Zbigniew ZDANOWICZ ","BLEDZEW – pw. św. Katarzyny (7:30, 12:00, 17:00); CHYCINA – pw. Niepokalanego Poczęcia NMP (9:15); GORUŃSKO – kaplica pw. MB Królowej Polski (10:30); POPOWO – pw. św. Jana Chrzciciela (11:00); STARY DWOREK – pw. św. Józefa (9:00); ZEMSKO – pw. Zwiastowania NMP (10:00)","","","","http://www.kuria.zg.pl/index.php/diecezja/dekanaty/parafie/item/580-bledzew-parafia-pw-sw-katarzyny"
"Parafia pw. Miłosierdzia Bożego","","Bobowicko","Bobowicko, ul. Trzcielska 6, 66-300 Międzyrzecz,","www.parafiabobowicko.zgora-gorzow.opoka.org.pl","parabobo@go.onet.pl?subject=ze%20strony%20www","95-741-32-20","ks. kan. Andrzej KUGIELSKI ","BOBOWICKO – pw. Miłosierdzia Bożego (7:30, 12:00) MIĘDZYRZECZ-OBRZYCE – pw. Podwyższenia Krzyża Świętego (9:00, 11:00, 18:00) ŻÓŁWIN – kaplica pw. św. s. Faustyny Kowalskiej (10:00)","","","","http://www.kuria.zg.pl/index.php/diecezja/dekanaty/parafie/item/581-bobowicko-parafia-pw-milosierdzia-bozego"
"Parafia pw. Podwyższenia Krzyża Świętego","","Bobrowice","66-627 Bobrowice 58","","","68-391-32-14 ","ks. mgr Jerzy WAŚCIŃSKI ","BOBROWICE – pw. Podw. Krzyża Świętego (8:30, 11:30) DACHÓW – kaplica pw. MB Fatimskiej (13:00) JANISZOWICE – pw. Niepokalanego Poczęcia NMP (10:00) KOSIERZ – pw. Nawiedzenia NMP (10:00) LUBIATÓW – pw. MB Częstochowskiej (11:30) TARNAWA – pw. Najśw. Serca Pana Jezusa (13:00) WEŁMICE – kaplica pw. św. Józefa (8:30) ŻARKÓW – sala w świetlicy gminnej (17:00 - 1. i 3. sobota miesiąca)","","","","http://www.kuria.zg.pl/index.php/diecezja/dekanaty/parafie/item/705-bobrowice-parafia-pw-podwyzszenia-krzyza-swietego"
"Parafia pw. św. Antoniego z Padwy","","Bobrówko","ul. Wesoła 1, 66-510 Bobrówko","","","95-763-51-87","ks. Ryszard FIDO ","BOBRÓWKO – pw. św. Antoniego z Padwy (16:00 - sobota, 10:00, 13:00) BUSZÓW – w budowie (11:30) DANKÓW – pw. Najświętszego Serca Pana Jezusa (12:30) LUBICZ – pw. świętych Apostołów Piotra i Pawła (11:30) MACHARY – kaplica pw. Miłosierdzia Bożego (16:00 - sobota) SOKÓLSKO – pw. św. Stanisława Bpa (9:00) TUCZNO – pw. Pierwszych Męczenników Polski (17:00 - sobota, 9:00)","","","","http://www.kuria.zg.pl/index.php/diecezja/dekanaty/parafie/item/775-bobrowko-parafia-pw-sw-antoniego-z-padwy"
"Parafia pw. Matki Bożej Królowej Polski","","Boczów","ul. Szkolna 2, 66-234 Boczów","","","68-341-40-67","ks. Józef PIEPRZAK ","BOCZÓW – pw. MB Królowej Polski (9:00, 12:00) BOBRÓWKA – pw. Podwyższenia Krzyża Świętego (13:30) GARBICZ – pw. Najświętszego Serca Pana Jezusa (11:00) LUBIN – pw. Bożego Ciała (9:30) LUBÓW – pw. św. Michała Archanioła (11:30) MIERCZANY – pw. św. Józefa Oblubieńca (8:30) PNIÓW – pw. MB Różańcowej (10:00) WYSTOK – pw. św. Stanisława Bpa (12:30)","","","","http://www.kuria.zg.pl/index.php/diecezja/dekanaty/parafie/item/757-boczow-parafia-pw-matki-bozej-krolowej-polski"
"Parafia pw. św. Jana Chrzciciela","","Bogdaniec","ul. Mickiewicza 7, 66-450 Bogdaniec","","","95-751-00-38 ","ks. Gabriel STOŻEK ","BOGDANIEC – pw. św. Jana Chrzciciela (8:30, 13:00) JENINIEC – kaplica pw. Najświętszego Serca Pana Jezusa (18:00 - sobota) PODJENIN – pw. Wniebowzięcia NMP (10:00) WŁOSTÓW – pw. św. Józefa (11:30)","","","","http://www.kuria.zg.pl/index.php/diecezja/dekanaty/parafie/item/687-bogdaniec-parafia-pw-sw-jana-chrzciciela"
"Parafia pw. św. Teresy od Dzieciątka Jezus","","Bojadła","ul. Kościelna 37, 66-130 Bojadła","","","68-352-33-18","ks. Stanisław SZURA ","BOJADŁA – pw. św. Teresy od Dzieciątka Jezus (9:00, 13:00; od V do X: 8:00, 12:00) PYRNIK – pw. Wniebowzięcia NMP (11:00; od V do X: 10:00) * BEŁCZE – kaplica w Domu Pomocy Społecznej (16:00 - sobota)","","","","http://www.kuria.zg.pl/index.php/diecezja/dekanaty/parafie/item/782-bojadla-parafia-pw-sw-teresy-od-dzieciatka-jezus"
"Parafia pw. św. Wawrzyńca","","Borów Wielki","Borów Wielki 56, 67-124 Nowe Miasteczko","","","68-388-89-15 ","ks. Jan GÓRSKI ","BORÓW WIELKI – pw. św. Wawrzyńca (17:00 - sobota, 11:00) SIECIEBORZYCE – pw. MB Częstochowskiej (9:00, 13:00)","","","","http://www.kuria.zg.pl/index.php/diecezja/dekanaty/parafie/item/698-borow-wielki-parafia-pw-sw-wawrzynca"
"Parafia pw. Zwiastowania Najświętszej Maryi Panny","","Bożnów","Bożnów 65, 68-100 Żagań,","","","68-360-66-92","ks. kan. mgr Jan CIESIELSKI ","BOŻNÓW – pw. Zwiastowania NMP 9:00, 12:00 CHROBRÓW – pw. św. Augustyna 10:30","","","","http://www.kuria.zg.pl/index.php/diecezja/dekanaty/parafie/item/650-boznow-parafia-pw-zwiastowania-najswietszej-maryi-panny"
"Parafia pw. Wszystkich Świętych","","Brody","ul. Traugutta 3, 68-343 Brody","","","68-371-39-66 ","ks. mgr Sławomir GRAMZA ","BRODY – pw. Wszystkich Świętych (18:00 - sobota, 11:00) BIECZ – pw. MB Częstochowskiej (12:30) KOŁO – pw. Narodzenia NMP (9:30) ZASIEKI – pw. MB Królowej Polski (8:00)","","","","http://www.kuria.zg.pl/index.php/diecezja/dekanaty/parafie/item/715-brody-parafia-pw-wszystkich-swietych"
"Parafia pw. Imienia Najświętszej Maryi Panny","","Brójce Lubuskie","ul. Polna 3, 66-304 Brójce Lub.","","parafia.brojce@tlen.pl","/fax 95-743-40-04, kom. 604-600-243","ks. mgr Paweł BRYK ","BRÓJCE LUBUSKIE – pw. Imienia NMP (8:00, 13:00); BRÓJCE LUBUSKIE – pw. św. Michała Archanioła; ŁAGOWIEC – pw. św. Jana Chrzciciela (10:00); PANOWICE – pw. NMP Rokitniańskiej (11:30)","","","","http://www.kuria.zg.pl/index.php/diecezja/dekanaty/parafie/item/561-brojce-lubuskie-pw-imienia-najswietszej-maryi-panny"
"Parafia pw. św. Anny","","Broniszów","Broniszów 29, 67-120 Kożuchów","","","68-388-18-24 ","ks. kan. Jan MAKOWSKI ","BRONISZÓW – pw. św. Anny (12:00) JAROGNIEWICE – pw. św. Antoniego (13:15) KAMIONKA – pw. Miłosierdzia Bożego (10:45) URZUTY – pw. Narodzenia NMP (9:30) RADWANÓW – pw. MB Fatimskiej (19:00 - sobota)","","","","http://www.kuria.zg.pl/index.php/diecezja/dekanaty/parafie/item/699-broniszow-parafia-pw-sw-anny"
"Parafia pw. Bożego Ciała","","Brzeg Głogowski","Brzeg Głogowski 59, Brzeg Głogowski, 67-232 Żukowice","","","76 831-41-21","ks. Edward Białas ","Brzeg Głogowski – 8:00, 11:00; Dobrzejowice – 12:15; Kromolin – 9:30.","","","","http://www.kuria.zg.pl/index.php/diecezja/dekanaty/parafie/item/68-brzeg-glogowski-parafia-pw-bozego-ciala"
"Parafia pw. św. Marii Magdaleny","","Brzeźnica","ul. Zielonogórska 25, 68-113 Brzeźnica","","","68-377-16-77","ks. mgr Andrzej NOWAKOWSKI ","BRZEŹNICA – pw. św. Marii Magdaleny 8:00, 12:45 MARCINÓW – Eucharystia sprawowana w sali wiejskiej 19:00 - sobota STANÓW – pw. św. Mikołaja 9:15","","","","http://www.kuria.zg.pl/index.php/diecezja/dekanaty/parafie/item/651-brzeznica-parafia-pw-sw-marii-magdaleny"
"Parafia pw. świętych Apostołów Piotra i Pawła","","Bytnica","66-22 Bytnica 74","www.parafiabytnica.zgora-gorzow.opoka.org.pl","parafiabytnica@zgora-gorzow.opoka.org.pl?subject=ze%20strony%20www","68-391-57-15 odwiedź stronę www Ten adres pocztowy jest chroniony przed spamowaniem. Aby go zobaczyć,...","ks. lic. mgr Sławomir STRZYŻYKOWSKI ","BYTNICA – pw. św. Ap. Piotra i Pawła (8:30, 13:00) BUDACHÓW – pw. św. Józefa (10:00) DOBROSUŁÓW – pw. Chrystusa Króla (11:30) GRABIN – pw. św. Jana Chrzciciela (8:30) GRYŻYNA – kaplica pw. Podwyższenia Krzyża Świętego (10:00) STRUGA – kaplica pw. Miłosierdzia Bożego (11:30)","","","","http://www.kuria.zg.pl/index.php/diecezja/dekanaty/parafie/item/706-bytnica-parafia-pw-swietych-apostolow-piotra-i-pawla"
"Parafia pw. św. Hieronima","","Bytom Odrzański","ul. św. M. Kolbe 1, 67-115 Bytoul. św. M. Kolbe 1, 67-115 Bytom Odrz.","parafiabytomodrzanski.pl","parafiabytom@op.pl?subject=ze%20strony%20www","68-388-40-24 odwiedź stronę www Ten adres pocztowy jest chroniony przed spam...","ks. mgr Ireneusz ŁUCZAK ","BYTOM ODRZ. – pw. św. Hieronima (8:00, 10:30, 12:00, 17:00) * WIERZBNICA – liturgia sprawowana w świetlicy wiejskiej (9:30)","","","","http://www.kuria.zg.pl/index.php/diecezja/dekanaty/parafie/item/700-bytom-odrzanski-parafia-pw-sw-hieronima"
"Parafia pw. św. Jana Chrzciciela","","Chichy","Bobrzany 88, 67-320 Małomice","","","68-376-90-71","ks. Adam BRZDĘK ","CHICHY – pw. św. Jana Chrzciciela (8:00, 11:00) WITKÓW – pw. MB Rokitniańskiej i św. Michała (9:30)","","","","http://www.kuria.zg.pl/index.php/diecezja/dekanaty/parafie/item/804-chichy-parafia-pw-sw-jana-chrzciciela"
"Parafia pw. św. Józefa Oblubieńca Najświętszej Maryi Panny","","Chlebowo","Chlebowo 62, 66-620 Gubin","","","68-383-18-16 ","ks. Zbigniew NIDECKI ","CHLEBOWO – pw. św. Józefa Oblub. (17:00 lub 18:00 - sobota, 9:00) CZARNOWO – pw. Wniebowstąpienia Pańskiego (11:30) ŁOMY – kaplica pw. Miłosierdzia Bożego (8:00) WĘŻYSKA – pw. MB Szkaplerznej (1000, 18:00 lub 17:00) KOSARZYN (10:30)","","","","http://www.kuria.zg.pl/index.php/diecezja/dekanaty/parafie/item/681-chlebowo-parafia-pw-sw-jozefa-oblubienca-najswietszej-maryi-panny"
"Parafia pw. św. Jana Chrzciciela","","Chociszewo","Chociszewo 44, 66-304 Brójce","","","95-743-48-39","ks. Stanisław STEFAŃCZYK ","CHOCISZEWO – pw. św. Jana Chrzciciela (12:00); LUTOL SUCHY – pw. świętych Apostołów Piotra i Pawła (10:30); ROGOZINIEC – pw. św. Józefa (9:00)","","","","http://www.kuria.zg.pl/index.php/diecezja/dekanaty/parafie/item/562-3-chociszewo-pw-sw-jana-chrzciciela"
"Parafia pw. Narodzenia Najświętszej Maryi Panny","","Chotków","ul. Zielonogórska 25, 68-113 Brzeźnica","","","68-377-16-77","ks. mgr Andrzej NOWAKOWSKI ","CHOTKÓW – pw. Narodzenia NMP 11:30 WRZESINY – pw. św. Jana Chrzciciela 10:30","","","","http://www.kuria.zg.pl/index.php/diecezja/dekanaty/parafie/item/653-chotkow-parafia-pw-narodzenia-najswietszej-maryi-panny"
"Parafia pw. św. Alberta Chmielowskiego","","Cibórz","Cibórz 62, 66-213 Skąpe","","","68-341-94-50, 68-341-94-55, 68-341-95 50 wew. 223","ks. mgr Marek OLSZAŃSKI ","CIBÓRZ – pw. św. Alberta Chmielowskiego (8:00, 13:00) MIĘDZYLESIE – pw. św. Jana Chrzciciela (1100) ZAWISZE – kaplica pw. św. Maksymiliana Kolbe (10:00) PODŁA GÓRA – kaplica pw. Matki Bożej Fatimskiej (17:00 - sobota)","","","","http://www.kuria.zg.pl/index.php/diecezja/dekanaty/parafie/item/823-ciborz-parafia-pw-sw-alberta-chmielowskiego"
"Parafia pw. św. Michała Archanioła","","Cigacice","pl. Szkolny 12, 66-131 Cigacice","","","68-385-12-32","ks. kan. Jerzy FILIPKOWSKI ","1. CIGACICE – pw. św. Michała Archanioła (8:00, 10:00, 12:00)","","","","http://www.kuria.zg.pl/index.php/diecezja/dekanaty/parafie/item/784-cigacice-parafia-pw-sw-michala-archaniola"
"Parafia pw. św. Michała Archanioła","","Ciosaniec","Ciosaniec 112, 67-410 Sława","","","68-356-76-07","ks. mgr Dariusz CHMIST ","CIOSANIEC – pw. św. Michała Arch. (18:00 - sobota, 8:30) ŚWIĘTNO – pw. św. Stanisława Kostki (10:30, 13:15) WILCZE – pw. św. o. Pio (12:00)","","","","http://www.kuria.zg.pl/index.php/diecezja/dekanaty/parafie/item/767-ciosaniec-parafia-pw-sw-michala-archaniola"
"Parafia pw. Matki Bożej Częstochowskiej","","Cybinka","ul. Chopina 2, 69-108 Cybinka","","","68-391-13-19, 68-391-01-47","ks. kan. Stanisław PAWUL ","CYBINKA – pw. MB Częstochowskiej (18:00 - sobota, 9:00, 12:00, 16:00) DRZENIÓW – pw. św. Jana Chrzciciela (12:00) GĘSTOWICE – pw. Wniebowzięcia NMP (10:45) RZECZYCA – pw. św. Stanisława Bpa (18:30 - sobota) SĄDÓW – pw. św. Antoniego (8:00) URAD – pw. Narodzenia NMP (10:30) * MACZKÓW – Eucharystia sprawowana w stanicy harcerskiej (16:00, w VII i VIII: sobota 17:00) * SKARBONA – zaadaptowana sala wiejska (9:30)","","","","http://www.kuria.zg.pl/index.php/diecezja/dekanaty/parafie/item/758-cybinka-parafia-pw-matki-bozej-czestochowskiej"
"Parafia pw. Matki Bożej Szkaplerznej","","Czarnów","ul. Stańska 6, Czarnów, 69-113 Górzyca","","","95-759-12-82 ","ks. Piotr FRANEK ","CZARNÓW – pw. MB Szkaplerznej (12:30) STAŃSK – pw. św. Józefa Robotnika (9:30) SPUDŁÓW – zaadaptowane pomieszczenie klubu (14:00) ŻABICE – pw. Najświętszego Serca Pana Jezusa (11:00)","","","","http://www.kuria.zg.pl/index.php/diecezja/dekanaty/parafie/item/688-czarnow-parafia-pw-matki-bozej-szkaplerznej"
"pw. św. Wojciecha","","Czerwieńsk","ul. ks. Ludwika Muchy 1, 66-016 Czerwieńsk","www.parafia.czerwiensk.hadom.pl","","68-327-82-18 odwiedź stronę www","ks. kan. mgr Marek KIDOŃ ","CZERWIEŃSK – pw. św. Wojciecha 7:50, 11:00, 13:00, 19:00; ŁĘŻYCA – pw. MB Fatimskiej 9:30; NIETKÓW – pw. Wniebowstąpienia Pana Jezusa 9:30, 13:15","","","","http://www.kuria.zg.pl/index.php/diecezja/dekanaty/parafie/item/636-czerwiensk-pw-sw-wojciecha"
"Parafia pw. Niepokalanego Poczęcia Najświętszej Maryi Panny i św. Jakuba Apostoła","","Dąbrówka Wlkp.","ul. Mała 11, 66-311 Dąbrówka Wlkp.","","","68-384-01-76","ks. kan. Stanisław JEDLIŃSKI ","DĄBRÓWKA WLKP. – pw. Niepokalanego Pocz. NMP (18:00 - sobota, 8:00, 10:30)","","","","http://www.kuria.zg.pl/index.php/diecezja/dekanaty/parafie/item/610-dabrowka-wlkp-parafia-pw-niepokalanego-poczecia-najswietszej-maryi-panny-i-sw-jakuba-apostola"
"Parafia pw. św. Jadwigi","","Dębowa Łęka","","","","65-540-61-85","ks. Zbigniew GARBAREK ","DĘBOWA ŁĘKA – pw. św. Jadwigi (17:00 - sobota, 10:00)","","","","http://www.kuria.zg.pl/index.php/diecezja/dekanaty/parafie/item/830-debowa-leka-parafia-pw-sw-jadwigi"
"Parafia pw. Podwyższenia Krzyża Świętego","","Deszczno","Deszczno 61, 66-446 Deszczno","","","095 751-32-38 Historia parafii Do reformacji miejscowy kościół podlegał biskupstwu poznańskiemu. Po...","ks. Janusz Drgas ","Deszczno - 8:00, 12:30; Glinik - 9:30; Krasowiec - 9:30; Bolemin - 9:30, 11:30; Kiełpin - 8:30; Krasowiec - 10:30; Karnin -11:00","","","","http://www.kuria.zg.pl/index.php/diecezja/dekanaty/parafie/item/100-deszczno-parafia-pw-podwyzszenia-krzyza-swietego"
"Parafia pw. św. Józefa","","Dobiegniew","ul. Staszica 6, 66-520 Dobiegniew","","","95-761-10-11, fax. 95-763-94-08","ks. kan. mgr Piotr SPYCHAŁA ","DOBIEGNIEW – pw. św. Józefa (7:30) DOBIEGNIEW – pw. Chrystusa Króla (8:30, 10:00, 11:30, 18:00) CHOMĘTOWO – pw. Dzieciątka Jezus (10:30) MIERZĘCIN – pw. Wniebowzięcia NMP (9:00) SŁONÓW – pw. MB Różańcowej (12:00)","","","","http://www.kuria.zg.pl/index.php/diecezja/dekanaty/parafie/item/777-dobiegniew-parafia-pw-sw-jozefa"
"Parafia pw. Wniebowstąpienia Pańskiego","","Drągowina","66-012 Drągowina 17","","","68-327-66-02 ","ks. Krzysztof COCHŁA ","DRĄGOWINA – pw. Wniebowstąpienia Pańskiego (10:00, 13:00) KACZENICE – kaplica pw. św. Antoniego Padewskiego (8:00) KOTOWICE – pw. MB Szkaplerznej (9:00) NIWISKA – pw. MB Różańcowej (9:00) PRZYBYMIERZ – pw. Wniebowzięcia NMP (8:00) SKIBICE – pw. św. Marcina (11:30)","","","","http://www.kuria.zg.pl/index.php/diecezja/dekanaty/parafie/item/716-dragowina-parafia-pw-wniebowstapienia-panskiego"
"Parafia  pw. Najświętszego Serca Pana Jezusa","","Drezdenko","ul. Niepodległości 41 66-530 Drezdenko","","","95-762-95-90","ks. Zdzisław PALUS CRL ","DREZDENKO – pw. Najśw. Serca Pana Jezusa 8:00, 11:15; LUBIEWO – pw. MB Szkaplerznej 9:30 STARE BIELICE – kaplica pw. św. Józefa 13:00","","","","http://www.kuria.zg.pl/index.php/diecezja/dekanaty/parafie/item/619-drezdenko-parafia-pw-najswietszego-serca-pana-jezusa"
"Parafia  pw. Przemienienia Pańskiego","","Drezdenko","pl. Kościelny 2, 66-530 Drezdenko","","","95-762-05-15","ks. Wojciech ĆWIĘKAŁA CRL","DREZDENKO – pw. Przemienienia Pańskiego 8:30, 10:00, 11:30, 18:00; DREZDENKO – pw. MB Różańcowej 7:00; DREZDENKO – kaplica w Szpitalu Miejskim 6:30","","","","http://www.kuria.zg.pl/index.php/diecezja/dekanaty/parafie/item/618-drezdenko-parafia-pw-przemienienia-panskiego"
"Parafia pw. Podwyższenia Krzyża Świętego","","Drożków","Drożków 37, 68-200 Żary","","","607-56-50-70","ks. Robert DECKER ","DROŻKÓW – pw. Podwyższenia Krzyża Świętego 18:00 - sobota, 9:30); LUBANICE – pw. MB Różańcowej 8:00, 11:30","","","","http://www.kuria.zg.pl/index.php/diecezja/dekanaty/parafie/item/648-drozkow-parafia-pw-podwyzszenia-krzyza-swietego"
"Parafia pw. Miłosierdzia Bożego","","Dychów","Dychów 46b, 66-627 Bobrowice","http//:www.parafiadychow.zgora.pl","pardych@parafiadychow.zgora.pl?subject=ze%20strony%20www","68-383-11-66 odwiedź stronę www Ten adres pocztowy jest chroniony przed spamowaniem. Aby go zobacz...","ks. Marek KOWAL ","DYCHÓW – pw. Miłosierdzia Bożego (8:00, 11:00) BRONKÓW – pw. MB Szkaplerznej (9:30) BRZÓZKA – pw. NMP Królowej Polski (12:30)","","","","http://www.kuria.zg.pl/index.php/diecezja/dekanaty/parafie/item/707-dychow-parafia-pw-milosierdzia-bozego"
"Parafia pw. św. Jana Chrzciciela","","Dzietrzychowice","Dzietrzychowice 82, 68-111 Miodnica","","","68-360-71-41","ks. Jarosław PAPROCKI ","DZIETRZYCHOWICE – pw. św. Jana Chrzciciela 18:00 - sobota, 12:30; GORZUPIA – pw. św. Jerzego 11:00; KARCZÓWKA – pw. MB Bolesnej 8:00; MIODNICA – pw. Podwyższenia Krzyża Świętego 16:00 - sobota, 9:30","","","","http://www.kuria.zg.pl/index.php/diecezja/dekanaty/parafie/item/652-dzietrzychowice-parafia-pw-sw-jana-chrzciciela"
"Parafia pw. Matki Bożej Bolesnej","","Dzikowice","Dzikowice 78, 67-300 Szprotawa","","","68-376-37-02","ks. Przemysław KAMINIARZ ","DZIKOWICE – pw. MB Bolesnej (12:00) BOROWINA – pw. św. Bartłomieja (8:00) GOŚCIESZOWICE – pw. św. Katarzyny (10:30) PASTERZOWICE – kaplica w zaadaptowanej świetlicy wiejskiej (9:15)","","","","http://www.kuria.zg.pl/index.php/diecezja/dekanaty/parafie/item/805-dzikowice-parafia-pw-matki-bozej-bolesnej"
"Parafia pw. Matki Bożej Różańcowej","","Długoszyn","Długoszyn 10, 69-200 Sulęcin","","","95-755-21-72","ks. Jan PODEDWORNY ","DŁUGOSZYN – pw. Matki Bożej Różańcowej (11:30) BRZEŹNO – pw. św. Antoniego (10:00) DROGOMIN – pw. św. Wojciecha (830) TRZEBÓW – pw. świętych Apostołów Piotra i Pawła (13:00)","","","","http://www.kuria.zg.pl/index.php/diecezja/dekanaty/parafie/item/796-dlugoszyn-parafia-pw-matki-bozej-rozancowej"
"Parafia pw. Matki Bożej Bolesnej","","Gądków Wielki","ul. Kościuszki 40, Gądków Wielki, 66-235 Torzym","","","68-341-44-13","ks. Edward BISKUPSKI ","GĄDKÓW WIELKI – pw. MB Bolesnej (8:00, 11:00) DEBRZNICA – pw. Macierzyństwa NMP (18:00 -sobota, 9:30 - na przemian z Gądkowem Małym) GĄDKÓW MAŁY – pw. Niepokalanego Poczęcia NMP (18:00 - sobota, 9:30) RADZIKÓW – pw. MB Królowej Polski (13:00) TRZEBIECHÓW – pw. MB Łaskawej (18:15)","","","","http://www.kuria.zg.pl/index.php/diecezja/dekanaty/parafie/item/759-gadkow-wielki-parafia-pw-matki-bozej-bolesnej"
"Parafia pw. św. Barbary","","Gaworzyce","","","","076 31-62-25 ","ks. Lech Świdziniewski ","Gaworzyce – 8:00, 13:00, 18:00; Nowa Jabłona – 9:30.","","","","http://www.kuria.zg.pl/index.php/diecezja/dekanaty/parafie/item/67-gaworzyce-parafia-pw-sw-barbary"
"Parafia pw. Trójcy Świętej","","Goraj","Goraj 23, 66-342 Goraj","","paragora@o2.pl?subject=ze%20strony%20www","95-749-34-76 Ten adres pocztowy jest chroniony przed spamowaniem. Aby go zobaczyć, konieczne jest włącze...","ks. Józef RUSIN ","GORAJ – pw. Trójcy Świętej (12:00) KROBIELEWO – pw. Niepokalanego Poczęcia NMP (13:30) STRYCHY – pw. św. Jana Chrzciciela (10:30) WIERZBNO – pw. św. Mikołaja (9:15) * LUBIKOWO – pw. Niepokalanego Poczęcia NMP (9:30, w wakacje 10:30)","","","","http://www.kuria.zg.pl/index.php/diecezja/dekanaty/parafie/item/751-goraj-parafia-pw-trojcy-swietej"
"Parafia pw. Niepokalanego Poczęcia Najświętszej Maryi Panny","","Górki Noteckie","ul. Santocka 26, 66-542 Górki Noteckie","","","95-761-81-27","ks. Wiesław MERCHUT ","GÓRKI NOTECKIE – pw. Niepokalanego Poczęcia NMP (8:00, 13:00) GÓRECKO – pw. św. Stanisława Bpa (11:30) PRZYŁĘG – pw. Najświętszego Serca Pana Jezusa (9:30)","","","","http://www.kuria.zg.pl/index.php/diecezja/dekanaty/parafie/item/780-gorki-noteckie-parafia-pw-niepokalanego-poczecia-najswietszej-maryi-panny"
"Parafia pw. Chrystusa Króla","","Gorzów Wielkopolski","ul. Woskowa 1b, 66-400 Gorzów Wielkopolski","www.chrystuskrolgorzow.parafia.info.pl","","95 720-70-35 odwiedź stronę www » Historia parafii Początki duszpasterstwa sięgają 19...","ks. Jerzy Piasecki ","Gorzów Wlkp. (Chrystusa Króla) – 7:30, 9:30, 11:00, 12:30, 18:00.","","","","http://www.kuria.zg.pl/index.php/diecezja/dekanaty/parafie/item/101-gorzow-wielkopolski-parafia-pw-chrystusa-krola"
"Parafia pw. Matki Bożej Różańcowej","","Gorzów Wielkopolski","ul. Strażacka 104 b, 66-400 Gorzów Wielkopolski","www.mbroznancowa.parafia.info.pl/","","95 723-81-16 odwiedź stronę www ","ks. Eugeniusz Drzewiecki ","Gorzów Wlkp. (MB Róż.) – 8:00, 12:30; Ciecierzyce – 9:30; Osiedle Pozn. – 11:00","","","","http://www.kuria.zg.pl/index.php/diecezja/dekanaty/parafie/item/102-gorzow-wielkopolski-parafia-pw-matki-bozej-rozancowej"
"Parafia pw. Najświętszego Zbawiciela","","Gorzów Wielkopolski","ul. Niemcewicza 35, 66-400 Gorzów Wlkp.","www.zbawiciel.gorzow.com.pl","","95-720-00-87 odwiedź stronę www » ","ks. mgr Andrzej TOMYS ","Gorzów Wlkp. (tymczasowa kaplica) – 7:30, 9:00, 10:30, 12:00, 13:15 (od IX do VI), 18:00.","","","","http://www.kuria.zg.pl/index.php/diecezja/dekanaty/parafie/item/159-gorzow-wielkopolski-parafia-pw-najswietszego-zbawiciela"
"Parafia pw. Najświętszej Maryi Panny Królowej Polski","","Gorzów Wielkopolski","ul. Żeromskiego 22, 66-400 Gorzów Wlkp.","www.nmpkp.pl","parafia@nmpkp.pl","95-722-84-61 email: Ten adres pocztowy jest chroniony przed spamowaniem. Aby go z...","ks. kan. mgr Grzegorz POLOWCZYK ","Gorzów Wlkp. (NMP Królowej Polski) – 7:30, 9:30, 11:00, 12:30, 15:00, 17:00-I niedziela, 18:30, 20:00.","","","","http://www.kuria.zg.pl/index.php/diecezja/dekanaty/parafie/item/160-gorzow-wielkopolski-parafia-pw-najswietszej-maryi-panny-krolowej-polski"
"Parafia pw. św. Józefa","","Gorzów Wielkopolski","ul. Bracka 7, 66-400 Gorzów Wielkopolski","www.jozefgorzow.pl","parafia@jozefgorzow.pl","95 722-64-39 email: Ten adres pocztowy jest chroniony przed spamowaniem. Aby go zobaczy...","ks. Piotr Darasz OMI ","Gorzów Wlkp. (św. Józefa) – 7:00, 9:00, 10:30, 12:00, 16:00, 19:00","","","","http://www.kuria.zg.pl/index.php/diecezja/dekanaty/parafie/item/103-gorzow-wielkopolski-parafia-pw-sw-jozefa"
"Parafia pw. św. Wojciecha","","Gorzów Wielkopolski","ul. Gwiaździsta 12a, 66-400 Gorzów Wielkopolski","wojciech.gorzow.parafia.info.pl","","95-722-57-35, 95-720-27-63 odwiedź stronę www » ","ks. kan. mgr Andrzej SZKUDLAREK ","Gorzów Wlkp. – 7:00, 9:00, 10:30, 12:00, 14:30 (X do IV), 18:30.","","","","http://www.kuria.zg.pl/index.php/diecezja/dekanaty/parafie/item/161-gorzow-wielkopolski-parafia-pw-sw-wojciecha"
"Parafia pw. Trójcy Świętej","","Gorzów Wielkopolski","ul. Kostrzyńska 70","","","95-720-26-91 ","ks. kan. Henryk JACUŃSKI ","Gorzów Wlkp. pw. Trójcy Świętej (7:30, 9:30, 11:30, 18:00) CHRÓŚCIK – pw. św. Józefa (11:00) JASINIEC – pw. Najśw. Serca Pana Jezusa (9:30) ŁUPOWO – pw. MB Częstochowskiej (7:30, 13:00)","","","","http://www.kuria.zg.pl/index.php/diecezja/dekanaty/parafie/item/677-gorzow-wielkopolski-parafia-pw-trojcy-swietej"
"Parafia pw. Najświętszego Serca Pana Jezusa","","Gorzów Wlkp.","ul. Chodkiewicza 20, 66-400 Gorzów Wielkopolski","","","95-737-04-40 ","ks. Zygmunt Lisiecki ","Gorzów Wlkp. – 7:30, 9:00, 10:30, 12:00, 13:15, 18:30","","","","http://www.kuria.zg.pl/index.php/diecezja/dekanaty/parafie/item/144-parafia-pw-najswietszego-serca-pana-jezusa-gorzow-wielkopolski"
"Parafia pw. Niepokalanego Poczęcia Najświętszej Maryi Panny","","Gorzów Wlkp.","ul. Mieszka I 59, 66-400 Gorzów Wielkopolski","www.npnmp.pl","npnmp@wp.pl","95-736-80-33 email: Ten adres pocztowy jest chroniony przed spamowaniem. Aby go zob...","ks. lic. mgr Dariusz LUDWIKOWSKI ","Gorzów Wlkp. – 6:30, 7:30, 9:00, 10:30, 12:00, 13:30, 15:00 (od IX do V), 18:30.","","","","http://www.kuria.zg.pl/index.php/diecezja/dekanaty/parafie/item/145-gorzow-wlkp-parafia-pw-niepokalanego-poczecia-najswietszej-maryi-panny"
"Parafia pw. Pierwszych Męczenników Polski","","Gorzów Wlkp.","ul. Biskupa Wilhelma Pluty 7, 66-400 Gorzów Wielkopolski","www.meczennicy.pl","","95-722-91-53, 95-729-30-98 odwiedź stronę www » ","ks. prałat kan. Władysław PAWLIK ","7.30, 9.00, 10.30, 12.00, 13.15, 14.30 (od IX do VI), 17.00 (od IX do VI), 18.00, 20.30 (od VI do X). Szpital – 10:00.","","","","http://www.kuria.zg.pl/index.php/diecezja/dekanaty/parafie/item/146-gorzow-wlkp-parafia-pw-pierwszych-meczennikow-polski"
"Parafia pw. Podwyższenia Krzyża Świętego","","Gorzów Wlkp.","ul. Warszawska 51, 66-400 Gorzów Wielkopolski","www.parafiakrzyza.pl","","95-725-76-74 odwiedź stronę www » Historia parafii Początki parafii, zawsze katoli...","ks. prał at kan. Rafał ZIĘCIAK ","Gorzów Wlkp. (Podw. Krzyża Św.) – 7:30, 9:00, 10:30, 12:00, 13:15, 18:00 lub w VII i VIII 19:00; Dom Pomocy Społecznej – 10:00","","","","http://www.kuria.zg.pl/index.php/diecezja/dekanaty/parafie/item/147-parafia-pw-podwyzszenia-krzyza-swietego-gorzow-wielkopolski"
"Parafia pw. św. Antoniego Padewskiego i św. Stanisława Kostki","","Gorzów Wlkp.","pl. Staromiejski 1, 66-400 Gorzów Wielkopolski","www.kapucyni.gorzow.pl","capgorzow@wp.pl","95-722-34-77 email: Ten adres pocztowy jest chroniony przed spamowaniem. Aby go z...","o. Henryk Cieniuch OFMCap ","Gorzów Wlkp. – 7:00, 8:30, 10:00, 11:30, 13:00, 15:30, 18:00.","","","","http://www.kuria.zg.pl/index.php/diecezja/dekanaty/parafie/item/148-gorzow-wlkp-parafia-pw-sw-antoniego-padewskiego-i-sw-stanislawa-kostki"
"Parafia pw. św. Maksymiliana M. Kolbe","","Gorzów Wlkp.","ul. Czereśniowa 15, 66-400 Gorzów Wielkopolski","www.kolbe.zgora-gorzow.opoka.org.pl","kolbegorzow@zgora-gorzow.opoka.org.pl","95-732-06-90 email: Ten adres pocztowy jest chroniony przed spamowaniem. Aby go z...","ks. kan. mgr Rysz ard PRZEWŁOCKI ","Gorzów Wlkp. (św. M. Kolbe) – 7:30, 9:00, 10:30, 12:00, 13:30, 18:00; DPS – 15:00 (sob.); kaplica w szpitalu – 10:30","","","","http://www.kuria.zg.pl/index.php/diecezja/dekanaty/parafie/item/149-gorzow-wlkp-parafia-pw-sw-maksymiliana-m-kolbe"
"Parafia pw. Wniebowzięcia Najświętszej Maryi Panny","","Gorzów Wlkp.","ul. Obotrycka 10, 66-400 Gorzów Wielkopolski","www.katedragorzowska.pl","parafia@katedragorzowska.pl","95-722-33-58 email: Ten adres pocztowy jest chroniony przed spamowaniem. Aby go zob...","ks. prałat kan. dr Zbigniew KOBUS ","sobota: 18:00; niedziela: 6:00, 7:30, 9:00, 10:30, 12:00, 13:30, 15:00, 18:00, 19:30., 20:00 (w wakacje).","","","","http://www.kuria.zg.pl/index.php/diecezja/dekanaty/parafie/item/150-gorzow-wlkp-parafia-pw-wniebowziecia-najswietszej-maryi-panny"
"Parafia pw. Matki Łaski Bożej","","Górzyca","ul. Kostrzyńska 9, 69-113 Górzyca,","www.parafia.gorzyca.pl","","95-781-44-63, kom. 660-184-194 Odwiedź stronę www","ks. Władysław URBANIK ","GÓRZYCA – pw. Matki Łaski Bożej (18:30 - sobota, 9:00, 12:00) GOLICE – pw. Podwyższenia Krzyża Świętego (10:30) ŁUGI GÓRZYCKIE – część budynku mieszkalnego służy do kultu religijnego (17:00 - sobota)","","","","http://www.kuria.zg.pl/index.php/diecezja/dekanaty/parafie/item/689-gorzyca-parafia-pw-matki-laski-bozej"
"Parafia pw. Niepokalanego Poczęcia Najświętszej Maryi Panny","","Górzyn","Górzyn 2, 68-300 Lubsko","www.gorzyn.republika.pl","parafiagorzyn@interia.pl?subject=ze%20strony%20www","68-372-03-84 odwiedź stronę www Ten adres pocztowy jest chroniony przed spamowaniem. Aby go zobaczyć, ko...","ks. mgr Leszek BIAŁUGA ","GÓRZYN – pw. Niepokalanego Poczęcia NMP (8:30, 13:00) CHOCICZ – pw. MB Nieustającej Pomocy (10:00) LUTOL – pw. św. Wojciecha (11:30) OSIEK – kaplica w budynku wiejskim (18:00 - sobota) CHOCIMEK – kaplica cmentarna (15:30 - I niedz. miesiąca)","","","","http://www.kuria.zg.pl/index.php/diecezja/dekanaty/parafie/item/717-gorzyn-parafia-pw-niepokalanego-poczecia-najswietszej-maryi-panny"
"Parafia pw. św. Wawrzyńca","","Gozdnica","ul. Kombatantów 4, 68-130 Gozdnica","www.missiocm.org.pl","gozdnica@missiocm.org.pl?subject=ze%20strony%20www","68-360-10-43 odwiedź stronę www Ten adres pocztowy jest chroniony przed spamowaniem....","ks. Antoni KOTAPKA CM ","GOZDNICA – pw. św. Wawrzyńca (18:00 - sobota, 8:00, 11:00, 14:00 - IX-VI, 18:00) LIPA ŁUŻYCKA (LIPNA) – pw. św. Katarzyny (16:30 - X-IV, 19:30 - V-IX - sobota, 9:30)","","","","http://www.kuria.zg.pl/index.php/diecezja/dekanaty/parafie/item/722-gozdnica-parafia-pw-sw-wawrzynca"
"Parafia pw. Podwyższenia Krzyża Świętego","","Gralewo","Gralewo 7, Gralewo, 66-431 Santok","","","95-731-61-33 ","ks. Robert Węglewski ","Gralewo – 9:00, 12:00; Janczewo – 10:30","","","","http://www.kuria.zg.pl/index.php/diecezja/dekanaty/parafie/item/141-gralewo-parafia-pw-podwyzszenia-krzyza-swietego"
"Parafia pw. św. Marcina","","Grębocice","ul. Kościelna 32, 67-220 Grębocice","","","76 831-50-16 Historia parafii Pierwsza wiadomość o miejscowości pochodzi z 1366 r. W czasach...","","","","","","http://www.kuria.zg.pl/index.php/diecezja/dekanaty/parafie/item/128-grebocice-parafia-pw-sw-marcina"
"Parafia pw. św. Jana Chrzciciela","","Grodowiec","Grodowiec 24, Grodowiec, 67-220 Grębocice","www.grodowiec.pl","","76 831-51-64 odwiedź stronę www » Historia parafii Grodowiec - miejscowość pątnicza. Wzm...","ks. Mariusz Kołodziej ","Grodowiec – 8:15, 13:00, 17:00 - od IV do X; Komorniki – 10:00; Świnino – 11:30","","","","http://www.kuria.zg.pl/index.php/diecezja/dekanaty/parafie/item/135-grodowiec-parafia-pw-sw-jana-chrzciciela"
"Parafia pw. Narodzenia Najświętszej Maryi Panny","","Grotów","Grotów 78, 68-213 Lipinki Łużyckie","","gozdnica@missiocm.org.pl","68-375-20-97","ks. Piotr NOWICKI ","GROTÓW – pw. Narodzenia NMP (12:00) BOGUMIŁÓW – pw. Niepokalanego Poczęcia NMP (10:30) STRZESZOWICE – pw. Najśw. Serca Pana Jezusa (8:45)","","","","http://www.kuria.zg.pl/index.php/diecezja/dekanaty/parafie/item/723-grotow-parafia-pw-narodzenia-najswietszej-maryi-panny"
"Parafia pw. Matki Bożej Fatimskiej","","Gubin","ul. Długa 2a, 66-620 Gubin","","","68-359-68-00 ","ks. kan. Marian GRAŻEWICZ ","GUBIN – pw. MB Fatimskiej (7:45, 9:00, 11:00, 12:30, 18:00) BIEŻYCE – pw. św. Maksymiliana M. Kolbe (10:00) KANIÓW – pw. Narodzenia NMP (11:30)","","","","http://www.kuria.zg.pl/index.php/diecezja/dekanaty/parafie/item/682-gubin-parafia-pw-matki-bozej-fatimskiej"
"Parafia pw. Trójcy Świętej","","Gubin","ul. Królewska 1, 66-620 Gubin","","","68-359-44-01, wik. 68-359-51-01 ","ks. kan. Ryszard RUDKIEWICZ ","GUBIN – pw. Trójcy Świętej (8:00, 10:00, 12:00, 15:00, 18:00) SĘKOWICE – pw. Świętej Rodziny (12:00) GUBIN – kaplica pw. Najśw. Serca Pana Jezusa (8:30)","","","","http://www.kuria.zg.pl/index.php/diecezja/dekanaty/parafie/item/683-gubin-parafia-pw-trojcy-swietej"
"Parafia pw. Kościół Rektoralny pw. św. Alberta Chmielowskiego","","Głogów","Staromiejska 17, Głogów","","","","ks. Radosław Szymański ","","","","","http://www.kuria.zg.pl/index.php/diecezja/dekanaty/parafie/item/124-glogow-parafia-pw-kosciol-rektoralny-pw-sw-alberta-chmielowskiego"
"Parafia pw. Miłosierdzia Bożego","","Głogów","ul. Królowej Jadwigi 1, 67-200 Głogów","www.milosierdzieboze.info.pl","","76-831-38-50 odwiedź stronę www » Historia parafii Parafia pw. Miłosierdzia Bożego powstał...","ks. Janusz Idzik ","Głogów (Mił. Bożego) –w niedziele: 7:30, 9:30, 11:00, 12:30, 15:00, 18:00 ; w dzień powszedni: 08:00, 18:00","","","","http://www.kuria.zg.pl/index.php/diecezja/dekanaty/parafie/item/125-glogow-parafia-pw-milosierdzia-bozego"
"Parafia pw. Najświętszej Maryi Panny Królowej Polski","","Głogów","pl. Kard. Wyszyńskiego 1, 67-200 Głogów,","","","76-833-88-75","ks. kan. lic. mgr Witold PIETSCH ","GŁOGÓW – pw. NMP Królowej Polski (7:00, 8:45, 10:00 - od IX do VI, 11:15, 12:30, 16:00 - od IX do VI, 18:30; 21:00 - od VI do IX)","","","","http://www.kuria.zg.pl/index.php/diecezja/dekanaty/parafie/item/634-glogow-parafia-pw-najswietszej-maryi-panny-krolowej-polski"
"Parafia pw. św. Klemensa Dworzaka","","Głogów","ul. Sikorskiego 23, 67-200 Głogów","www.klemens.glogow.pl","","76 834-26-82, 76 835-67-88 odwiedź stronę www » Historia parafii Na mocy dekretu bpa Bolesława...","ks. Ludwik Obal CSsR ","Msze Św. w niedziele Głogów (św. Klemensa) – 6:30, 8:00, 9:30, 11:00, 12:30, 14:00, 16:00, 18:30; Słone – 10:00.","","","","http://www.kuria.zg.pl/index.php/diecezja/dekanaty/parafie/item/90-glogow-parafia-pw-sw-klemensa-dworzaka"
"Parafia pw. św. Maksymiliana Marii Kolbego","","Głogów","ul. Legnicka 2, 67-200 Głogów","www.maksymilian.malach.org","","76-835-23-99 odwiedź stronę www » Historia parafii Parafia powstała z podziału parafii w Jaczowie...","ks. Zbigniew Walaszek ","Głogów (św. M. Kolbe) – 7:00, 9:00, 11:00, 12:30, 18:30; Głogów (szpital) – 10:30; Głogów (DOS) – 16:00","","","","http://www.kuria.zg.pl/index.php/diecezja/dekanaty/parafie/item/91-glogow-parafia-pw-sw-maksymiliana-marii-kolbego"
"Parafia pw. św. Mikołaja","","Głogów","ul. Powstańców Śl. 1, 67-200 Głogów","www.mikolajglogow.pl","","76-833-36-01, wik. 76-833-29-08 odwiedź stronę www » ","ks. Stanisław Jaworecki ","6.30, 7:30, 8.30, 9.30, 11.00, 12.30, 16.00, 18.00.","","","","http://www.kuria.zg.pl/index.php/diecezja/dekanaty/parafie/item/126-glogow-parafia-pw-sw-mikolaja"
"Parafia pw. św. Wawrzyńca","","Głogów","ul. Okrężna 14, 67-200 Głogów","wawrzyniec.malach.org","","76-833-94-13 odwiedź stronę www » ","ks. Paweł Tokarczyk ","Głogów (św. Wawrzyńca) – 18:00 (sob.), 8:00, 10:00, 12:00, 16:00, (w okresie wakacyjnym 19:00); (Zakład Karny - obsługuje par. NMP Królowej Polski) – 16:00.","","","","http://www.kuria.zg.pl/index.php/diecezja/dekanaty/parafie/item/92-glogow-parafia-pw-sw-wawrzynca"
"Parafia pw. Wniebowzięcia Najświętszej Maryi Panny","","Głogów","pl. Kolegiacki 10, 67-200 Głogów","www.kolegiata.com.pl","kolegiata@op.pl","76-834-07-10 email: Ten adres pocztowy jest chroniony przed spamowaniem. Aby go zobaczyć, konie...","ks. Rafał Zendran ","Głogów - kaplica publiczna w Domu „Uzdrowienie Chorych” – 8:00, 12:30.","","","","http://www.kuria.zg.pl/index.php/diecezja/dekanaty/parafie/item/127-glogow-parafia-pw-wniebowziecia-najswietszej-maryi-panny"
"Parafia pw. Najświętszego Serca Pana Jezusa","","Iłowa","ul. Kościelna 4, 68-120 Iłowa","","","/fax 68-377-48-72","ks. Tadeusz LUBIATOWSKI CM ","IŁOWA – pw. Najśw. Serca Pana Jezusa 19:00 BOROWE – pw. MB Częstochowskiej 11:00; CZERNA – pw. Niepokalanego Poczęcia NMP 9:00; IŁOWA – pw. Chrystusa Króla 7:30, 9:00, 10:30, 12:00, 17:00","","","","http://www.kuria.zg.pl/index.php/diecezja/dekanaty/parafie/item/654-ilowa-parafia-pw-najswietszego-serca-pana-jezusa"
"Parafia pw. św. Andrzeja Apostoła","","Jabłonów","Jabłonów, ul. Zielona 12, 68-113 Brzeźnica,","","","68-377-13-67","ks. Andrzej KRAMER ","JABŁONÓW – pw. św. Andrzeja Ap. 8:00,12:00","","","","http://www.kuria.zg.pl/index.php/diecezja/dekanaty/parafie/item/655-jablonow-parafia-pw-sw-andrzeja-apostola"
"Parafia pw. świętych Apostołów Szymona i Judy Tadeusza","","Jaczów","ul. Główna 38, Jaczów, 67-200 Głogów","","","76 831-22-48","ks. Piotr Matus ","Jaczów – 8:00, 11:30; Jerzmanowa – 9:30, 13:00","","","","http://www.kuria.zg.pl/index.php/diecezja/dekanaty/parafie/item/93-jaczow-parafia-pw-swietych-apostolow-szymona-i-judy-tadeusza"
"Parafia pw. św. Jakuba Apostoła","","Jakubów","Jakubów 34, Jakubów, 67-223 Radwanice","","","76 831-22-70 Historia parafii Pierwsze wzmianki o istnieniu parafii i kościoła pochodzą z 99...","ks. Stanisław Czerwiński ","Jakubów – 12:00; Kurowice – 8:30; Nielubia – 10:00, 16:00","","","","http://www.kuria.zg.pl/index.php/diecezja/dekanaty/parafie/item/94-jakubow-parafia-pw-sw-jakuba-apostola"
"Parafia pw. Matki Bożej Różańcowej","","Jasień","ul. Kościelna 5, 68-320 Jasień Żarski","","","68-371-06-38 ","ks. prałat dr Roman WRÓBEL ","JASIEŃ – pw. MB Różańcowej (8:00, 10:30, 12:30, 18:00) JABŁONIEC – pw. św. Anny (11:00) JASIONNA – kaplica pw. Miłosierdzia Bożego (9:30)","","","","http://www.kuria.zg.pl/index.php/diecezja/dekanaty/parafie/item/718-jasien-parafia-pw-matki-bozej-rozancowej"
"Parafia pw. św. Mikołaja","","Jelenin","Jabłonów, ul. Zielona 12, 68-113 Brzeźnica,","","","68-377-13-67","ks. Andrzej KRAMER ","JELENIN – pw. św. Mikołaja 10:00","","","","http://www.kuria.zg.pl/index.php/diecezja/dekanaty/parafie/item/656-jelenin-parafia-pw-sw-mikolaja"
"Parafia pw. św. Michała Archanioła","","Jenin","ul. Gorzowska 100 a, 66-450 Jenin","","","95-751-01-81 ","ks. kan. mgr Zbigniew BUJANOWSKI ","JENIN – pw. św. Michała Arch. (8:00, 12:30) CHWAŁOWICE – pw. św. Antoniego Padewskiego (9:30) LUBCZYNO – pw. św. Ap. Piotra i Pawła (11:00)","","","","http://www.kuria.zg.pl/index.php/diecezja/dekanaty/parafie/item/678-jenin-parafia-pw-sw-michala-archaniola"
"Parafia pw. św. Anny","","Jordanowo","Jordanowo 2, 66-200 Świebodzin","www.parafiajordanowo.pl","parafiajordanowo@wp.pl?subject=ze%20strony%20www","68-381-10-76","ks. Jacek GRZELAK ","JORDANOWO – pw. św. Anny (8:00, 12:30) GLIŃSK – pw. św. Józefa (11:00) RUSINÓW – pw. św. Wawrzyńca (9:45) GLIŃSK – kaplica pw. NMP Nieustającej Pomocy w DPS","","","","http://www.kuria.zg.pl/index.php/diecezja/dekanaty/parafie/item/816-jordanowo-parafia-pw-sw-anny"
"Parafia pw. św. Antoniego","","Kamień Wielki","ul. Kościelna 2, 66-460 Witnica","","","95-751-58-78 ","ks. Tadeusz ZGÓRSKI ","KAMIEŃ WIELKI – pw. św. Antoniego (8:00, 12:00 KAMIEŃ MAŁY – pw. MB Różańcowej (10:00 MOŚCICE – pw. św. Wojciecha (9:15)","","","","http://www.kuria.zg.pl/index.php/diecezja/dekanaty/parafie/item/690-kamien-wielki-parafia-pw-sw-antoniego"
"Parafia pw. św. Wojciecha","","Kargowa","ul. Marchlewskiego 43, 66-120 Kargowa","www.parafiakargowa.pl","","68-352-50-15","ks. kan. mgr Marek PIETKIEWICZ ","KARGOWA – pw. św. Wojciecha (7:30, 16:30) KARGOWA – pw. św. Maksymiliana M. Kolbe (9:00, 12:15) KARSZYN – pw. św. Jadwigi (10:30) OBRA DOLNA – kaplica pw. NMP Królowej Polski (10:30)","","","","http://www.kuria.zg.pl/index.php/diecezja/dekanaty/parafie/item/785-kargowa-parafia-pw-sw-wojciecha"
"Parafia pw. św. Mikołaja","","Kaława","66-305 Kaława 63","","","95-741-13-70","ks. Dariusz BŁAŻEK SDB ","KAŁAWA – pw. św. Mikołaja (8:00, 12:30) BORYSZYN – pw. Zwiastowania NMP (9:30) KĘSZYCA – pw. św. Marcina (11:00) NIETOPEREK – pw. Podwyższenia Krzyża Świętego (11:00) SZUMIĄCA – pw. św. Józefa (8:00) WYSOKA – pw. św. Barbary (9:30)","","","","http://www.kuria.zg.pl/index.php/diecezja/dekanaty/parafie/item/743-kalawa-parafia-pw-sw-mikolaja"
"Parafia pw. Miłosierdzia Bożego","","Kęszyca Leśna","Kęszyca Leśna 21, 66-300 Międzyrzecz","","","Dodatkowe informacje","ks. dr Jacek BŁAŻKIEWICZ ","KĘSZYCA LEŚNA – pw. Miłosierdzia Bożego (9:30, 11:00)","","","","http://www.kuria.zg.pl/index.php/diecezja/dekanaty/parafie/item/744-keszyca-lesna-parafia-pw-milosierdzia-bozego"
"Parafia pw. Najświętszego Serca Pana Jezusa","","Kije","Kije 126a, 66-100 Sulechów","","par.kije@poczta.fm?subject=ze%20strony%20www","68-385-33-24","ks. Wacław ZABOROWSKI ","KIJE – pw. Najśw. Serca Pana Jezusa (17:00 lub 18:00 - sobota, 8:00, 13:00) KĘPSKO – pw. Niepokalanego Serca NMP (11:00) PAŁCK – pw. Zwiastowania NMP (9:30)","","","","http://www.kuria.zg.pl/index.php/diecezja/dekanaty/parafie/item/786-kije-parafia-pw-najswietszego-serca-pana-jezusa"
"Parafia pw. Nawiedzenia Najświętszej Maryi Panny","","Klenica","ul. B. Chrobrego 66, 66-133 Klenica","","","68-352-35-11","ks. dr Grzegorz KNIAŹ ","1. KLENICA – pw. Nawiedzenia NMP (8:00, 12:00) 2. DĄBRÓWKA – kaplica pw. św. Jadwigi (10:30)","","","","http://www.kuria.zg.pl/index.php/diecezja/dekanaty/parafie/item/787-klenica-parafia-pw-nawiedzenia-najswietszej-maryi-panny"
"Parafia pw. Narodzenia św. Jana Chrzciciela","","Kolsko","ul. Piastowska 4, 66-135 Kolsko","","","68-352-41-23","ks. kan. Zbigniew TARTAK ","KOLSKO – pw. Narodzenia św. Jana Chrzciciela (7:00, 10:00) KONOTOP – pw. św. Anny (8:30, 12:00)","","","","http://www.kuria.zg.pl/index.php/diecezja/dekanaty/parafie/item/769-kolsko-parafia-pw-narodzenia-sw-jana-chrzciciela"
"Parafia pw. Podwyższenia Krzyża Świętego","","Komorów","ul. Ceglana 2, Komorów, 66-620 Gubin","","","68-359-43-27 ","ks. kan. lic. mgr Ryszard KOLANO ","KOMORÓW – pw. Podw. Krzyża Świętego (9:00, 12:00) WAŁOWICE – pw. MB Rokitniańskiej (10:30)","","","","http://www.kuria.zg.pl/index.php/diecezja/dekanaty/parafie/item/684-komorow-parafia-pw-podwyzszenia-krzyza-swietego"
"Parafia pw. św. Jakuba Apostoła","","Konradowo","Konradowo 50, 67-400 Wschowa","www.parafia.konradowo.pl","","65-540-94-13","ks. Ryszard DUDEK","KONRADOWO – pw. św. Jakuba Ap. (8:00, 11:00) STARE DRZEWCE – pw. bł. Szymona z Lipnicy (18:00 – sobota, 9:30)","","","","http://www.kuria.zg.pl/index.php/diecezja/dekanaty/parafie/item/831-konradowo-parafia-pw-sw-jakuba-apostola"
"świętych Apostołów Szymona i Judy Tadeusza","","Kosieczyn","ul. Główna 57, Kosieczyn, 66-210 Zbąszynek","","","68-384-97-18","ks. kan. Zdzisław PRZYBYSZ ","KOSIECZYN – pw. świętych Ap. Piotra i Pawła 9:30, 12:30; KRĘCKO – pw. Przemienienia Pańskiego 11:00; NOWA WIEŚ – kaplica pw. MB Częstochowskiej 8:00","","","","http://www.kuria.zg.pl/index.php/diecezja/dekanaty/parafie/item/613-kosieczyn-swietych-apostolow-szymona-i-judy-tadeusza"
"Parafia pw. Matki Bożej Rokitniańskiej","","Kostrzyn nad Odrą","ul. Jana Pawła II 52, 66-470 Kostrzyn nad Odrą","www.rokitnianska.pl","","95-752-22-37 odwiedź stronę www ","ks. kan. mgr Wojciech BŁASZCZYK ","KOSTRZYN NAD ODRĄ – pw. MB Rokitniańskiej (7:30, 9:30, 11:00, 12:30, 14:00 18:00) OSIEDLE DRZEWICE – pw. MB Częstochowskiej (8:30, 12:00)","","","","http://www.kuria.zg.pl/index.php/diecezja/dekanaty/parafie/item/693-kostrzyn-nad-odra-parafia-pw-matki-bozej-rokitnianskiej"
"Parafia pw. Najświętszej Maryi Panny Matki Kościoła","","Kostrzyn nad Odrą","ul. Kard. St. Wyszyńskiego 2, 66-470 Kostrzyn nad Odrą","www.nmpkostrzyn.republika.pl","materdei.kostrzyn@wp.pl?subject=ze%20strony%20www","95-752-36-45 odwiedź stronę www Ten adres pocztowy jes...","ks. prałat kan. dr Wojciech SKÓRA ","KOSTRZYN NAD ODRĄ – pw. NMP Matki Kościoła (7:00, 9:30, 11:00, 12:30, 18:00, w VII i VIII także o 20:00) DĄBROSZYN – pw. św. Józefa (8:00, 11:00)","","","","http://www.kuria.zg.pl/index.php/diecezja/dekanaty/parafie/item/692-kostrzyn-nad-odra-parafia-pw-najswietszej-maryi-panny-matki-kosciola"
"Parafia pw. św. Marcina","","Kotla","ul. Parafialna 7, 67-240 Kotla","","","kom. 662-164-863","ks. mgr Andrzej SKOCZYLAS ","KOTLA – pw. św. Marcina (8:45, 11:45) GŁOGÓWKO – pw. MB Królowej Polski (10:30) SKIDNIÓW – pw. św. Józefa Rzemieślnika (13:30)","","","","http://www.kuria.zg.pl/index.php/diecezja/dekanaty/parafie/item/770-kotla-parafia-pw-sw-marcina"
"Parafia pw. świętych Apostołów Piotra i Pawła","","Kowalów","ul. Radowska 20, Kowalów, 69-110 Rzepin","","","95-759-93-12","ks. mgr Andrzej GWÓŹDŹ ","KOWALÓW – pw. św. Ap. Piotra i Pawła (8:00, 12:00) SERBÓW – pw. MB Królowej Polski (9:15) ŚWINIARY – pw. MB Częstochowskiej (10:30) STARKÓW – w budowie (19:00 - sobota) SUŁÓW – pw. św. Wojciecha (18:00 - sobota)","","","","http://www.kuria.zg.pl/index.php/diecezja/dekanaty/parafie/item/760-kowalow-parafia-pw-swietych-apostolow-piotra-i-pawla"
"Parafia pw. św. Jadwigi Śląskiej","","Koźla","Kożla 110, 66-008 Świdnica","","par.kozla@duchzg.pl?subject=ze%20strony%20www","68-327-31-68","ks. kan. mgr Andrzej PALEWSKI ","KOŹLA – pw. św. Jadwigi Śl. (8:30, 12:30) BOGACZÓW – pw. św. Wawrzyńca (10:30) GRABOWIEC – kaplica pw. Najświętszego Serca Pana Jezusa (12:30) LETNICA – pw. świętych Apostołów Szymona i Judy Tadeusza (10:00) LIPNO – pw. MB Częstochowskiej (11:15) WYSOKA – pw. św. Teresy od Dzieciątka Jezus (9:00)","","","","http://www.kuria.zg.pl/index.php/diecezja/dekanaty/parafie/item/840-kozla-parafia-pw-sw-jadwigi-slaskiej"
"Parafia pw. Matki Bożej Gromnicznej","","Kożuchów","pl. Matejki 3, 67-120 Kożuchów","www.parafiakozuchow.yoyo.pl/index.php","","68-355-35-50 odwiedź stronę www ","ks. lic. mgr Robert WĘGLEWSKI ","KOŻUCHÓW – pw. MB Gromnicznej (7:00, 8:30, 10:00, 11:15, 12:30, 18:00) LASOCIN – pw. Najśw. Serca Pana Jezusa (8:45) SOLNIKI – pw. św. Anny (10:00) STYPUŁÓW – pw. św. Jadwigi (11:30)","","","","http://www.kuria.zg.pl/index.php/diecezja/dekanaty/parafie/item/701-kozuchow-parafia-pw-matki-bozej-gromnicznej"
"Parafia pw. św. Stanisława Kostki","","Kołczyn","ul. Leśna 17a, 66-439 Kołczyn","","","661-959-155","ks. mgr Adam PAWŁOWSKI ","","KOŁCZYN – pw. św. Stanisława Kostki (10:00, od grudnia do 23 marca 10:15) KRZEMÓW – pw. MB Nieustającej Pomocy (18:00-sobota, na zmianę z Łukominem; od grudnia do 23 marca 16:00) ŁUKOMIN – pw. św. Anny (zob. wyżej) MASZKÓW – pw. św. Marii Magdaleny (13:00) RUDNA – pw. św. Mikołaja (17:00 w co drugą sobotę) RUDNICA – pw. Świętej Rodziny (11:30) STUDZIONKA – pw. Wniebowzięcia NMP (8:30, od grudnia do 23 marca 9:00)","","","http://www.kuria.zg.pl/index.php/diecezja/dekanaty/parafie/item/797-kolczyn-parafia-pw-sw-stanislawa-kostki"
"Parafia pw. św. Jadwigi Śląskiej","","Krosno Odrzańskie","ul. Świerczewskiego 6-7, 66-600 Krosno Odrz.,","http//:www.parafiadychow.zgora.pl","pardych@parafiadychow.zgora.pl?subject=ze%20strony%20www","68-383-50-34 odwiedź stronę www Ten adres pocztowy jest chroniony prze...","ks. kan. lic. mgr Zbigniew SAMOCIAK ","KROSNO ODRZ. – pw. św. Jadwigi (10:30, 12:00, 13:15) GOSTCHORZE – pw. Najśw. Serca Pana Jezusa (9:00) KROSNO ODRZ. – pw. św. Andrzeja Apostoła (7:30, 9:00, 18:00) SARBIA (12:00) KROSNO ODRZ. – kaplica szpitalna (10:15)","","","","http://www.kuria.zg.pl/index.php/diecezja/dekanaty/parafie/item/708-krosno-odrzanskie-parafia-pw-sw-jadwigi-slaskiej"
"Parafia pw. Trójcy Świętej","","Krzepielów","Krzepielów 134, 67-410 Sława","","","68-356-61-84","ks. Stefan KOTULA ","KRZEPIELÓW – pw. Trójcy Świętej (10:30) GROCHOWICE – pw. MB Częstochowskiej (9:00) KRĄŻKOWO – pw. św. Józefa Robotnika (12:00)","","","","http://www.kuria.zg.pl/index.php/diecezja/dekanaty/parafie/item/771-krzepielow-parafia-pw-trojcy-swietej"
"Parafia pw. Najświętszego Serca Pana Jezusa","","Krzepów","ul. Akacjowa 34, Krzepów, 67-200 Głogów","","","76 833-36-03 Historia parafii Parafia Krzepów jako samodzielna placówka duszpasterska pows...","ks. Ryszard Klimek ","Krzepów – 8:00, 11:00, 18:00; Szczyglice – 9:30","","","","http://www.kuria.zg.pl/index.php/diecezja/dekanaty/parafie/item/136-krzepow-parafia-pw-najswietszego-serca-pana-jezusa"
"Parafia pw. św. Antoniego Padewskiego","","Krzeszyce","ul. Słoneczna 24, 69-240 Krzeszyce","","","95-757-30-14","ks. mgr Dariusz KARPEZO ","KRZESZYCE – pw. św. Antoniego Padewskiego (8:00, 12:30) KRASNOŁĘG – pw. św. Kazimierza (9:30) MUSZKOWO – pw. św. Jana Chrzciciela (11:00) OKSZA – pw. MB Częstochowskiej (9:00) PRZEMYSŁAW – pw. Chrystusa Króla (10:15) ZASZCZYTOWO – kaplica pw. MB Nieustającej Pomocy (11:30)","","","","http://www.kuria.zg.pl/index.php/diecezja/dekanaty/parafie/item/798-krzeszyce-parafia-pw-sw-antoniego-padewskiego"
"Parafia pw. św. Jana Chrzciciela","","Kurów Wielki","Kurów Wielki 18, Kurów Wielki, 59-180 Gaworzyce","","","76 831-64-63 Historia parafii KOŚCIÓŁ PAR: P.w. św. Jana Chrzciciela, gotycki, z k...","ks. Roman Prosnowski ","Kurów Wielki – 9:30, 12:15; Szczepów – 18:00 (sobota).","","","","http://www.kuria.zg.pl/index.php/diecezja/dekanaty/parafie/item/97-kurow-wielki-parafia-pw-sw-jana-chrzciciela"
"Parafia pw. św. Michała Archanioła","","Kwielice","Kwielice 75, Kwielice, 67-220 Grębocice","","","76 831-50-04 Historia parafii Pierwsza wzmianka o parafii w Kwielicach pochodzi z 1297 r.....","ks. Stanisław Jażdżewski ","Kwielice – 8:00, 12:00; Obiszów – 9:15; Turów – 10:30.","","","","http://www.kuria.zg.pl/index.php/diecezja/dekanaty/parafie/item/137-kwielice-parafia-pw-sw-michala-archaniola"
"Parafia pw. św. Jadwigi","","Kłobuczyn","Kłobuczyn, Kłobuczyn","","","76-831-62-25 ","ks. Lech Świdziniewski ","Kłobuczyn – 11:00.","","","","http://www.kuria.zg.pl/index.php/diecezja/dekanaty/parafie/item/95-klobuczyn-parafia-pw-sw-jadwigi"
"Parafia pw. św. Bartłomieja Apostoła","","Kłoda","Kłoda, Gaworzyce","","","76-831-6463 obsługuje parafia Kurów Wielki ","vacat","KŁODA – 11:00; ŻUKOWICE – 8:00","","","","http://www.kuria.zg.pl/index.php/diecezja/dekanaty/parafie/item/96-kloda-parafia-pw-sw-bartlomieja-apostola"
"Parafia pw. Matki Bożej Różańcowej","","Kłodawa","ul. Gorzowska 50, 66-415 Kłodawa","www.parafia.klodawa.pl","","95-731-14-13 odwiedź stronę www » ","ks. mgr Tadeusz STACHURA ","Kłodawa: 8:00 (wakacje 7:30), 11:00, 18:00 (wakacje 20:00); Łośno 9:00; Santocko 10:00; Chwalęcice 12:00","","","","http://www.kuria.zg.pl/index.php/diecezja/dekanaty/parafie/item/151-klodawa-parafia-pw-matki-bozej-rozancowej"
"Parafia pw. Narodzenia Najświętszej Maryi Panny","","Laski Lubuskie","Laski Lubuskie 10, 69-113 Górzyca","","","95-759-31-85","ks. Jan ZYCH ","LASKI LUBUSKIE – pw. Narodzenia NMP (11:00) PAMIĘCIN – pw. Wniebowzięcia NMP (12:30) RADÓW – pw. Najświętszego Serca Pana Jezusa (14:00) RADÓWEK – pw. MB Różańcowej (9:30)","","","","http://www.kuria.zg.pl/index.php/diecezja/dekanaty/parafie/item/761-laski-lubuskie-parafia-pw-narodzenia-najswietszej-maryi-panny"
"Parafia pw. świętych Apostołów Piotra i Pawła","","Lemierzyce","ul. Krzywa 14, 66-437 Lemierzyce","","","95-757-12-96 ","ks. Grzegorz BIAŁOBŁOCKI ","LEMIERZYCE – pw. św. Ap. Piotra i Pawła (7:30, 12:00) GŁUCHOWO – pw. MB Szkaplerznej (10:30) OWNICE – pw. Niepokalanego Poczęcia NMP (9:00)","","","","http://www.kuria.zg.pl/index.php/diecezja/dekanaty/parafie/item/694-lemierzyce-parafia-pw-swietych-apostolow-piotra-i-pawla"
"Parafia pw. Wniebowzięcia Najświętszej Maryi Panny","","Leśniów Wielki","Leśniów Wielki 82, 66-016 Czerwieńsk","","","68-321-18-20 ","ks. mgr Dariusz GLAMA ","LEŚNIÓW WIELKI – pw. Wniebowzięcia NMP (8:00) DRZONÓW – pw. św. Mikołaja (9:15) ŁAGÓW – pw. Podwyższenia Krzyża Świętego (10:30) SUDOŁ – kaplica pw. Miłosierdzia Bożego (16:00) TRZEBULE – pw. św. Jana Chrzciciela (12:00)","","","","http://www.kuria.zg.pl/index.php/diecezja/dekanaty/parafie/item/709-lesniow-wielki-parafia-pw-wniebowziecia-najswietszej-maryi-panny"
"Parafia pw. Matki Bożej Królowej Polski","","Leszno Górne","ul. Szprotawska 20 a, 67-321 Leszno Górne","","","68-376-62-56","ks. mgr Janusz URBAN ","LESZNO GÓRNE – pw. MB Królowej Polski (8:00, 11:00) LESZNO DOLNE – Wniebowzięcia NMP (9:30) SZPROTAWKA (19:00 - sobota) LESZNO DOLNE – kaplica w domu rekolekcyjnym, Leszno Dolne 38","","","","http://www.kuria.zg.pl/index.php/diecezja/dekanaty/parafie/item/806-leszno-gorne-parafia-pw-matki-bozej-krolowej-polski"
"Parafia pw. św. Bartłomieja Apostoła","","Lgiń","Lgiń 60, 67-400 Wschowa","","","65-540-03-69","ks. Ryszard MARCZYK ","LGIŃ – pw. św. Bartłomieja Ap. (7:45, 12:00, 18:30 - sobota, we wakacje) HETMANICE – pw. św. Jana (9:00) NOWA WIEŚ – kaplica pw. Niepokalanego Poczęcia NMP (10:30)","","","","http://www.kuria.zg.pl/index.php/diecezja/dekanaty/parafie/item/832-lgin-parafia-pw-sw-bartlomieja-apostola"
"Parafia pw. św. Antoniego Padewskiego","","Lipinki Łużyckie","ul. Główna 11, 68-213 Lipinki Łużyckie","","","68-362-62-9542","ks. Andrzej TOMKOWSKI ","LIPINKI ŁUŻYCKIE – pw. św. Antoniego Padewskiego 18:00 - sobota, 8:00, 11:00 BORUSZYN – kaplica pw. św. Rozalii 12:30; PIETRZYKÓW – pw. Dobrego Pasterza 9:30","","","","http://www.kuria.zg.pl/index.php/diecezja/dekanaty/parafie/item/647-lipinki-luzyckie-parafia-pw-sw-antoniego-padewskiego"
"Parafia pw. Narodzenia Najświętszej Maryi Panny","","Lipki Wielkie","ul. Szosowa 75, Lipki Wielkie, 66-431 Santok","","paragora@o2.pl?subject=ze%20strony%20www","95-731-23-67 Ten adres pocztowy jest chroniony przed spamowaniem. Aby go zobaczyć,...","ks. mgr Krzysztof TOMASZEWICZ ","LIPKI WIELKI – pw. Narodzenia NMP (8:30, 12:00) GOSZCZANOWIEC – pw. św. Teresy od Dzieciątka Jezus (11:00) GOSZCZANOWO – pw. św. Jana M. Vianney’a (9:30) GOSZCZANÓWEK – pw. św. Jana Chrzciciela (12:15) LIPKI MAŁE – pw. św. Stanisława Kostki (16:30 - sobota) NOWE POLICHNO – pw. św. Izydora (10:00)","","","","http://www.kuria.zg.pl/index.php/diecezja/dekanaty/parafie/item/752-lipki-wielkie-parafia-pw-narodzenia-najswietszej-maryi-panny"
"Parafia pw. Najświętszego Serca Pana Jezusa","","Lubięcin","67-108 Lubięcin 81","","","68-388-15-66","ks. Tadeusz CZAPKOWICZ ","LUBIĘCIN – pw. Najśw. Serca Pana Jezusa (800, 12:00) JODŁÓW – pw. Boga Ojca (11:00) LIPINY – kaplica pw. Niepokalanego Poczęcia NMP (10:00)","","","","http://www.kuria.zg.pl/index.php/diecezja/dekanaty/parafie/item/772-lubiecin-parafia-pw-najswietszego-serca-pana-jezusa"
"Parafia pw. Świętej Rodziny","","Lubieszów","Lubieszów 60a, 67-100 Nowa Sól","","","68-378-05-81 ","ks. lic. mgr Sławomir PRZYCHODNY ","LUBIESZÓWpw. Świętej Rodziny – (8:00, 13:00) RUDNO – pw. świętych Apostołów Szymona i Judy Tadeusza (9:30) STUDZIENIEC – pw. św. Wawrzyńca (11:30) WROCISZÓW – msza w sali biblioteki (sobota – 13:00)","","","","http://www.kuria.zg.pl/index.php/diecezja/dekanaty/parafie/item/730-lubieszow-parafia-pw-swietej-rodziny"
"Parafia pw. Wniebowzięcia Najświętszej Maryi Panny","","Lubiszyn","ul. Pocztowa 8, 66-433 Lubiszyn","","","95-731-18-84 ","ks. Krzysztof CZEKAJ ","LUBISZYN – pw. Wniebowzięcia NMP (8:00, 11:30) BRZEŹNO – pw. Narodzenia NMP (10:15) TARNÓW – pw. św. Wojciecha (9:00)","","","","http://www.kuria.zg.pl/index.php/diecezja/dekanaty/parafie/item/679-lubiszyn-parafia-pw-wniebowziecia-najswietszej-maryi-panny"
"Parafia pw. Matki Bożej Różańcowej","","Lubniewice","ul. Osadników Wojskowych 25, 69-210 Lubniewice","","","95-755-75-00","ks. Antoni BOŁBOT ","LUBNIEWICE – pw. MB Różańcowej (9:00, 13:00, 18:00) JARNATÓW – pw. MB Szkaplerznej (10:30) MIECHÓW – pw. św. Jana Chrzciciela (11:30)","","","","http://www.kuria.zg.pl/index.php/diecezja/dekanaty/parafie/item/799-lubniewice-parafia-pw-matki-bozej-rozancowej"
"Parafia pw. św. Józefa","","Lubno","pl. Wyzwolenia 5a, 66-427 Lubno","","","95-731-41-33 ","ks. Tomasz BIELACHOWICZ ","LUBNO – pw. św. Józefa (8:00, 13:00) STANOWICE – pw. MB Królowej Świata (9:30) WYSOKA – pw. św. Mikołaja (11:00)","","","","http://www.kuria.zg.pl/index.php/diecezja/dekanaty/parafie/item/680-lubno-parafia-pw-sw-jozefa"
"Parafia pw. św. Jana Chrzciciela","","Lubrza","ul. 3-go Maja 3, 66-218 Lubrza","","","68-381-30-95","ks. mgr Zygmunt GROCHOWIAK SDB ","LUBRZA – pw. św. Jana Chrzciciela (8:30, 11:30) BUCZE – kaplica pw. św. Jana Bosko (13:00) MOSTKI – pw. MB Częstochowskiej (10:00) NOWA WIOSKA – pw. św. Anny (10:00) PRZEŁAZY – pw. Podwyższenia Krzyża Świętego (11:30) STAROPOLE – kaplica pw. MB Różańcowej (8:30) ZAGAJE – kaplica pw. św. Barbary (13:00)","","","","http://www.kuria.zg.pl/index.php/diecezja/dekanaty/parafie/item/817-lubrza-parafia-pw-sw-jana-chrzciciela"
"Parafia pw. Nawiedzenia Najświętszej Maryi Panny","","Lubsko","ul. Kościuszki 18, 68-300 Lubsko","","","68-372-06-28 ","ks. kan. Marian BUMBUL ","LUBSKO – pw. Nawiedzenia NMP (7:00, 8:30, 10:00, 11:30, 13:00, 18:00) RASZYN – pw. św. Izydora Rolnika (8:30) BIAŁKÓW – kaplica pw. NMP Królowej Polski (8:45) BUDZIECHÓW – pw. św. Józefa Robotnika (10:00) LUBSKO – kaplica pw. MB Bolesnej w DPS (16:00 - sobota) LUBSKO – kaplica szpitalna pw. św. Łukasza (18:00 - sobota)","","","","http://www.kuria.zg.pl/index.php/diecezja/dekanaty/parafie/item/719-lubsko-parafia-pw-nawiedzenia-najswietszej-maryi-panny"
"Parafia pw. św. Wojciecha","","Maszewo Lubuskie","66-614 Maszewo Lub. 69","","","68-383-13-16 ","ks. mgr Piotr KĘPKA ","MASZEWO LUBUSKIE – pw. Podw. Krzyża Świętego (8:30, 12:30) LUBOGOSZCZ – pw. MB Częstochowskiej (14:00) RYBAKI – pw. Najświętszego Serca Pana Jezusa (10:30) RADOMICKO – kaplica pw. Jezusa Miłosiernego (18:00 - sobota)","","","","http://www.kuria.zg.pl/index.php/diecezja/dekanaty/parafie/item/710-maszewo-lubuskie-parafia-pw-sw-wojciecha"
"Parafia pw. Narodzenia Najświętszej Maryi Panny","","Małomice","ul. Kościelna 19, 67-320 Małomice","","","68-376-90-21","ks. kan. Alojzy BUDNIK ","MAŁOMICE – pw. Narodzenia NMP (7:30, 10:30, 12:30, 17:00) BUKOWINA BOBRZAŃSKA – pw. MB Różańcowej (9:00)","","","","http://www.kuria.zg.pl/index.php/diecezja/dekanaty/parafie/item/807-malomice-parafia-pw-narodzenia-najswietszej-maryi-panny"
"Parafia pw. Pierwszych Męczenników Polski","","Międzyrzecz","ul. Wita Stwosza 21, 66-300 Międzyrzecza 6, 66-300 Międzyrzecz,","www.sanktuarium.miedzyrzecz.pl","","95-742-13-60, kom. 515-070-634","","MIĘDZYRZECZ – pw. Pierwszych Męczenników Polski (7:00, 9:00, 10:30, 12:00, 18:00, 20:00 – VII i VIII) GORZYCA – pw. Najświętszego Serca Pana Jezusa (10:00) ŚWIĘTY WOJCIECH – pw. św. Wojciecha (11:15) MIĘDZYRZECZ – kaplica pw. św. Dobrego Łotra w Areszcie Śledczym, ul. Młyńska 21 (15:00, 15:45- sobota)","","","","http://www.kuria.zg.pl/index.php/diecezja/dekanaty/parafie/item/746-miedzyrzecz-parafia-pw-pierwszych-meczennikow-polski"
"Parafia pw. św. Jana Chrzciciela","","Międzyrzecz","ul. Spokojna 6, 66-300 Międzyrzecz","www.janmcz.zgora-gorzow.opoka.org.pl","janmcz@zgora-gorzow.opoka.org.pl?subject=ze%20strony%20www","95-741-25-40","ks. kan. mgr Marek WALCZAK ","1. MIĘDZYRZECZ – pw. św. Jana Chrzciciela (7:00, 9:00, 10:30, 12:00, 16:00, 18:00) MIĘDZYRZECZ – kaplica szpitalna pw. św. Józefa (7:15)","","","","http://www.kuria.zg.pl/index.php/diecezja/dekanaty/parafie/item/747-miedzyrzecz-parafia-pw-sw-jana-chrzciciela"
"Parafia pw. św. Wojciecha","","Międzyrzecz","ul. Ogrodowa 7, 66-300 Międzyrzecz;","swietywojciech.republika.pl","swietywojciech@poczta.fm?subject=ze%20strony%20www","95-741-25-90","ks. mgr Janusz BREMBOR ","MIĘDZYRZECZ – pw. św. Wojciecha (7:30, 9:00, 10:30, 12:00, 15:00, 18:00, 20:00 - w VII i VIII) ROJEWO – kaplica pw. Bł. Matki Teresy z Kalkuty (10:30) * GŁĘBOKIE – kaplica w ośrodku wczasowym (10:30 - w VII i VIII)","","","","http://www.kuria.zg.pl/index.php/diecezja/dekanaty/parafie/item/748-miedzyrzecz-parafia-pw-sw-wojciecha"
"Parafia pw. św. Jerzego","","Mirocin Górny","Mirocin Górny 25, 67-128 Mirocin Dolny","","","68-355-22-83 ","ks. Andrzej JANCIA ","MIROCIN GÓRNY – pw. św. Jerzego (7:30, 11:00) MIROCIN DOLNY – pw. Wniebowzięcia NMP (12:30) WICHÓW – pw. św. Marcina (9:00) PRZYLASKI – pw. Matki Bożej Fatimskiej (8:00)","","","","http://www.kuria.zg.pl/index.php/diecezja/dekanaty/parafie/item/703-mirocin-gorny-parafia-pw-sw-jerzego"
"Parafia pw. św. Barbary","","Mirostowice Dolne","pl. Kościelny 23, 68-206 Mirostowice Dolne,","","","68-375-08-322","ks. kan. Stanisław ŁUKIEŃCZUK ","MIROSTOWICE DOLNE – pw. św. Barbary 17:00 - sobota, 8:00, 12:30; MIROSTOWICE GÓRNE – pw. MB Częstochowskiej 11:00; JANKOWA ŻAGAŃSKA – pw. św. Stanisława Kostki 9:30","","","","http://www.kuria.zg.pl/index.php/diecezja/dekanaty/parafie/item/646-mirostowice-dolne-parafia-pw-sw-barbary"
"Parafia pw. św. Bartłomieja Apostoła","","Miłaków","Miłaków 11, 67-124 Nowe Miasteczko","","","68-388-83-14 ","ks. Ryszard MULAWA ","MIŁAKÓW – pw. św. Bartłomieja Ap. (13:00) BUKOWICA – pw. św. Andrzeja Ap. (1015) ZIMNA BRZEŹNICA – pw. MB Częstochowskiej (11:30) ŻUKÓW – pw. NMP Bolesnej (9:00)","","","","http://www.kuria.zg.pl/index.php/diecezja/dekanaty/parafie/item/702-milakow-parafia-pw-sw-bartlomieja-apostola"
"Parafia pw. św. Mikołaja","","Mycielin","Mycielin 84, 67-312 Niegosławice","","","68-378-13-14","ks. dr hab. Remigiusz KRÓL ","MYCIELIN – pw. św. Mikołaja (10:30) DŁUGIE – pw. św. Anny (9:00, 13:00)","","","","http://www.kuria.zg.pl/index.php/diecezja/dekanaty/parafie/item/808-mycielin-parafia-pw-sw-mikolaja"
"Parafia  pw. św. Jana Kantego","","Niegosław","Niegosław 68, 66-530 Drezdenko","","","95-762-43-26","ks. lic. mgr Tomasz FRANIECZEK CRL ","NIEGOSŁAW – pw. św. Jana Kantego 7:45, 11:30; CHEŁST – pw. MB Królowej Polski 10:15; KARWIN – pw. Podwyższenia Krzyża Świętego 9:00","","","","http://www.kuria.zg.pl/index.php/diecezja/dekanaty/parafie/item/620-niegoslaw-parafia-pw-sw-jana-kantego"
"Parafia pw. św. Anny","","Niegosławice","Niegosławice 52, 67-312 Niegosławice","","parafia-niegoslawice@wp.pl?subject=ze%20strony%20www","68-378-10-09","ks. kan. lic. mgr Jerzy SZAKIEL ","NIEGOSŁAWICE – pw. św. Anny (8:15, 11:30) PRZECŁAW – pw. św. Jakuba (10:00) SUCHA DOLNA – pw. Najświętszego Serca Pana Jezusa (13:00) NIEGOSŁAWICE – kaplica domowa na plebanii (w okresie zimowym)","","","","http://www.kuria.zg.pl/index.php/diecezja/dekanaty/parafie/item/809-niegoslawice-parafia-pw-sw-anny"
"Parafia pw. Najświętszego Serca Pana Jezusa","","Nietkowice","Nietkowice 65, 66-100 Sulechów","","","68-352-22-09","ks. dr Andrzej DRUTEL ","NIETKOWICE – pw. Najśw. Serca Pana Jezusa (8:30, 13:00) BRODY – pw. Niepokalanego Poczęcia NMP (11:30) POMORSKO – pw. św. Wojciecha (10:00)","","","","http://www.kuria.zg.pl/index.php/diecezja/dekanaty/parafie/item/789-nietkowice-parafia-pw-najswietszego-serca-pana-jezusa"
"Parafia pw. Trójcy Świętej","","Niwica","Niwica 22, 68-210 Nowe Czaple","","","68-375-35-09 ","ks. Marek CZERNIAWSKI ","NIWICA – pw. Trójcy Świętej (8:00, 11:30) DĄBROWA ŁUŻYCKA – kaplica pw. MB Częstochowskiej (9:30)","","","","http://www.kuria.zg.pl/index.php/diecezja/dekanaty/parafie/item/725-niwica-parafia-pw-trojcy-swietej"
"Parafia pw. św. Antoniego","","Nowa Sól","ul. Piłsudskiego 14, 67-100 Nowa Sól","nowasol.kapucyni.pl","","68-387-26-54 zobacz stronę www ","o. Grzegorz MARSZAŁKOWSKI OFMCap. ","NOWA SÓL – pw. św. Antoniego (7:00, 8:30, 10:00, 11:30, 13:00, 18:30) NOWA SÓL – pw. św. Barbary (9:00, 11:00, 16:00, 19:30)","","","","http://www.kuria.zg.pl/index.php/diecezja/dekanaty/parafie/item/736-nowa-sol-parafia-pw-sw-antoniego"
"Parafia pw. św. Józefa Rzemieślnika","","Nowa Sól","ul. Kard. St. Wyszyńskiego 1, 67-100 Nowa Sól","www.swiety-jozef.pl","","68-387-70-35 odwiedź stronę www ","ks. prałat kan. mgr Józef KOCOŁ ","NOWA SÓL – pw. św. Józefa Rzem. (7:30, 9:30, 11:00, 12:30, 14:00, 18:30) NOWA SÓL – kaplica szpitalna pw. MB Częstochowskiej, ul. Chałubińskiego 7 (7:00)","","","","http://www.kuria.zg.pl/index.php/diecezja/dekanaty/parafie/item/737-nowa-sol-parafia-pw-sw-jozefa-rzemieslnika"
"Parafia pw. św. Michała Archanioła","","Nowa Sól","ul. Kościelna 2, 67-100 Nowa Sól","michal-ns.grt.pl","","68-387-29-71 odwiedź stronę www ","ks. kan. Jan TRUTY ","NOWA SÓL – pw. św. Michała Arch. (8:00, 9:30, 11:00, 12:00, 16:00, 18:00) KIEŁCZ – pw. Podwyższenia Krzyża Świętego (9:00, 10:45) NOWE ŻABNO – pw. MB Fatimskiej (12:00)","","","","http://www.kuria.zg.pl/index.php/diecezja/dekanaty/parafie/item/738-nowa-sol-parafia-pw-sw-michala-archaniola"
"Parafia pw. Wniebowzięcia Najświętszej Maryi Panny","","Nowa Sól","ul. Kamienna 39, 67-100 Nowa Sól","parafiawnmp.pl","","tel. 68-458-58-78 odwiedź stronę www ","ks. kan. Jerzy FRĄCKOWIAK ","NOWA SÓL – pw. Wniebowzięcia NMP (8:00, 9:30 11:00, 12:30, 18:00)","","","","http://www.kuria.zg.pl/index.php/diecezja/dekanaty/parafie/item/739-nowa-sol-parafia-pw-wniebowziecia-najswietszej-maryi-panny"
"Parafia pw. Narodzenia Najświętszej Maryi Panny","","Nowe Kramsko","ul. Powstańców Wlkp. 29, 66-111 Nowe Kramsko","","","/fax: 68-351-11-71","ks. kan. mgr Waldemar SOŁTYSIAK ","NOWE KRAMSKO – pw. Narodzenia NMP (8:00, 10:00) WOJNOWO – pw. MB Częstochowskiej (12:00)","","","","http://www.kuria.zg.pl/index.php/diecezja/dekanaty/parafie/item/790-nowe-kramsko-parafia-pw-narodzenia-najswietszej-maryi-panny"
"Parafia pw. św. Marii Magdaleny","","Nowe Miasteczko","ul. Polna 2, 67-124 Nowe Miasteczko","","","68-388-82-29 ","ks. kan. Jan SOBOLEWSKI ","NOWE MIASTECZKO – pw. św. Marii Magdaleny (7:30, 18:00) BORÓW POLSKI – pw. św. Klemensa (13:30) GOŁASZYN – pw. św. Marcina (10:30) NOWE MIASTECZKO – pw. Opatrzności Bożej (9:00, 12:00) POPĘSZYCE – pw. św. Michała (10:30) REJÓW – kaplica w byłej szkole (15:30)","","","","http://www.kuria.zg.pl/index.php/diecezja/dekanaty/parafie/item/704-nowe-miasteczko-parafia-pw-sw-marii-magdaleny"
"Parafia pw. Wniebowzięcia Najświętszej Maryi Panny","","Nowogród Bobrzański","ul. Kościelna 2, 66-011 Nowogród Bobrzański","","","68-327-66-16 ","ks. Mirosław GAS ","NOWOGRÓD BOBRZAŃSKI – pw. Wniebowzięcia NMP (17:00 - sobota, 8:00, 12:30) KLĘPINA – pw. MB Cudownego Medalika (12:00) NOWOGRÓD BOBRZAŃSKI – pw. św. Bartłomieja Ap. (9:30, 11:00, 18:00) Msza św. w Zakładzie karnym w Krzywańcu – 16:00 (sobota)","","","","http://www.kuria.zg.pl/index.php/diecezja/dekanaty/parafie/item/721-nowogrod-bobrzanski-parafia-pw-wniebowziecia-najswietszej-maryi-panny"
"Parafia pw. św. Stanisława Kostki","","Ogardy","Ogardy 23, 66-500 Strzelce Kraj.","","","95-763-54-93","ks. Henryk KALISZUK ","OGARDY – pw. św. Stanisława Kostki (18:00 - sobota, 12:00) GILÓW – kaplica pw. Niepokalanego Poczęcia NMP (8:00) LIPIE GÓRY – pw. św. Józefa (10:30) PIELICE – pw. MB Nieustającej Pomocy (9:15)","","","","http://www.kuria.zg.pl/index.php/diecezja/dekanaty/parafie/item/778-ogardy-parafia-pw-sw-stanislawa-kostki"
"pw. św. Michała Archanioła","","Olbrachtów","Olbrachtów 39, 68-200 Żary,","","","68-374-87-51","ks. Zygmunt CZEPIRSKI ","OLBRACHTÓW – pw. Nawiedzenia NMP 8:00, 11:00; PIOTRÓW – pw. św. Michała Archanioła 9:30","","","","http://www.kuria.zg.pl/index.php/diecezja/dekanaty/parafie/item/645-olbrachtow-pw-sw-michala-archaniola"
"Parafia pw. Wniebowzięcia Najświętszej Maryi Panny","","Opalewo","Opalewo 22, 66-225 Szczaniec","","","68-381-16-92","ks. mgr Jan SZULIM ","OPALEWO – pw. Wniebowzięcia NMP (11:00) BRUDZEWO – kaplica pw. św. Alberta Chmielowskiego (18:00 - sobota) DĄBRÓWKA MAŁA – pw. Chrystusa Króla (12:30) KOŹMINEK – pw. św. Stanisława Bpa (8:00) SMARDZEWO – pw. Nawiedzenia NMP (9:30)","","","","http://www.kuria.zg.pl/index.php/diecezja/dekanaty/parafie/item/825-opalewo-parafia-pw-wniebowziecia-najswietszej-maryi-panny"
"Parafia pw. świętych Apostołów Piotra i Pawła","","Osiecznica","ul. Ks. Emila Wilguckiego 1, 66-600 Osiecznica","www.parafiaosiecznica.pl","biuro@parafiaosiecznica.eu?subject=ze%20strony%20www","68-383-70-10, 68-383-07-56 odwiedź stronę www Ten adres pocztowy jest...","ks. mgr Andrzej NOWAK ","OSIECZNICA – pw. św. Ap. Piotra i Pawła (17:00 - sobota), 11:30) CZETOWICE – pw. MB Bolesnej (8:30) ŁOCHOWICE – pw. Chrystusa Króla (10:00) SKÓRZYN – pw. św. Stanisława Bpa (13:00) BIELÓW – pw. Pierwszych Męczenników Polski (18:00 - sobota, w okresie zimowym – 16:00)","","","","http://www.kuria.zg.pl/index.php/diecezja/dekanaty/parafie/item/711-osiecznica-parafia-pw-swietych-apostolow-piotra-i-pawla"
"Parafia pw. św. Jakuba Apostoła","","Ośno Lubuskie","ul. Różana 6, 69-220 Ośno Lub.","","","95-757-57-57","ks. kan. lic. mgr Piotr GRABOWSKI ","OŚNO LUBUSKIE – pw. św. Jakuba Ap. (8:00, 10:30, 12;15, 18:00) GRONÓW – pw. św. Piusa X (13:15) SIENNO – pw. MB Ostrobramskiej (13:15) RADACHÓW – pw. Wniebowzięcia NMP (9:15) POŁĘCKO – pw. św. Kazimierza (9:15)","","","","http://www.kuria.zg.pl/index.php/diecezja/dekanaty/parafie/item/762-osno-lubuskie-parafia-pw-sw-jakuba-apostola"
"Parafia pw. świętych Fabiana i Sebastiana","","Osowa Sień","67-405 Osowa Sień","","","65-540-61-85","ks. Zbigniew GARBAREK ","OSOWA SIEŃ – pw. św. Fabiana i Sebastiana (8:30, 11:30)","","","","http://www.kuria.zg.pl/index.php/diecezja/dekanaty/parafie/item/834-osowa-sien-parafia-pw-swietych-fabiana-i-sebastiana"
"Parafia pw. Podwyższenia Krzyża Świętego","","Otyń","ul. Moniuszki 4, 67-106 Otyń","www.parafia-otyn.pl","kancelaria@parafia-otyn.pl?subject=ze%20strony%20www","68-355-02-18 odwiedź stronę www Ten adres pocztowy jest chroniony przed spamowaniem. Aby go zo...","ks. kan. mgr Grzegorz SOPNIEWSKI ","OTYŃ – pw. MB Różańcowej (8:00, 12:30, 18:00 - w zimie 16:00) BOBROWNIKI – kaplica pw. Wniebowzięcia NMP (11:00) NIEDORADZ – pw. św. Jakuba (9:30, 11:00) ZAKĘCIE – pw. Najświętszego Serca Pana Jezusa (9:30)","","","","http://www.kuria.zg.pl/index.php/diecezja/dekanaty/parafie/item/740-otyn-parafia-pw-podwyzszenia-krzyza-swietego"
"Parafia pw. św. Bartłomieja","","Ołobok","ul. Kościelna 3, 66-211 Ołobok","","","68-381-21-18","ks. kan. inż. mgr Tadeusz WIELGOLASKI ","OŁOBOK – pw. św. Bartłomieja (17:00 - sobota, w okresie wakacyjnym: 18:00, 12:00) CHOCIULE – pw. Wniebowzięcia NMP (10:30, w okresie wakacyjnym: 9:00) ROKIETNICA – pw. św. Jadwigi (8:00 - w okresie wakacyjnym: sobota 17:00) WĘGRZYNICE – pw. Najświętszego Serca Pana Jezusa (9:00 - w okresie wakacyjnym: sobota 18:00) W okresie wakacyjnym dodatkowo msza św. polowa w Niesulicach.","","","","http://www.kuria.zg.pl/index.php/diecezja/dekanaty/parafie/item/824-olobok-parafia-pw-sw-bartlomieja"
"Parafia pw. bł. Karoliny Kózki","","Połupin","Połupin, ul. Słoneczna 10a, 66-600 Krosno Odrz.","","","68-383-69-35 ","ks. mgr Andrzej CIEŚLAK ","POŁUPIN – pw. bł. Karoliny Kózki (18:00 - sobota, 10:30) NOWY ZAGÓR – pw. św. Antoniego Padewskiego (9:00) STARY RADUSZEC – pw. św. Huberta (12:00) STRUMIENNO – pw. MB Fatimskiej (13:00)","","","","http://www.kuria.zg.pl/index.php/diecezja/dekanaty/parafie/item/713-polupin-parafia-pw-bl-karoliny-kozki"
"Parafia pw. Miłosierdzia Bożego","","Przemków","ul. Zbawiciela 1, 59-170 Przemków","","","76-831-03-88","ks. kan. Mirosław WERŁOS ","PRZEMKÓW – pw. Miłosierdzia Bożego (8:00, 9:30, 11:00, 12:15, 17:00)","","","","http://www.kuria.zg.pl/index.php/diecezja/dekanaty/parafie/item/810-przemkow-parafia-pw-milosierdzia-bozego"
"Parafia pw. Wniebowzięcia Najświętszej Maryi Panny","","Przemków","ul. Ratuszowa 6, 59-170 Przemków","","","76-831-93-02","ks. lic. mgr Krzysztof MRUKOWICZ ","PRZEMKÓW – pw. Wniebowzięcia NMP (8:00, 10:30, 12:00, 17:00) KRĘPA – kaplica pw. Miłosierdzia Bożego (9:15) WYSOKA – pw. św. Marcina (9:15) PIOTROWICE – pw. Chrystusa Króla (9:15)","","","","http://www.kuria.zg.pl/index.php/diecezja/dekanaty/parafie/item/811-przemkow-parafia-pw-wniebowziecia-najswietszej-maryi-panny"
"Parafia pw. Niepokalanego Poczęcia Najświętszej Maryi Panny","","Przewóz","ul. Krótka 10, 68-132 Przewóz","","","68-375-10-55 ","ks. Jerzy KOT CM ","PRZEWÓZ – pw. Niepokalanego Poczęcia NMP (7:30, 10:30) SOBOLICE – pw. Najśw. Serca Pana Jezusa (12:30) STRASZÓW – kaplica pw. Podwyższenia Krzyża Świętego (9:00)","","","","http://www.kuria.zg.pl/index.php/diecezja/dekanaty/parafie/item/726-przewoz-parafia-pw-niepokalanego-poczecia-najswietszej-maryi-panny"
"Parafia pw. Matki Bożej Częstochowskiej","","Przyborów","ul. Nowosolska 35, 67-111 Przyborów","","","68-388-16-66 ","ks. kan. Jerzy GAŁĄZKA ","PRZYBORÓW – pw. MB Częstochowskiej (8:00, 12:00) STANY – pw. Objawienia MB w Lourdes (10:00)","","","","http://www.kuria.zg.pl/index.php/diecezja/dekanaty/parafie/item/741-przyborow-parafia-pw-matki-bozej-czestochowskiej"
"Parafia pw. Trójcy Świętej","","Przytoczna","ul. Jeziorna 8, 66-340 Przytoczna","www.parafiaprzytoczna.pl","trojcasw@parafiaprzytoczna.pl?subject=ze%20strony%20www","95-749-34-92 odwiedź stronę www Ten adres pocztowy jest chroniony przed spamowanie...","ks. Sławomir KUPIEC ","PRZYTOCZNA – pw. Trójcy Świętej (18:00 - sobota, 9:00, 12:00, 17:00) NOWA NIEDRZWICA – pw. Podwyższenia Krzyża Świętego (10:30)","","","","http://www.kuria.zg.pl/index.php/diecezja/dekanaty/parafie/item/753-przytoczna-parafia-pw-trojcy-swietej"
"Parafia pw. Wniebowzięcia NMP","","Przytok","Przytok 65, 66-003 Zabór","www.przytokwniebowziecia.parafia.info.pl","","68-321-80-88","ks. mgr Aleksander WERSTLER ","PRZYTOK – pw. Wniebowzięcia NMP (8:00, 12:30) DROSZKÓW – pw. NMP Królowej Polski (11:00) JANY – pw. św. Archaniołów Michała, Rafała i Gabriela (9:30)","","","","http://www.kuria.zg.pl/index.php/diecezja/dekanaty/parafie/item/865-przytok-parafia-pw-wniebowziecia-nmp"
"Parafia pw. św. Marii Magdaleny","","Pszczew","ul. Sikorskiego 15, 66-330 Pszczew","www.parafia.pszczew.com","","95-749-16-57","ks. mgr Stanisław KLICH ","PSZCZEW – pw. św. Marii Magdaleny (8:00, 12:00, 17:00) POLICKO – pw. Ducha Świętego (9:20) STOŁUŃ – kaplica pw. Podwyższenia Krzyża Świętego (10:30) ZIELOMYŚL – pw. św. Józefa (9:30) NOWE GORZYCKO – kaplica pw. Miłosierdzia Bożego (10:30) * SZARCZ – msza w zaadaptowanej świetlicy wiejskiej (11:40) * SZARCZ – kaplica ss. felicjanek w DPS (7:30)","","","","http://www.kuria.zg.pl/index.php/diecezja/dekanaty/parafie/item/745-pszczew-parafia-pw-sw-marii-magdaleny"
"Parafia pw. Niepokalanego Serca Najświętszej Maryi Panny","","Pyrzany","Pyrzany 49, 66-460 Witnica","","","95-751-19-42 ","ks. Stanisław DOCHNIAK ","PYRZANY – pw. Niepokalanego Serca NMP (9:30) NOWINY WIELKIE – pw. Najświętszego Serca Pana Jezusa (8:00, 12:00) ŚWIERKOCIN – pw. MB Różańcowej (11:00)","","","","http://www.kuria.zg.pl/index.php/diecezja/dekanaty/parafie/item/695-pyrzany-parafia-pw-niepokalanego-serca-najswietszej-maryi-panny"
"Parafia pw. św. Elżbiety Portugalskiej","","Pław","Pław, ul. Kościelna 3, 66-600 Krosno Odrz.","","","68-383-21-35 ","ks. mgr Marek ZINTARA ","PŁAW – pw. św. Elżbiety Port. (11:30) CIEMNICE – pw. Wszystkich Świętych (8:30) DĄBIE LUBUSKIE – pw. Najśw. Serca Pana Jezusa (13:00) GRONÓW – pw. Narodzenia NMP (18:00 - sobota) SZCZAWNO – pw. św. Maksymiliana M. Kolbe (10:00) SZCZAWNO – pw. św. Alberta Chmielowskiego kaplica w DPS (16:00 - sobota)","","","","http://www.kuria.zg.pl/index.php/diecezja/dekanaty/parafie/item/712-plaw-parafia-pw-sw-elzbiety-portugalskiej"
"Parafia pw. Najświętszej Maryi Panny Bolesnej","","Płoty","ul. Leśna 16, Płoty, 66-016 Czerwieńsk","www.parafiamb.pl.tl","parafiamb@onet.pl?subject=ze%20strony%20www","667-179-107","ks. mgr Robert PERŁAKOWSKI ","PŁOTY – pw. NMP Bolesnej (8:00, 10:00, 12:00)","","","","http://www.kuria.zg.pl/index.php/diecezja/dekanaty/parafie/item/841-ploty-parafia-pw-najswietszej-maryi-panny-bolesnej"
"Parafia pw. Najświętszej Maryi Panny Częstochowskiej","","Radnica","Radnica 21, 66-600 Krosno Odrz.","","","68-383-15-27 ","ks. Jerzy KRAUZE ","RADNICA – pw. NMP Częstochowskiej (18:00 - sobota, 12:30) BĘDÓW – pw. Trójcy Świętej (9:30) SYCOWICE – pw. Narodzenia NMP (11:00) SZKLARKA RADNICKA – pw. NMP Matki Kościoła (8:00)","","","","http://www.kuria.zg.pl/index.php/diecezja/dekanaty/parafie/item/714-radnica-parafia-pw-najswietszej-maryi-panny-czestochowskiej"
"Parafia  pw. Nawiedzenia Najświętszej Maryi Panny","","Rąpin","66-533 Rąpin 55","","","95-762-44-24","ks. Stanisław NALBACH CRL ","RĄPIN – pw. Nawiedzenia NMP 10:00; GROTÓW – pw. MB Królowej Polski 11:30; LUBIATÓW – pw. św. Józefa 13:00","","","","http://www.kuria.zg.pl/index.php/diecezja/dekanaty/parafie/item/621-rapin-parafia-pw-nawiedzenia-najswietszej-maryi-panny"
"Parafia pw. św. Wawrzyńca","","Rapocin","","","","","ks. Rafał Zendran ","Grodziec Mały – 9:30; Sobczyce – 11:00","","","","http://www.kuria.zg.pl/index.php/diecezja/dekanaty/parafie/item/99-rapocin-parafia-pw-sw-wawrzynca"
"Parafia pw. Matki Bożej Rokitniańskiej","","Rokitno","Rokitno 37, 66-340 Przytoczna","www.rokitno.org","","95-749-30-43 odwiedź stronę www","ks. kan. dr Józef TOMIAK ","ROKITNO – bazylika mniejsza pw. MB Rokitniańskiej (9:00, 12:00, 15:00, 18:00) CHEŁMSKO – pw. św. Kazimierza Królewicza (11:15) KALSKO – pw. św. Bartłomieja Ap. (9:00) TWIERDZIELEWO – pw. św. Anny (10:15)","","","","http://www.kuria.zg.pl/index.php/diecezja/dekanaty/parafie/item/754-rokitno-parafia-pw-matki-bozej-rokitnianskiej"
"Parafia pw. św. Stanisława Kostki","","Różanki","ul. Niepodległości 9, 66-416 Różanki","","","95-731-15-84 ","ks. kan. Bogusł aw KACZMAREK ","Różanki – 10:30; Rybakowo – 8:00; Santoczno – 9:15; Wojcieszyce – 12:00.","","","","http://www.kuria.zg.pl/index.php/diecezja/dekanaty/parafie/item/152-rozanki-parafia-pw-sw-stanislawa-kostki"
"Parafia pw. Wniebowzięcia Najświętszej Maryi Panny","","Rudawica","","","","68-376-90-21","ks. kan. Alojzy BUDNIK ","RUDAWICA – pw. Wniebowzięcia NMP (12:00) ŁOZY – kaplica pw. Miłosierdzia Bożego (13:15)","","","","http://www.kuria.zg.pl/index.php/diecezja/dekanaty/parafie/item/812-rudawica-parafia-pw-wniebowziecia-najswietszej-maryi-panny"
"Parafia pw. św. Jadwigi Śląskiej","","Rzeczyca","Rzeczyca 9, Rzeczyca, 67-220 Grębocice","","","76 831-51-39 Historia parafii Wzmianka historyczna o miejscowości Rzeczyca i pierwszym kośc...","ks. Krzysztof Czekaj ","Rzeczyca – 10:30; Piersna – 9:15; Szymocin – 11:45; Trzęsów –8:00; Bucze - 18:00(sobota)","","","","http://www.kuria.zg.pl/index.php/diecezja/dekanaty/parafie/item/138-rzeczyca-parafia-pw-sw-jadwigi-slaskiej"
"Parafia pw. Najświętszego Serca Pana Jezusa","","Rzepin","pl. Kościelny 4, 69-110 Rzepin","","","95-759-62-25","ks. kan. Stanisław WENCEL ","RZEPIN – pw. Najśw. Serca Pana Jezusa (8:00, 9:30, 1:100, 14:00 - oprócz wakacji) DRZEŃSKO – pw. Jezusa Miłosiernego (10:30) GAJEC – pw. Świętej Rodziny (12:00) LUBIECHNIA WIELKA – pw. MB Różańcowej (9:00) LUBIECHNIA MAŁA – pw. Podwyższenia Krzyża Świętego (12:00) RZEPIN – pw. św. Katarzyny (7:00, 10:00, 12:00, 19:00) STAROŚCIN – pw. św. Huberta (10:30)","","","","http://www.kuria.zg.pl/index.php/diecezja/dekanaty/parafie/item/763-rzepin-parafia-pw-najswietszego-serca-pana-jezusa"
"Parafia pw. św. Apostołów Piotra i Pawła","","Serby","ul. Główna 80 a, Serby, 67-200 Głogów","","","76 833-11-99 Historia parafii Parafia powstała z podziału parafii Wniebowzięcia NMP w Głogow...","ks. Leszek Okpisz ","Serby Nowe – 8:00, 12:00, 17:00; Gola Drzewiecka – 10:00 (należy do par. Wilków Głog.).","","","","http://www.kuria.zg.pl/index.php/diecezja/dekanaty/parafie/item/139-serby-parafia-pw-sw-apostolow-piotra-i-pawla"
"Parafia pw. Narodzenia Najświętszej Maryi Panny","","Siedlisko","pl. Zamkowy 17, 67-112 Siedlisko","","","68-388-32-66 ","ks. Zbigniew WOKOTRUB ","SIEDLISKO – pw. MB Różańcowej (8:00, 11:30) BIELAWY – pw. Najświętszego Serca Pana Jezusa (10:00) BOROWIEC – kaplica pw. MB Częstochowskiej (14:00)","","","","http://www.kuria.zg.pl/index.php/diecezja/dekanaty/parafie/item/742-siedlisko-parafia-pw-narodzenia-najswietszej-maryi-panny"
"Parafia pw. Narodzenia Najświętszej Maryi Panny i św. Jana Apostoła","","Siedlnica","67-406 Siedlnica 39","","","65-540-08-25","ks. dr Bolesław GUMIENIUK ","SIEDLNICA – pw. Narodzenia NMP i św. Jakuba Ap. (10:30) JĘDRZYCHOWICE – pw. św. Jana z Dukli (12:00) OLBRACHCICE – pw. bł. Władysława z Gielniowa (9:00)","","","","http://www.kuria.zg.pl/index.php/diecezja/dekanaty/parafie/item/835-siedlnica-parafia-pw-narodzenia-najswietszej-maryi-panny-i-sw-jana-apostola"
"Parafia pw. Narodzenia Najświętszej Maryi Panny","","Sieniawa Lubuska","66-221 Sieniawa Lubuska 65","","","68-341-22-21","ks. Grzegorz JANUSZ ","SIENIAWA LUBUSKA – pw. Narodzenia NMP (9:00, 10:30) WIELOWIEŚ – pw. MB Różańcowej (12:15) ZARZYŃ – pw. NMP Matki Kościoła (13:30)","","","","http://www.kuria.zg.pl/index.php/diecezja/dekanaty/parafie/item/819-sieniawa-lubuska-parafia-pw-narodzenia-najswietszej-maryi-panny"
"Parafia pw. świętych Apostołów Piotra i Pawła","","Sieniawa Żarska","Sieniawa Żarska 39, 68-213 Lipinki Łużyckie","www.sieniawa.parafia.info.pl","","68-374-26-93","ks. mgr Krzysztof LEBIECKI ","SIENIAWA ŻARSKA – pw. Nawiedzenia NMP 7:30, 11:45; BRZOSTOWA – pw. św. Franciszka 9:00; MIŁOWICE – pw. św. Antoniego Padewskiego 10:30","","","","http://www.kuria.zg.pl/index.php/diecezja/dekanaty/parafie/item/644-sieniawa-zarska-parafia-pw-swietych-apostolow-piotra-i-pawla"
"Parafia pw. Narodzenia Najświętszej Maryi Panny","","Skąpe","66-213 Skąpe 97","","","68-341-93-80","ks. Zbigniew DYMITRUK ","SKĄPE – pw. Narodzenia NMP (11:00) DARNAWA – pw. św. Alojzego Gonzagi (8:00) RADOSZYN – pw. św. Jadwigi (9:30)","","","","http://www.kuria.zg.pl/index.php/diecezja/dekanaty/parafie/item/826-skape-parafia-pw-narodzenia-najswietszej-maryi-panny"
"Parafia pw. św. Mikołaja","","Skwierzyna","ul. Plebańska 1, 66-440 Skwierzyna","","","95-717-00-18","ks. Cezary KOKOCIŃSKI CM ","SKWIERZYNA – pw. św. Mikołaja (7:00, 13:00, 18:00) KROBIELEWKO – pw. Najświętszego Serca Pana Jezusa (17:00 – sobota) MURZYNOWO – pw. Niepokalanego Serca NMP (11:30) NOWY DWÓR – pw. Najświętszego Serca Pana Jezusa (18:00 – sobota) SKWIERZYNA – pw. Najświętszego Zbawiciela (8:00, 10:00, 11:30) ŚWINARY – pw. MB Królowej Polski (10:00) WIEJCE – pw. św. Józefa Robotnika (16:00 – sobota) * PIŁKA – Eucharystia sprawowana w pomieszczeniu DPS (13:00 – II niedziela miesiąca) * SKWIERZYNA – kaplica szpitalna (15:00 – sobota)","","","","http://www.kuria.zg.pl/index.php/diecezja/dekanaty/parafie/item/755-skwierzyna-parafia-pw-sw-mikolaja"
"Parafia pw. św. Andrzeja Apostoła","","Śmieszkowo","Śmieszkowo 14, 67-410 Sława","","","68-356-62-81","ks. mgr Janusz SZCZEPKOWICZ ","ŚMIESZKOWO – pw. św. Andrzeja Ap. (11:00) ŁUPICA – pw. Najświętszego Serca Pana Jezusa (9:30) POTRZEBOWO – kaplica pw. MB Różańcowej (8:00)","","","","http://www.kuria.zg.pl/index.php/diecezja/dekanaty/parafie/item/774-smieszkowo-parafia-pw-sw-andrzeja-apostola"
"Parafia pw. Najświętszego Serca Pana Jezusa","","Smogóry","69-214 Smogóry","","","95-757-70-16","ks. Edward WOJCIECHOWSKI ","SMOGÓRY – pw. Najśw. Serca Pana Jezusa (13:00) GRABNO – pw. św. Józefa Oblubieńca (10:00) LUBIEŃ – pw. Niepokalanego Serca NMP (11:30) * SMOGÓRY – kaplica pw. Miłosierdzia Bożego (8:30)","","","","http://www.kuria.zg.pl/index.php/diecezja/dekanaty/parafie/item/766-smogory-parafia-pw-najswietszego-serca-pana-jezusa"
"Parafia pw. Chrystusa Króla","","Smolno Wielkie","Smolno Wielkie 22, 66-120 Kargowa","www.parafiasmolnowielkie.pl","","68-352-54-69","ks. Sławomir KUKLA ","SMOLNO WIELKIE – pw. Chrystusa Króla (9:00, 13:00) OSTRZYCE – kaplica pw. MB Różańcowej (12:00) PODLEGÓRZ – pw. Podwyższenia Krzyża Świętego (10:30)","","","","http://www.kuria.zg.pl/index.php/diecezja/dekanaty/parafie/item/791-smolno-wielkie-parafia-pw-chrystusa-krola"
"Parafia pw. Wniebowzięcia Najświętszej Maryi Panny","","Sokola Dąbrowa","Sokola Dąbrowa 16, 66-350 Bledzew","parafia-sulecin.com/sokola/index.html","","95-743-53-65","ks. lic. mgr Adam Zygmunt LEWANDOWSKI ","SOKOLA DĄBROWA – pw. Wniebowzięcia NMP (9:00) NOWA WIEŚ – pw. św. Anny (12:00) OSIECKO – pw. św. Mikołaja (10:30)","","","","http://www.kuria.zg.pl/index.php/diecezja/dekanaty/parafie/item/800-sokola-dabrowa-parafia-pw-wniebowziecia-najswietszej-maryi-panny"
"Parafia  pw. świętych Apostołów Piotra i Pawła","","Stare Kurowo","ul. Daszyńskiego 4, 66-540 Stare Kurowo","","","95-761-50-59","ks. kan. dr Roman SKARŻYŃSKI ","STARE KUROWO – pw. św. Ap. Piotra i Pawła 8:00, 11:00; BŁOTNICA – pw. św. Michała Archanioła 16:00 - sobota; GŁĘBOCZEK – pw. św. Barbary 10:45; NOWE KUROWO – pw. MB Szkaplerznej 9:30; ŁĄCZNICA – pw. Narodzenia NMP 9:30; PŁAWIN – pw. MB Nieustającej Pomocy 12:00; ROKITNO – w domu prywatnym 16:00 - sobota","","","","http://www.kuria.zg.pl/index.php/diecezja/dekanaty/parafie/item/622-stare-kurowo-parafia-pw-swietych-apostolow-piotra-i-pawla"
"Parafia pw. św. Antoniego","","Stare Polichno","Zielona 3, Stare Polichno, 66-431 Santok","","","95-731-67-85 Historia parafii Parafia powstała z wyłączenia Gościnowa i Starego Polichna...","ks. Henryk Jągowski ","Stare Polichno – 11:30; Dobrojewo – 9:00; Santok – 10:15.","","","","http://www.kuria.zg.pl/index.php/diecezja/dekanaty/parafie/item/142-stare-polichno-parafia-pw-sw-antoniego"
"Parafia pw. św. Jadwigi","","Stare Strącze","Stare Strącze 162, 67-410 Sława","","","68-356-62-77","ks. Stanisław JAROSZ ","STARE STRĄCZE – pw. św. Jadwigi (9:00, 12:00) * KRZYDŁOWICZKI – Eucharystia sprawowana w świetlicy wiejskiej (10:30)","","","","http://www.kuria.zg.pl/index.php/diecezja/dekanaty/parafie/item/773-stare-stracze-parafia-pw-sw-jadwigi"
"Parafia pw. św. Jana od Krzyża","","Starosiedle","Starosiedle 39, 66-633 Stargard Gubiński","","","68-359-25-91 ","ks. Bogdan KUSIAK ","STAROSIEDLE – pw. św. Jana od Krzyża (9:00, 12:00) KOPERNO – pw. MB Bolesnej (9:00) ŁAZY – kaplica pw. MB Królowej Polski (12:00) STARGARD GUBIŃSKI. – pw. św. Józefa (10:30) WITASZKÓW – pw. Niepokalanego Poczęcia NMP (9:00) WĘGLINY – kaplica pw. MB Częstochowskiej (10:30)","","","","http://www.kuria.zg.pl/index.php/diecezja/dekanaty/parafie/item/685-starosiedle-parafia-pw-sw-jana-od-krzyza"
"Parafia pw. św. Wawrzyńca","","Stary Dwór","Stary Dwór, ul. Kościelna 36, 66-304 Brójce Lubuskie","","","95-742-90-70","ks. kan. Mieczysław SOŁTYS ","STARY DWÓR – pw. św. Wawrzyńca (11:30) BUKOWIEC – pw. św. Marcina (8:30, 13:00) WYSZANOWO – pw. św. Józefa (10:00)","","","","http://www.kuria.zg.pl/index.php/diecezja/dekanaty/parafie/item/749-stary-dwor-parafia-pw-sw-wawrzynca"
"Parafia pw. św. Antoniego","","Strzegów","Strzegów 77, 66-620 Gubin","","","68-359-17-21 ","ks. mgr Krzysztof KORCZ ","STRZEGÓW – pw. św. Antoniego (18:00 - sobota, 9:30) GRABICE – pw. Miłosierdzia Bożego (12:00) MIELNO – pw. św. Franciszka z Asyżu (10:30)","","","","http://www.kuria.zg.pl/index.php/diecezja/dekanaty/parafie/item/686-strzegow-parafia-pw-sw-antoniego"
"Parafia pw. św. Franciszka z Asyżu","","Strzelce Krajeńskie","ul. Kard. St. Wyszyńskiego 2, 66-500 Strzelce Kraj","","","95-763-21-60","ks. kan. mgr Jacek MAKOWIECKI ","STRZELCE KRAJ. – pw. św. Franciszka z Asyżu (7:00) STRZELCE KRAJ. – pw. MB Różańcowej (9:00, 10:30, 12:00, 15:00, 18:00) GARDZKO – pw. św. Jana Chrzciciela (10:30) LICHEŃ – pw. Niepokalanego Poczęcia NMP (1200) * DŁUGIE – tymczasowa kaplica (12:00 - II niedziela, 10:00 - w wakacje) * SŁAWNO – tymczasowa kaplica (9:00)","","","","http://www.kuria.zg.pl/index.php/diecezja/dekanaty/parafie/item/779-strzelce-krajenskie-parafia-pw-sw-franciszka-z-asyzu"
"Parafia pw. Podwyższenia Krzyża Świętego","","Sulechów","pl. Kościelny 4, 66-100 Sulechów","www.pksul.parafia.info.pl","pksul@o2.pl?subject=ze%20strony%20www","68-385-26-20","ks. lic. mgr Janusz MIKOŁAJEWICZ ","SULECHÓW – pw. Podw. Krzyża Świętego (18:30 - sobota, 7:00, 9:30, 11:00, 12:30, 15:00, 18:30) KALSK – pw. MB Częstochowskiej (10:00) SULECHÓW – pw. Najświętszego Imienia Maryi (8:15) * SULECHÓW – kaplica szpitalna, al. Niepodległości - oddz. Rehabilitacyjny (19:00 - sobota) * SULECHÓW – kaplica szpitalna, al. Niepodległości - oddz. wewnetrzny (19:10)","","","","http://www.kuria.zg.pl/index.php/diecezja/dekanaty/parafie/item/792-sulechow-parafia-pw-podwyzszenia-krzyza-swietego"
"Parafia pw. św. Stanisława Kostki","","Sulechów","ul. Odrzańska 63, 66-100 Sulechów","www.kostka-sulechow.pl","","68-385-30-55","ks. kan. lic. mgr Henryk WOJNAR ","SULECHÓW – pw. św. Stanisława Kostki (7:30, 9:00, 10:30, 12:00, 13:30, 18:00, 20:00) MOZÓW – pw. św. Józefa (9:30)","","","","http://www.kuria.zg.pl/index.php/diecezja/dekanaty/parafie/item/793-sulechow-parafia-pw-sw-stanislawa-kostki"
"Parafia pw. św. Henryka","","Sulęcin","ul. M. Curie-Skłodowskiej 1, 69-200 Sulęcin","parafia-sulecin.com","siostry.sulecin@interia.pl","95-755-23-22","ks. kan. Piotr MAZUREK ","SULĘCIN – pw. św. Henryka (11:00, 13:00, 19:00 - od VI do VIII tylko 13:00) OSTRÓW – pw. Narodzenia NMP (12:30) SULĘCIN – pw. św. Mikołaja (7:30, 9:00, 10:30, 13:30 - od IX do V, 18:00; 20:00 - od VII do VIII) TURSK – pw. św. Stanisława Bpa (9:00) ŻUBRÓW – pw. św. Michała (10:15) TURSK – kaplica pw. MB Rokitniańskiej w PDPS (11:30)","","","","http://www.kuria.zg.pl/index.php/diecezja/dekanaty/parafie/item/801-sulecin-parafia-pw-sw-henryka"
"Parafia pw. św. Marcina","","Świdnica","ul. Długa 26, 66-008 Świdnica","www.swmarcin.swidnica.zgora.pl","par.swidnica@duchzg.pl?subject=ze%20strony%20www","68-327-32-23","ks. lic. mgr Robert TOMALKA ","ŚWIDNICA – pw. św. Marcina (9:00, 12:00) PIASKI – pw. MB Rokitniańskiej (10:30)","","","","http://www.kuria.zg.pl/index.php/diecezja/dekanaty/parafie/item/843-swidnica-parafia-pw-sw-marcina"
"Parafia pw. Miłosierdzia Bożego","","Świebodzin","os. Łużyckie 52, 66-200 Świebodzin","www.sanktuariummilosierdziabozego.pl","sanktuarium.milosierdzia@gmail.com?subject=ze%20strony%20www","68-382-92-22","ks. kan. dr Jan ROMANIUK ","ŚWIEBODZIN – pw. Miłosierdzia Bożego (7:30, 9:30, 11:00, 12:30, 16:00, 18:00, 20:30) RAKÓW – pw. św. Jadwigi (11:30) RUDGERZOWICE – pw. MB Nieustającej Pomocy (10:00)","","","","http://www.kuria.zg.pl/index.php/diecezja/dekanaty/parafie/item/828-swiebodzin-parafia-pw-milosierdzia-bozego"
"Parafia pw. Najświętszej Maryi Panny Królowej Polski","","Świebodzin","Park Chopina 4, 66-200 Świebodzin","","","68-382-27-85","ks. kan. Zbigniew MATWIEJÓW ","ŚWIEBODZIN – pw. NMP Królowej Polski (7:30, 9:00, 10:30, 12:00, 16:00, 18:00) JEZIORY – pw. NMP Królowej Polski (9:00) LUBINICKO – pw. Chrystusa Króla (10:30)","","","","http://www.kuria.zg.pl/index.php/diecezja/dekanaty/parafie/item/820-swiebodzin-parafia-pw-najswietszej-maryi-panny-krolowej-polski"
"Parafia pw. św. Michała Archanioła","","Świebodzin","ul. Szpitalna 1, 66-200 Świebodzin","","michaelswiebodzin@gmail.com?subject=ze%20strony%20www","68-475-10-05","ks. kan. mgr Zbigniew NOSAL ","ŚWIEBODZIN – pw. św. Michała Arch. (7:00, 8:00 - os. Widok, 9:00, 10:30, 12:00, 13:15, 18:00) GRODZISZCZE – pw. św. Jadwigi (9:30)","","","","http://www.kuria.zg.pl/index.php/diecezja/dekanaty/parafie/item/821-swiebodzin-parafia-pw-sw-michala-archaniola"
"Parafia pw. św. Anny","","Szczaniec","66-225 Szczaniec 58","","","68-341-03-89","ks. Krzysztof OLESZKIEWICZ SDB ","SZCZANIEC – pw. św. Anny (8:00, 11:00) KUPIENINO – pw. Świętej Rodziny (9:30) KUPIENINO – pw. św. Henryka MYSZĘCIN – pw. MB Królowej Polski (9:30) OJERZYCE – pw. św. Jana Chrzciciela (11:00) RZECZYCA – pw. Podwyższenia Krzyża Świętego (8:00) WILENKO – kaplica pw. Przenajdroższej Krwi Jezusa (12:30)","","","","http://www.kuria.zg.pl/index.php/diecezja/dekanaty/parafie/item/827-szczaniec-parafia-pw-sw-anny"
"Parafia pw. Podwyższenia Krzyża Świętego","","Szlichtyngowa","Rynek 28, 67-407 Szlichtyngowa","","","65-540-72-25","ks. Antoni ŁATKA ","SZLICHTYNGOWA – pw. Podw. Krzyża Świętego (8:00, 11:00, 17:00 - od VI do VIII: 18:00)","","","","http://www.kuria.zg.pl/index.php/diecezja/dekanaty/parafie/item/836-szlichtyngowa-parafia-pw-podwyzszenia-krzyza-swietego"
"Parafia pw. św. Andrzeja Apostoła","","Szprotawa","ul. Jedności Klasy Robotniczej 5, 67-300 Szprotawa","","","68-376-33-69","ks. kan. Leon ANDRYS ","SZPROTAWA – pw. św. Andrzeja Ap. (8:00, 9:30, 11:00)","","","","http://www.kuria.zg.pl/index.php/diecezja/dekanaty/parafie/item/813-szprotawa-parafia-pw-sw-andrzeja-apostola"
"Parafia pw. Wniebowzięcia Najświętszej Maryi Panny","","Szprotawa","ul. Piastowska 5, 67-300 Szprotawa","parafiaszprotawa.strefa.pl","parafia.szprotawa@neostrada.pl?subject=ze%20strony%20www","68-376-25-15","ks. kan. Ryszard GRABARSKI ","SZPROTAWA – pw. Wniebowzięcia NMP (7:00, 8:30, 10:00, 11:30, 13:00 - od IX do VI, 18:00 - od IX do VI, 19:30 - w VII i VIII) ŚLIWNIK – pw. Podw. Krzyża Świętego (9:30)","","","","http://www.kuria.zg.pl/index.php/diecezja/dekanaty/parafie/item/814-szprotawa-parafia-pw-wniebowziecia-najswietszej-maryi-panny"
"Parafia pw. św. Michała Archanioła","","Sława","pl. ks. Kazimierza Tomkiewicza 1, 67-410 Sława","","","68-356-62-40","ks. Jerzy ŚLUSARCZYK ","SŁAWA – pw. św. Michała Arch. (8:00, 10:00, 12:00, 17:00) LIPINKI – pw. MB Rokitniańskiej (11:00) PRZYBYSZÓW – pw. MB Bolesnej (9:30) SŁAWA – pw. Miłosierdzia Bożego * GOLA – zaadaptowany budynek OPS (13:00) * TARNÓW JEZIERNY. – kaplica w zaadaptowanej świetlicy OPS (14:00)","","","","http://www.kuria.zg.pl/index.php/diecezja/dekanaty/parafie/item/768-slawa-parafia-pw-sw-michala-archaniola"
"Parafia pw. Matki Bożej Częstochowskiej","","Słońsk","pl. Wolności 1, 66-436 Słońsk,","","","95-757-22-02 ","ks. kan. Józef DROZD ","SŁOŃSK – pw. MB Częstochowskiej (8:00, 11:30, 17:00 – czas zimowy, 18:00) CHARTÓW – pw. Chrystusa Króla (9:45)","","","","http://www.kuria.zg.pl/index.php/diecezja/dekanaty/parafie/item/696-slonsk-parafia-pw-matki-bozej-czestochowskiej"
"Parafia pw. Ducha Świętego","","Słubice","ul. Wojska Polskiego 140, 69-100 Słubice","","","95-758-34-79","ks. kan. Józef ZADWORNY ","SŁUBICE – pw. Ducha Świętego (7:30, 9:00, 10:30, 12:00, 13:30, 19:00) DRZECIN – pw. MB Rokitniańskiej (10:00) LISÓW – pw. Najświętszego Serca Pana Jezusa (11:00) NOWY LUBUSZ KOLONIA – kaplica pw. św. Maksymiliana M. Kolbe (10:00) PŁAWIDŁA – kaplica pw. św. Stanisława Kostki (11:00) OS. GRZYBÓW – kaplica pw. MB Cudownego Medalika (9:00) * NOWY LUBUSZ WIEŚ – zaadaptowana świetlica wiejska (9:00)","","","","http://www.kuria.zg.pl/index.php/diecezja/dekanaty/parafie/item/764-slubice-parafia-pw-ducha-swietego"
"Parafia pw. Najświętszej Maryi Panny Królowej Polski","","Słubice","ul. 1-go Maja 31, 69-100 Słubice","www.slubice-misjonarze.pl","","95-758-23-40","ks. Tomasz PARTYKA CM ","SŁUBICE – pw. NMP Królowej Polski (7:30, 9:00, 11:00, 12:30, 18:00) BISKUPICE STARE – pw. Niepokalanego Poczęcia NMP (10:00) KUNOWICE – pw. św. Wincentego á Paulo (8:30, 12:30) RYBOCICE – pw. św. Józefa Oblubieńca (11:00, 16:30 - I sobota miesiąca) * BISKUPICE NOWE – zaadaptowana świetlica wiejska (11:15)","","","","http://www.kuria.zg.pl/index.php/diecezja/dekanaty/parafie/item/765-slubice-parafia-pw-najswietszej-maryi-panny-krolowej-polski"
"Parafia pw. Chrystusa Króla","","Templewo","Templewo 29, 66-350 Bledzew","","parafiatemplewo@opw.pl","95-742-99-05","o. Zbigniew OŁDYŃSKI SVD ","TEMPLEWO – pw. Chrystusa Króla (10:00, 14:00) NOWE KURSKO – pw. św. Antoniego Padewskiego (11:30) PIESKI – pw. świętych Apostołów Piotra i Pawła (8:30)","","","","http://www.kuria.zg.pl/index.php/diecezja/dekanaty/parafie/item/750-templewo-parafia-pw-chrystusa-krola"
"Parafia pw. św. Jadwigi Królowej","","Tomaszowo","ul. Osiedlowa 8, 68-114 Tomaszowo","","","68-360-60-46","ks. lic. mgr Piotr ŻUBEREK ","TOMASZOWO – pw. św. Jadwigi Królowej 10:30, 12:00 STARA KOPERNIA – pw. św. Jadwigi Śląskiej 9:00","","","","http://www.kuria.zg.pl/index.php/diecezja/dekanaty/parafie/item/657-tomaszowo-parafia-pw-sw-jadwigi-krolowej"
"Parafia pw. Matki Bożej Różańcowej","","Toporów","ul. Kościelna 2, Toporów, 66-220 Łagów","","","68-341-10-86","ks. Janusz JÓŹWIAKOWSKI ","TOPORÓW – pw. MB Różańcowej (11:00) KOSOBUDZ – pw. MB Częstochowskiej (13:00) NIEDŹWIEDŹ – pw. Wniebowzięcia NMP (9:00) POŹRZADŁO – pw. Zwiastowania NMP (14:30)","","","","http://www.kuria.zg.pl/index.php/diecezja/dekanaty/parafie/item/822-toporow-parafia-pw-matki-bozej-rozancowej"
"Parafia pw. Podwyższenia Krzyża Świętego","","Torzym","ul. Sulęcińska 2, 66-235 Torzym","","","68-341-30-27","ks. kan. mgr Sławomir MARCINIAK ","TORZYM – pw. Podw. Krzyża Świętego (8:30, 11:30, 16:30) DRZEWCE KOL. – kaplica pw. MB Częstochowskiej (1300) GRABÓW – pw. MB Częstochowskiej (13:00) KORYTA – pw. św. Józefa (10:00) MAŁUSZÓW – pw. św. Andrzeja Boboli (13:00) PRZĘŚLICE – pw. św. Antoniego Padewskiego (10:00)","","","","http://www.kuria.zg.pl/index.php/diecezja/dekanaty/parafie/item/802-torzym-parafia-pw-podwyzszenia-krzyza-swietego"
"Parafia  pw. św. Wojciecha","","Trzciel","pl. Wolności 21, 66-320 Trzciel","","","95-743-12-12","ks. Marian KOT CM ","","TRZCIEL – pw. św. Wojciecha 18:00 - sob., 7:00, 9:00, 11:00, 18:00; LUTOL MOKRY – pw. Niepokalanego Poczęcia NMP 8:30; RYBOJADY – kaplica pw. św. Józefa Rzemieślnika 9:45; SIERCZYNEK – pw. MB Częstochowskiej 12:30; SIERCZ – kaplica pw. św. Marii Magdaleny 12:30","","","http://www.kuria.zg.pl/index.php/diecezja/dekanaty/parafie/item/611-trzciel-parafia-pw-sw-wojciecha"
"Parafia  pw. Najświętszego Serca Pana Jezusa","","Trzebicz","ul. Szkolna 3, Trzebicz, 66-530 Drezdenko","","","95-762-45-92","ks. mgr Tadeusz WOŁOSZYN ","","TRZEBICZ – pw. Najśw. Serca Pana Jezusa 8:00, 11:30; GOŚCIM – pw. Niepokalanego Poczęcia NMP 10:15; PRZYNOTECKO – pw. MB Częstochowskiej 9:00; Ośrodek Rehabilitacyjno-Wypoczynkowy w Gościmiu 17:00 – sobota.","","","http://www.kuria.zg.pl/index.php/diecezja/dekanaty/parafie/item/623-trzebicz-parafia-pw-najswietszego-serca-pana-jezusa"
"Parafia pw. Wniebowzięcia Najświętszej Maryi Panny","","Trzebiechów","Al. Lipowa 31, 66-132 Trzebiechów","www.trzebiechow.parafia.info.pl","","68-351-41-30","ks. mgr Andrzej GRZĄDZIEL ","TRZEBIECHÓW – pw. Wniebowzięcia NMP (8:00, 12:00) GŁUCHÓW – pw. Narodzenia NMP (10:00) LEDNO – kaplica pw. MB Rokitniańskiej (13:15)","","","","http://www.kuria.zg.pl/index.php/diecezja/dekanaty/parafie/item/794-trzebiechow-parafia-pw-wniebowziecia-najswietszej-maryi-panny"
"Parafia pw. Matki Bożej Królowej Polski","","Trzebiel","ul. Żarska 26, 68-212 Trzebiel","www.parafiatrzebiel.pl","","68-375-50-58 odwiedź stronę www ","ks. lic. mgr Andrzej SZKWAREK ","TRZEBIEL – pw. MB Królowej Polski (9:00, 11:00, 12:30)","","","","http://www.kuria.zg.pl/index.php/diecezja/dekanaty/parafie/item/727-trzebiel-parafia-pw-matki-bozej-krolowej-polski"
"Parafia pw. św. Jana Nepomucena","","Trzebiszewo","ul. Główna 46, 66-445 Trzebiszewo","","","95-751-32-25","ks. Jan PŁÓCIENNICZAK ","1. TRZEBISZEWO – pw. św. Jana Nepomucena (18:00 - sobota, 12:00) BOREK – pw. Najświętszego Serca Pana Jezusa (10:30) BRZOZOWIEC – pw. świętych Apostołów Piotra i Pawła (9:00)","","","","http://www.kuria.zg.pl/index.php/diecezja/dekanaty/parafie/item/756-trzebiszewo-parafia-pw-sw-jana-nepomucena"
"Parafia pw. Matki Bożej Królowej Polski","","Trzemeszno Lubuskie","ul. Poznańska 65, 69-213 Trzemeszno Lub.","","","95-755-12-48","ks. mgr Adam WIJATKOWSKI ","TRZEMESZNO LUB. – pw. MB Królowej Polski (8:00, 11:30) GLISNO – pw. Najświętszego Serca Pana Jezusa (10:00) GROCHOWO – pw. Podwyższenia Krzyża Świętego (13:00)","","","","http://www.kuria.zg.pl/index.php/diecezja/dekanaty/parafie/item/803-trzemeszno-lubuskie-parafia-pw-matki-bozej-krolowej-polski"
"Parafia pw. Chrystusa Króla","","Tuplice","ul. Świerczewskiego 14, 68-219 Tuplice,","","","68-375-70-56 ","ks. kan. Jerzy LOCH ","TUPLICE – pw. Chrystusa Króla (730, 9:30; 11:00) DĘBINKA – pw. Podw. Krzyża Świętego (9:15) NOWA ROLA – pw. NMP Królowej Polski (11:30)","","","","http://www.kuria.zg.pl/index.php/diecezja/dekanaty/parafie/item/728-tuplice-parafia-pw-chrystusa-krola"
"Parafia pw. św. Andrzeja Boboli","","Ulim","","","","95-751-12-60","ks. Jan Kozłowski ","Ulim – 12:00; Łagodzin – 10:30; Dzierżów – 9:00","","","","http://www.kuria.zg.pl/index.php/diecezja/dekanaty/parafie/item/143-ulim-parafia-pw-sw-andrzeja-boboli"
"Parafia pw. św. Józefa Rzemieślnika","","Wawrów","Wawrów 16, Wawrów, 66-40 Gorzów Wielkopolski","","","95-725-85-28 ","ks. kan. mgr Andrz ej KOŁODZIEJCZYK ","Wawrów – 9:00, 12:00; Czechów – 10:30","","","","http://www.kuria.zg.pl/index.php/diecezja/dekanaty/parafie/item/153-wawrow-parafia-pw-sw-jozefa-rzemieslnika"
"Parafia pw. Najświętszego Serca Pana Jezusa","","Wicina","Wicina 31, 68-320 Jasień Żarski","","","68-371-04-78 ","ks. mgr Jan KRAWCZYK ","WICINA – pw. Najśw. Serca Pana Jezusa (13:00) TUCHOLA ŻARSKA – pw. św. Stanisława Bpa (11:30) ZABŁOCIE – pw. Niepokalanego Poczęcia NMP (10:00) BIESZKÓW – kaplica cmentarna (8:30) STARA WODA – kaplica cmentarna pw. MB Różańcowej (16:00)","","","","http://www.kuria.zg.pl/index.php/diecezja/dekanaty/parafie/item/720-wicina-parafia-pw-najswietszego-serca-pana-jezusa"
"Parafia pw. Świętej Rodziny","","Wiechlice","Wiechlice, ul. Brzozowa 1, 67-300 Szprotawa","","","68-376-43-04","ks. mgr Przemysław KASPRZAK ","WIECHLICE – pw. Świętej Rodziny (10:00, 11:30)","","","","http://www.kuria.zg.pl/index.php/diecezja/dekanaty/parafie/item/815-wiechlice-parafia-pw-swietej-rodziny"
"Parafia pw. św. Antoniego z Padwy","","Wielisławice","Wielisławice 14, 66-500 Strzelce Kraj","","","95-763-32-43","ks. mgr Marcin FLIEGER ","WIELISŁAWICE – pw. MB Częstochowskiej (12:00) BRONOWICE – pw. Chrystusa Króla (10:30) BRZOZA – pw. Jezusa Miłosiernego (9:00)","","","","http://www.kuria.zg.pl/index.php/diecezja/dekanaty/parafie/item/781-wielislawice-parafia-pw-sw-antoniego-z-padwy"
"Parafia pw. Najświętszego Serca Pana Jezusa","","Wilkanowo","Wilkanowo, ul. Kościelna 3, 66-008 Świdnica","","","68-327-33-89","ks. kan. dr Dariusz ORŁOWSKI","WILKANOWO – pw. św. Najśw. Serca Pana Jezusa (8:30, 12:15) BUCHAŁÓW – pw. św. Jerzego Męcz. (9:45) SŁONE – pw. św. Stanisława Bpa (11:00)","","","","http://www.kuria.zg.pl/index.php/diecezja/dekanaty/parafie/item/844-wilkanowo-parafia-pw-najswietszego-serca-pana-jezusa"
"Parafia pw. św. Jana Nepomucena","","Wilków Głogowski","ul. Spółdzielcza 57, Wilków Głogowski, 67-200 Głogów","","","76 833-16-79 Historia parafii Pierwsza wzmianka o parafii pochodzi z 1357 r....","ks. Bogdan Niparko ","Wilków Głogowski – 9:00, 11:00.","","","","http://www.kuria.zg.pl/index.php/diecezja/dekanaty/parafie/item/140-wilkow-glogowski-parafia-pw-sw-jana-nepomucena"
"Parafia pw. Narodzenia Najświętszej Maryi Panny","","Wilkowo","Wilkowo 50, 66-200 Świebodzin","www.parafiawilkowo.pl.tl","","68-381-20-75","ks. Mariusz ILIASZEWICZ ","WILKOWO – pw. Narodzenia NMP (7:30, 11:00) BORÓW – pw. Chrystusa Króla (12:30) ŁUGÓW – pw. św. Elżbiety Węgierskiej (9:30)","","","","http://www.kuria.zg.pl/index.php/diecezja/dekanaty/parafie/item/829-wilkowo-parafia-pw-narodzenia-najswietszej-maryi-panny"
"Parafia pw. Matki Bożej Nieustającej Pomocy","","Witnica","ul. Gorzowska 2, 66-460 Witnica","www.parafia.witnica.pl","parafia@witnica.pl?subject=ze%20strony%20www","95-751-50-46 odwiedź stronę www Ten adres pocztowy jest chroniony przed spamowaniem. Ab...","ks. prałat dr Ryszard TOMCZAK ","WITNICA – pw. MB Nieustającej Pomocy (7:30, 10:30, 12:00, 18:00) BIAŁCZ – pw. MB Królowej Polski (9:30) STARE DZIEDUSZYCE – pw. Narodzenia NMP (13:00) MOSINA – pw. św. Michała (13:00) WITNICA – pw. Krzyża Świętego (17:00)","","","","http://www.kuria.zg.pl/index.php/diecezja/dekanaty/parafie/item/697-witnica-parafia-pw-matki-bozej-nieustajacej-pomocy"
"Parafia pw. św. Michała Archanioła","","Witoszyn","Witoszyn, ul. Konopnickiej 4, 68-131 Wymiarki;","www.parafiawitoszyn.pl","","797-328-900","ks. Bogdan KONARZEWSKI CM ","WITOSZYN – pw. św. Michała Arch. 7:30, 12:30 KONIN ŻAGAŃSKI – pw. św. Bartłomieja 9:30 LUTYNKA – pw. św. Anny 16:00 – sobota WYMIARKI – pw. św. Wincentego á Paulo 11:00","","","","http://www.kuria.zg.pl/index.php/diecezja/dekanaty/parafie/item/658-witoszyn-parafia-pw-sw-michala-archaniola"
"Parafia pw. św. Jadwigi Królowej","","Wschowa","ul. Zacisze 3, 67-400 Wschowa","www.parafiajadwigi.wschowa.net.pl","","65-540-64-20","ks. kan. Krzysztof MAKSYMOWICZ ","WSCHOWA – pw. św. Jadwigi (8:00, 11:00, 12:30 - od IX do VI, 18:00) PRZYCZYNA GÓRNA – pw. św. Jerzego (9:30)","","","","http://www.kuria.zg.pl/index.php/diecezja/dekanaty/parafie/item/837-wschowa-parafia-pw-sw-jadwigi-krolowej"
"Parafia pw. św. Stanisława Biskupa i Męczennika","","Wschowa","pl. Farny 2, 67-400 Wschowa","www.fara.net.pl","","65-540-21-21","ks. prałat Zygmunt ZAJĄC ","WSCHOWA – pw. św. Stanisława Bpa i Męcz. (7:00, 8:30, 10:00, 11:30, 13:00, 19:00) WSCHOWA – pw. Trójcy Świętej (16:00)","","","","http://www.kuria.zg.pl/index.php/diecezja/dekanaty/parafie/item/838-wschowa-parafia-pw-sw-stanislawa-biskupa-i-meczennika"
"Parafia pw. św. Józefa","","Zabór","ul. W. Witosa 10, 66-003 Zabór","www.zabor.parafia.info.pl","zabpar@o2.pl?subject=ze%20strony%20www","68-327-40-27","ks. lic. mgr Ryszard WALNER ","ZABÓR – pw. św. Józefa (8:00, 12:00, 18:00 - sobota) MILSKO – pw. św. Jadwigi (10:00)","","","","http://www.kuria.zg.pl/index.php/diecezja/dekanaty/parafie/item/867-zabor-parafia-pw-sw-jozefa"
"Parafia pw. Nawiedzenia Najświętszej Maryi Panny","","Żagań","ul. Podgórna 16, 68-100 Żagań","nnmp.zagan.pl","","/fax 68-377-29-16","ks. prałat kan. mgr Eugeniusz JANKIEWICZ ","ŻAGAŃ – pw. Nawiedzenia NMP 7:00, 8:30, 9:45, 11:00, 12:15, 13:30, 18:00 STARY ŻAGAŃ – pw. NMP Królowej Polski 9:15 ŻAGAŃ (KOLONIA LASKI) – kaplica pw. św. M. M. Kolbe 12:15","","","","http://www.kuria.zg.pl/index.php/diecezja/dekanaty/parafie/item/659-zagan-parafia-pw-nawiedzenia-najswietszej-maryi-panny"
"Parafia pw. św. Józefa","","Żagań","ul. Szkolna 43a, 68-100 Żagań,","www.parafia.zagan.pl","","/fax 68-377-27-77","ks. kan. lic. mgr Roman LITWIŃCZUK ","ŻAGAŃ – pw. św. Józefa 8:00, 10:30; ŻAGAŃ – pw. Krzyża Świętego 12:00; ŻAGAŃ – kaplica szpitalna pw. św. Doroty 16:00 - sobota","","","","http://www.kuria.zg.pl/index.php/diecezja/dekanaty/parafie/item/662-zagan-parafia-pw-sw-jozefa"
"Parafia pw. Wniebowzięcia Najświętszej Maryi Panny","","Żagań","pl. Klasztorny 2, 68-100 Żagań","www.wnmp.zagan.pl/","","/fax 68-444-31-10, 68-444-31-14","ks. kan. Zygmunt MOKRZYCKI ","ŻAGAŃ – pw. Wniebowzięcia NMP 7:00, 9:00, 11:00, 12:30, 18:00; ŻAGAŃ – pw. świętych Apostołów Piotra i Pawła 10:00; ŻAGAŃ – pw. Ducha Świętego 16:00","","","","http://www.kuria.zg.pl/index.php/diecezja/dekanaty/parafie/item/663-zagan-parafia-pw-wniebowziecia-najswietszej-maryi-panny"
"Parafia pw. św. Marii Magdaleny","","Zamysłów","Rynek 28, 67-407 Szlichtyngowa","","","65-540-72-25","ks. Antoni ŁATKA ","ZAMYSŁÓW – pw. św. Marii Magdaleny (9:30)","","","","http://www.kuria.zg.pl/index.php/diecezja/dekanaty/parafie/item/839-zamyslow-parafia-pw-sw-marii-magdaleny"
"Parafia pw. Matki Bożej Różańcowej","","Żarki Wielkie","Żarki Wielkie, ul. Zwycięstwa 22, 68-210 Nowe Czaple","","","68-375-30-72 ","ks. Zdzisław SKOREK ","ŻARKI WIELKIE – pw. MB Różańcowej (18:00 - sobota, 10:00, 18:00)","","","","http://www.kuria.zg.pl/index.php/diecezja/dekanaty/parafie/item/729-zarki-wielkie-parafia-pw-matki-bozej-rozancowej"
"Parafia pw. Matki Bożej Szkaplerznej","","Żary","ul. Wyzwolenia 4, 68-205 Żary","www.parafiakunice.republika.pl","","68-479-32-50","ks. Ryszard GAS ","ŻARY – pw. MB Szkaplerznej 18:00 - sobota, 90:0, 11:00, 16:00 SZCZEPANÓW – pw. Najświętszego Serca Pana Jezusa 13:00","","","","http://www.kuria.zg.pl/index.php/diecezja/dekanaty/parafie/item/641-zary-parafia-pw-matki-bozej-szkaplerznej"
"Parafia pw. Miłosierdzia Bożego","","Żary","ul. Okrzei 88, 68-200 Żary,","parafiambzary.pl","","68-444-10-64","ks. kan. Tadeusz MASŁOWSKI ","ŻARY – pw. Miłosierdzia Bożego 7:00, 8:30, 10:00, 11:30, 13:00, 16:00 - 2. niedziela m-ca, 18:00","","","","http://www.kuria.zg.pl/index.php/diecezja/dekanaty/parafie/item/640-zary-parafia-pw-milosierdzia-bozego"
"Parafia pw. Najświętszego Serca Pana Jezusa","","Żary","pl. Kard. St. Wyszyńskiego 4, 68-200 Żary","www.nspjzary.com","milosierdzie.zary@gmail.com?subject=ze%20strony%20www","68-363-40-00","ks. mgr Krzysztof KWAŚNIK ","ŻARY – pw. Najśw. Serca Pana Jezusa 7:00, 8:30, 10:00, 11:30, 13:00, 18:00, 20:00 - okres wakacji; OLSZYNIEC – kaplica pw. MB Częstochowskiej 10:30; ŻARY – pw. świętych Apostołów Piotra i Pawła 9:00","","","","http://www.kuria.zg.pl/index.php/diecezja/dekanaty/parafie/item/639-zary-parafia-pw-najswietszego-serca-pana-jezusa"
"Parafia pw. św. Józefa Oblubieńca","","Żary","ul. 11 listopada 30, 68-200 Żary","www.mojaparafia.dery.pl","","363-86-36","ks. kan. Stanisław POJNAR ","ŻARY – pw. św. Józefa Oblubieńca 7:00, 8:30, 10:00, 11:30, 13:00, 14:00 - dzieci do I Komunii – druga niedziela miesiąca, 18:00, ŻARY – kaplica pw. MB Różańcowej 9:00, 11:30 - dla głuchoniemych","","","","http://www.kuria.zg.pl/index.php/diecezja/dekanaty/parafie/item/642-zary-parafia-pw-sw-jozefa-oblubienca"
"Parafia pw. Wniebowzięcia Najświętszej Maryi Panny","","Żary","ul. 11 listopada 30, 68-200 Żary","www.wnmpzary.pl","","68-479-43-01","ks. Paweł KONIECZNY ","ŻARY – pw. Wniebowzięcia NMP 7:00, 9:00, 10:30, 12:00, 13:15, 18:00; DOS – 8:00","","","","http://www.kuria.zg.pl/index.php/diecezja/dekanaty/parafie/item/635-zary-parafia-pw-wniebowziecia-najswietszej-maryi-panny"
"Parafia pw. Macierzyństwa Najświętszej Maryi Panny","","Zbąszynek","ul. Długa 29, 66-210 Zbąszynek","","","68-384-94-37, , ","ks. kan. lic mgr Jerzy KORDIAK ","1. ZBĄSZYNEK – pw. Macierzyństwa NMP 18:30 - sob., 7:00, 8:15, 9:30, 11:00, 12:15, 18:30; CHLASTAWA – pw. Narodzenia NMP 14:00","","","","http://www.kuria.zg.pl/index.php/diecezja/dekanaty/parafie/item/612-zbaszynek-parafia-pw-macierzynstwa-najswietszej-maryi-panny"
"Parafia pw. Ducha Świętego","","Zielona Góra","ul. Bułgarska 30, 65-647 Zielona Góra","www.duchzg.pl","kancelaria@duchzg.pl?subject=ze%20strony%20www","68-326-47-07","ks. kan. mgr Andrzej IGNATOWICZ ","ZIELONA GÓRA – pw. Ducha Świętego (6:30, 8:30, 10:00, 12:00, 14:00, 19:00)","","","","http://www.kuria.zg.pl/index.php/diecezja/dekanaty/parafie/item/845-zielona-gora-parafia-pw-ducha-swietego"
"Parafia pw. Matki Bożej Częstochowskiej","","Zielona Góra","ul. Kasprowicza 1, 65-074 Zielona Góra","","parmbc@zgora-gorzow.opoka.org.pl?subject=ze%20strony%20www","68-454-89-63","ks. kan. mgr Mieczysław DEREŃ ","ZIELONA GÓRA – pw. MB Częstochowskiej (7:30, 9:30, 11:00, 12:30, 16:30, 18:30, 20:30 w VII i VIII)","","","","http://www.kuria.zg.pl/index.php/diecezja/dekanaty/parafie/item/854-zielona-gora-parafia-pw-matki-bozej-czestochowskiej"
"Parafia pw. Matki Bożej Nieustającej Pomocy","","Zielona Góra","ul. Szmaragdowa 2, 65-385 Zielona Góra","","","68-320-46-27","ks. kan. Krzysztof SKOKOWSKI ","ZIELONA GÓRA – pw. MB Nieustającej Pomocy (8:30, 10:30, 12:00, 18:00)","","","","http://www.kuria.zg.pl/index.php/diecezja/dekanaty/parafie/item/852-zielona-gora-parafia-pw-matki-bozej-nieustajacej-pomocy"
"Parafia pw. Matki Bożej Ostrobramskiej","","Zielona Góra","Drzonków-ul. Kościelna 18, 66-004 Zielona Góra","","","68-327-55-06","ks. mgr Adam TABLOWSKI ","DRZONKÓW – pw. MB Ostrobramskiej (8:00, 10:00, 12:30)","","","","http://www.kuria.zg.pl/index.php/diecezja/dekanaty/parafie/item/849-zielona-gora-parafia-pw-matki-bozej-ostrobramskiej"
"Parafia pw. Matki Bożej Wspomożenia Wiernych","","Zielona Góra","Stary Kisielin-ul. Floriana 2, 66-002 Zielona Góra","","","68-329-93-63","ks. kan. dr Andrzej BRENK ","STARY KISIELIN – pw. MB Wspomożenia Wiernych (8:00, 11:30, 18:00) NOWY KISIELIN – pw. Niepokalanego Serca NMP (10:00)","","","","http://www.kuria.zg.pl/index.php/diecezja/dekanaty/parafie/item/866-zielona-gora-parafia-pw-matki-bozej-wspomozenia-wiernych"
"Parafia pw. Miłosierdzia Bożego","","Zielona Góra","Os. Kaszubskie 7, 65-547 Zielona Góra","","","68-320-00-10","ks. kan. dr Tadeusz KULCZYK ","ZIELONA GÓRA – pw. Miłosierdzia Bożego (8:00, 9:30, 11:00, 12:30, 18:30)","","","","http://www.kuria.zg.pl/index.php/diecezja/dekanaty/parafie/item/868-zielona-gora-parafia-pw-milosierdzia-bozego"
"Parafia pw. Najświętszego Zbawiciela","","Zielona Góra","ul. Chrobrego 8, 65-052 Zielona Góra","www.zbawiciel.zgora.pl","zbawiciel-zgora@o2.pl?subject=ze%20strony%20www","68-320-22-45","ks. kan. lic. mgr Mirosław MACIEJEWSKI ","ZIELONA GÓRA – pw. Najśw. Zbawiciela (7:00, 9:00, 10:30, 12:00, 13:30, 15:00, 19:15, 20:30 - wakacje)","","","","http://www.kuria.zg.pl/index.php/diecezja/dekanaty/parafie/item/869-zielona-gora-parafia-pw-najswietszego-zbawiciela"
"Parafia pw. Najświętszej Trójcy","","Zielona Góra","Ochla-pl. Bogusławy Błyskoszowej 6, 66-006 Zielona Góra","www.parafiaochla.pl/","parafia.ochla@neostrada.pl?subject=ze%20strony%20www","68-321-14-44","ks. Mieczysław POSPIECH ","OCHLA – pw. Najśw. Trójcy (7:30, 11:00, 12:30) JELENIÓW – pw. Miłosierdzia Bożego (9:30)","","","","http://www.kuria.zg.pl/index.php/diecezja/dekanaty/parafie/item/850-zielona-gora-parafia-pw-najswietszej-trojcy"
"Parafia pw. Narodzenia Najświętszej Maryi Panny","","Zielona Góra","Zawada-ul. Kożuchowska 1, 66-001 Zielona Góra","","kkocz@o2.pl","68-321-12-12","ks. kan. mgr Krzysztof KOCZ ","ZAWADA – pw. Narodzenia NMP (8:00, 12:00, 18:00); KRĘPA – pw. Chrystusa Dobrego Pasterza (10:30)","","","","http://www.kuria.zg.pl/index.php/diecezja/dekanaty/parafie/item/563-zielona-gora-parafia-pw-narodzenia-najswietszej-maryi-panny"
"Parafia pw. Niepokalanego Poczęcia Najświętszej Maryi Panny","","Zielona Góra","ul. Chynowska 1, 65-138 Zielona Góra","","","68-325-56-92","ks. dr Andrzej SUCHORSKI ","ZIELONA GÓRA – pw. Niepokalanego Poczęcia NMP (8:00, 10:00, 12:00, 15:00 - I niedziela miesiąca)","","","","http://www.kuria.zg.pl/index.php/diecezja/dekanaty/parafie/item/870-zielona-gora-parafia-pw-niepokalanego-poczecia-najswietszej-maryi-panny"
"Parafia pw. Podwyższenia Krzyża Świętego","","Zielona Góra","ul. Aliny 17, 65-329 Zielona Góra","www.parafianawinnicy.pl","","68-453-98-25","ks. prałat kan. lic. mgr Jan PAWLAK ","ZIELONA GÓRA – pw. Podw. Krzyża Świętego (7:00, 8:30, 10:30, 12:00, 14:00, 18:00) ZIELONA GÓRA – kaplica pw. św. Joanny Beretta Molla w DPS (9:30)","","","","http://www.kuria.zg.pl/index.php/diecezja/dekanaty/parafie/item/853-zielona-gora-parafia-pw-podwyzszenia-krzyza-swietego"
"Parafia pw. św. Alberta Chmielowskiego","","Zielona Góra","ul. Źródlana 33, 65-734 Zielona Góra","","","68-320-38-35","ks. kan. mgr Zygmunt ZIMNAWODA ","ZIELONA GÓRA – pw. św. Alberta Chmielowskiego (7:00, 9:00, 10:15, 11:15, 12:30, 16:30, 18:30)","","","","http://www.kuria.zg.pl/index.php/diecezja/dekanaty/parafie/item/846-zielona-gora-parafia-pw-sw-alberta-chmielowskiego"
"Parafia pw. św. Antoniego Padewskiego","","Zielona Góra","Przylep-ul. 22-go lipca 63, 66-015 Zielona Góra","www.parafiawprzylepie.pl","par.przylep@duchzg.pl?subject=ze%20strony%20www","68-321-16-87","ks. mgr Jarosław LEŚNY ","PRZYLEP – pw. św. Antoniego Padewskiego (8:00, 10:30, 12:00, 18:00)","","","","http://www.kuria.zg.pl/index.php/diecezja/dekanaty/parafie/item/842-zielona-gora-parafia-pw-sw-antoniego-padewskiego"
"Parafia pw. św. Franciszka z Asyżu","","Zielona Góra","ul. Kilińskiego 5, 65-508 Zielona Góra","www.zielona.franciszkanie.pl","zielonag@franciszkanie.pl?subject=ze%20strony%20www","68-412-40-31","o. Zdzisław TAMIOŁA OFMConv. ","ZIELONA GÓRA – pw. św. Franciszka z Asyżu (7:00, 8:30, 10:00, 11:30, 13:00, 18:00)","","","","http://www.kuria.zg.pl/index.php/diecezja/dekanaty/parafie/item/855-zielona-gora-parafia-pw-sw-franciszka-z-asyzu"
"Parafia pw. św. Jadwigi Śląskiej","","Zielona Góra","ul. Mickiewicza 14, 65-053 Zielona Góra","www.konkatedra.zgora-gorzow.opoka.org.pl","zgjadw@zgora-gorzow.opoka.org.pl?subject=ze%20strony%20www","68-320-24-70","ks. prałat kan. mgr Włodzimierz LANGE ","ZIELONA GÓRA – konkatedra pw. św. Jadwigi Śląskiej (18:00 – sobota, 7:30, 9:30, 11:00, 12:15, 14:00, 16:00, 18:00)","","","","http://www.kuria.zg.pl/index.php/diecezja/dekanaty/parafie/item/871-zielona-gora-parafia-pw-sw-jadwigi-slaskiej"
"Parafia pw. św. Józefa Oblubieńca","","Zielona Góra","ul. Prosta 47, 65-783 Zielona Góra","","","68-323-62-80","ks. kan. mgr Leszek KAZIMIERCZAK ","ZIELONA GÓRA – pw. św. Józefa Oblubieńca (7:30, 9:00, 10;30, 12:00, 16:30, 18:00, 20:00) ZIELONA GÓRA – kaplica w hospicjum (1000)","","","","http://www.kuria.zg.pl/index.php/diecezja/dekanaty/parafie/item/847-zielona-gora-parafia-pw-sw-jozefa-oblubienca"
"Parafia pw. św. Mikołaja","","Zielona Góra","Racula-ul. Głogowska 47, 66-004 Zielona Góra","","","68-327-51-21","ks. kan. Andrzej WARCHAŁ ","RACULA – pw. św. Mikołaja (8:00, 10:00, 12:00)","","","","http://www.kuria.zg.pl/index.php/diecezja/dekanaty/parafie/item/851-zielona-gora-parafia-pw-sw-mikolaja"
"Parafia pw. św. Stanisława Kostki","","Zielona Góra","ul. Obywatelska 1, 65-736 Zielona Góra","www.kostka.zgora.pl","info@kostka.zgora.pl?subject=ze%20strony%20www","68-320-08-77","ks. mgr Krzysztof FORYŚ ","ZIELONA GÓRA – pw. św. Stanisława Kostki (8:00, 10:00, 12:00, 18:30)","","","","http://www.kuria.zg.pl/index.php/diecezja/dekanaty/parafie/item/848-zielona-gora-parafia-pw-sw-stanislawa-kostki"
"Parafia pw. św. Urbana I","","Zielona Góra","ul. Braniborska 17, 65-273 Zielona Góra","","","68-320-00-60","ks. kan. mgr Mirosław DONABIDOWICZ ","ZIELONA GÓRA – pw. św. Urbana I (8:00, 11:00, 12:30, 18:30) ZIELONA GÓRA – kaplica pw. Miłosierdzia Bożego w Domu Kombatanta (10:00)","","","","http://www.kuria.zg.pl/index.php/diecezja/dekanaty/parafie/item/872-zielona-gora-parafia-pw-sw-urbana-i"
"Parafia pw. św. Jana Chrzciciela","","Zwierzyn","ul. Kościelna 2a, 66-542 Zwierzyn","","","95-761-73-77","ks. Mieczysław BILSKI ","ZWIERZYN – pw. św. Jana Chrzciciela (8:00, 13:00) GOŚCIMIEC – pw. Narodzenia NMP (11:00) ŻÓŁWIN – pw. św. Andrzeja Boboli (9:30)","","","","http://www.kuria.zg.pl/index.php/diecezja/dekanaty/parafie/item/776-zwierzyn-parafia-pw-sw-jana-chrzciciela"
"Parafia pw. św. Jana Chrzciciela","","Złotnik","Złotnik 42, 68-200 Żary","","","68-374-12-93","ks. mgr Ireneusz SEMKŁO ","ZŁOTNIK – pw. św. Jana Chrzciciela 8:00, 11:30; LUBOMYŚL – pw. MB Częstochowskiej 9:30","","","","http://www.kuria.zg.pl/index.php/diecezja/dekanaty/parafie/item/643-zlotnik-parafia-pw-sw-jana-chrzciciela"
"Parafia pw. św. Michała Archanioła","","Łagoszów Wielki","Łagoszów Wielki 33, Łagoszów Wielki , 59-160 Radwanice","","","76 831-14-05 Historia parafii Pierwsza wzmianka o istnieniu parafii pochodz...","ks. Dariusz Siuda ","Łagoszów Wielki – 8:30; Buczyna – 12:30; Nowa Kuźnica – 18:00 (sobota); Radwanice – 10:00; Sieroszowice – 11:30.","","","","http://www.kuria.zg.pl/index.php/diecezja/dekanaty/parafie/item/98-lagoszow-wielki-parafia-pw-sw-michala-archaniola"
"Parafia pw. św. Jana Chrzciciela","","Łagów","ul. Sulęcińska 11, 66-220 Łagów","","","68-341-20-01","ks. kan. dr Andrzej OCZACHOWSKI ","ŁAGÓW – pw. św. Jana Chrzciciela (10:30, 12:00, 19:00 - od V do IX) JEMIOŁÓW – pw. Podwyższenia Krzyża Świętego (11:30) ŁAGÓW – kaplica pw. Ścięcia św. Jana Chrzciciela (7:30) ŁAGÓWEK – pw. Niepokalanego Poczęcia NMP (9:00) ŻELECHÓW – pw. św. Stanisława Bpa (9:00)","","","","http://www.kuria.zg.pl/index.php/diecezja/dekanaty/parafie/item/818-lagow-parafia-pw-sw-jana-chrzciciela"
"Parafia pw. św. Stanisława Biskupa","","Łęgowo","Łęgowo 48, 66-110 Babimost","","","68-385-16-15","ks. Olgierd BANAŚ ","ŁĘGOWO – pw. św. Stanisława Bpa (11:30) BUKÓW – pw. św. Józefa Oblubieńca (8:30) KLĘPSK – pw. Nawiedzenia NMP (10:00)","","","","http://www.kuria.zg.pl/index.php/diecezja/dekanaty/parafie/item/788-legowo-parafia-pw-sw-stanislawa-biskupa"
"Parafia pw. św. Barbary","","Łęknica","ul. XX-lecia 12, 68-208 Łęknica","","","68-375-30-40 ","ks. mgr Józef POPIEL ","1. ŁĘKNICA – pw. Najśw. Serca Pana Jezusa (8:00, 11:00 , 17:00 – czas zimowy, 18:00 – czas letni) NOWE CZAPLE – pw. MB Bolesnej (9:30, 12:30 – od IX do VI)","","","","http://www.kuria.zg.pl/index.php/diecezja/dekanaty/parafie/item/724-leknica-parafia-pw-sw-barbary"
"Parafia pw. św. Wawrzyńca","","Ługi","Ługi 34, 67-106 Otyń","","","68-388-76-94 ","ks. mgr Ireneusz MASTEJ ","ŁUGI – pw. św. Wawrzyńca (13:00) KSIĄŻ ŚLĄSKI – kalica pw. św. Jana Chrzciciela (10:00) SUCHA – pw. św. Marcina (8:30) ZATONIE – pw. MB Częstochowskiej (11:30)","","","","http://www.kuria.zg.pl/index.php/diecezja/dekanaty/parafie/item/735-lugi-parafia-pw-sw-wawrzynca"
"Parafia pw. Matki Bożej Bolesnej","","Łysiny","Łysiny 32, 67-400 Wschowa","","","65-540-96-08","ks. Bogumił BASZKO ","ŁYSINY – pw. MB Bolesnej (8:00, 11:30) TYLEWICE – pw. Narodzenia NMP (9:30)","","","","http://www.kuria.zg.pl/index.php/diecezja/dekanaty/parafie/item/833-lysiny-parafia-pw-matki-bozej-bolesnej"
